Name,Address,City,State,Workers,Local,District,Contract
"100 Menlo Park Drive, Sp 2545, Edison, NJ",100 Menlo Park Drive,Edison,NJ,1,7958,7,Maroon
"3710 Route 9, Spot D-110, Freehold, NJ",3710 Route 9,Freehold,NJ,26,7666,4,Turquoise
"326 Woodbridge Center, Woodbridge, NJ",326 Woodbridge Center,Woodbridge,NJ,25,4604,8,Goldenrod
"500 Route 73 South, Marlton, NJ",500 Route 73 South,Marlton,NJ,88,8401,9,Purple
"1300 Whitehorse Hamilton Sq Rd, Trenton, NJ",1300 Whitehorse Hamilton Sq Rd,Trenton,NJ,26,3196,1,Maroon
"689 West Edgar Rd., Linden, NJ",689 West Edgar Rd.,Linden,NJ,94,2796,4,Pink
"767 Shoppes Blvd, North Brunswick, NJ",767 Shoppes Blvd,North Brunswick,NJ,14,1778,8,Indigo
"755 State Route 18, East Brunswick, NJ",755 State Route 18,East Brunswick,NJ,57,3077,2,Khaki
"616 Marketplace Blvd, Hamilton, NJ",616 Marketplace Blvd,Hamilton,NJ,71,2880,2,Blue
"509 Berlin - Cross Keys Rd, Sicklerville, NJ",509 Berlin - Cross Keys Rd,Sicklerville,NJ,36,4727,1,Mauv
"255 Hwy 37 East, Toms River, NJ",255 Hwy 37 East,Toms River,NJ,47,7994,6,Yellow
"239 Stafford Park Blvd, Manahawkin, NJ",239 Stafford Park Blvd,Manahawkin,NJ,64,7496,9,Khaki
"650 Consumer Square, Mays Landing, NJ",650 Consumer Square,Mays Landing,NJ,7,8047,5,Crimson
"3849 Delsea Drive, Vineland, NJ",3849 Delsea Drive,Vineland,NJ,52,8937,9,Goldenrod
"6727 Black Horse Pike, Egg Harbor Township, NJ",6727 Black Horse Pike,Egg Harbor Township,NJ,41,5918,5,Khaki
"3373 Us Highway 1 Ste 54a, Lawrenceville, NJ",3373 Us Highway 1 Ste 54a,Lawrenceville,NJ,42,1749,2,Red
"1750 Deptford Center Road, Woodbury, NJ",1750 Deptford Center Road,Woodbury,NJ,46,2626,4,Orange
"2703 Mt. Holly Road, Burlington, NJ",2703 Mt. Holly Road,Burlington,NJ,81,4543,8,Fuscia
"180 Rte 35, Eatontown, NJ",180 Rte 35,Eatontown,NJ,28,444,4,Turquoise
"1400 Nixon Dr., Mount Laurel, NJ",1400 Nixon Dr.,Mount Laurel,NJ,3,9942,8,Violet
"1060 Cedarbridge Ave Ste 56a, Brick, NJ",1060 Cedarbridge Ave Ste 56a,Brick,NJ,59,6222,1,Green
"712 Haddenfield, Cherry Hill, NJ",712 Haddenfield,Cherry Hill,NJ,19,509,5,Blue
"301 Main Street, Suite 292, Paterson, NJ",301 Main Street,Paterson,NJ,5,6255,8,Indigo
"395 Mount Hope Ave, Ste 100, Rockaway, NJ",395 Mount Hope Ave,Rockaway,NJ,43,4523,2,Teal
"651 Kapkowski Road, Space 1098, Elizabeth, NJ",651 Kapkowski Road,Elizabeth,NJ,35,4168,9,Puce
"400 Commons Way, Suite 1355, Bridgewater, NJ",400 Commons Way,Bridgewater,NJ,55,5149,8,Maroon
"1 Garden State Plz, Space1032, Paramus, NJ",1 Garden State Plz,Paramus,NJ,34,2354,5,Blue
"4037 Hempstead Tpke, Suite 3, Bethpage, NY",4037 Hempstead Tpke,Bethpage,NY,74,2903,8,Maroon
"3025 E Main St, Bldg A Ste 1, Cortlandt Manor, NY",3025 E Main St,Cortlandt Manor,NY,1,2466,6,Orange
"5560 Xavier Drive, Ste 5a60, Yonkers, NY",5560 Xavier Drive,Yonkers,NY,53,5311,2,Fuscia
"1949 Turnbull Avenue, Bronx, NY",1949 Turnbull Avenue,Bronx,NY,5,1253,8,Mauv
"425 Lexington Avenue Suite 150, New York, NY",425 Lexington Avenue Suite 150,New York,NY,85,9841,3,Pink
"2201 31st St., Astoria, NY",2201 31st St.,Astoria,NY,89,3056,1,Fuscia
"2152 Bartow Avenue, Bronx, NY",2152 Bartow Avenue,Bronx,NY,80,2866,1,Teal
"2121-2123 86th Street, Brooklyn, NY",2121-2123 86th Street,Brooklyn,NY,80,4192,5,Red
"1101 Kings Hwy, Brooklyn, NY",1101 Kings Hwy,Brooklyn,NY,10,5074,4,Mauv
"39-15 Main Street, Flushing, NY",39-15 Main Street,Flushing,NY,24,4220,4,Yellow
"10724 Continental Ave, Forest Hills, NY",10724 Continental Ave,Forest Hills,NY,31,6508,6,Crimson
"400 Hamilton Ave, White Plains, NY",400 Hamilton Ave,White Plains,NY,56,8180,4,Red
"37-14 Junction Blvd, Corona, NY",37-14 Junction Blvd,Corona,NY,7,6156,3,Mauv
"160 Montague St, Brooklyn, NY",160 Montague St,Brooklyn,NY,56,9982,7,Orange
"154 Fulton Avenue, Hempstead, NY",154 Fulton Avenue,Hempstead,NY,58,766,5,Teal
"5120 5th Ave, Brooklyn, NY",5120 5th Ave,Brooklyn,NY,47,2626,4,Turquoise
"1592 Route 22 East, Watchung, NJ",1592 Route 22 East,Watchung,NJ,82,3823,1,Crimson
"776 Route 3 West, Clifton, NJ",776 Route 3 West,Clifton,NJ,6,7478,1,Orange
"350 Park Ave, New York, NY",350 Park Ave,New York,NY,96,5706,7,Purple
"2882 C 3rd Ave, Bronx, NY",2882 C 3rd Ave,Bronx,NY,71,8051,5,Orange
"65 E State Rt 4, Paramus, NJ",65 E State Rt 4,Paramus,NJ,10,809,9,Goldenrod
"1610 Flatbush Avenue, Brooklyn, NY",1610 Flatbush Avenue,Brooklyn,NY,12,3532,6,Fuscia
"61-44 188th St, Fresh Meadows, NY",61-44 188th St,Fresh Meadows,NY,76,5017,3,Purple
"217 Broadway, New York, NY",217 Broadway,New York,NY,79,9392,7,Violet
"31 E 17th St, New York, NY",31 E 17th St,New York,NY,33,8111,2,Blue
"2865 Richmond Ave, Staten Island, NY",2865 Richmond Ave,Staten Island,NY,90,5863,3,Yellow
"1400 Willowbrook Mall Sp 1820, Wayne, NJ",1400 Willowbrook Mall Sp 1820,Wayne,NJ,72,3100,6,Indigo
"592 Sixth Ave, New York, NY",592 Sixth Ave,New York,NY,64,5448,8,Pink
"209 West 34th Street, New York, NY",209 West 34th Street,New York,NY,84,4325,5,Pink
"835 Central Park Ave, Scarsdale, NY",835 Central Park Ave,Scarsdale,NY,54,3141,5,Violet
"1014 Southern Blvd, Bronx, NY",1014 Southern Blvd,Bronx,NY,91,202,7,Purple
"1559 Westchester Avenue, Bronx, NY",1559 Westchester Avenue,Bronx,NY,42,9930,3,Violet
"1520 Deer Park Ave, North Babylon, NY",1520 Deer Park Ave,North Babylon,NY,35,7546,3,Teal
"2540 Broadway, New York, NY",2540 Broadway,New York,NY,50,7900,4,Green
"260 Canal Street, New York, NY",260 Canal Street,New York,NY,80,833,1,Aquamarine
"532 Broadway, New York, NY",532 Broadway,New York,NY,93,3005,2,Khaki
"9015 Queens Blvd Ste 25, Elmhurst, NY",9015 Queens Blvd Ste 25,Elmhurst,NY,80,3569,4,Mauv
"7975 Jericho Turnpike, Woodbury, NY",7975 Jericho Turnpike,Woodbury,NY,44,7240,5,Mauv
"1 AT&T Way, Bedminster, NJ",1 AT&T Way,Bedminster,NJ,68,7530,7,Teal
"2268 Route 22 E, Union, NJ",2268 Route 22 E,Union,NJ,66,2561,3,Khaki
"301 Mount Hope Ave Ste 2031a, Rockaway, NJ",301 Mount Hope Ave Ste 2031a,Rockaway,NJ,18,7256,1,Purple
"745 Broadway, New York, NY",745 Broadway,New York,NY,46,61,5,Crimson
"316 Rockaway Turnpike, Cedarhurst, NY",316 Rockaway Turnpike,Cedarhurst,NY,25,6530,9,Turquoise
"144 Delancey St, New York, NY",144 Delancey St,New York,NY,41,4125,8,Yellow
"200 5th Avenue, New York, NY",200 5th Avenue,New York,NY,89,6255,6,Aquamarine
"1000 Sunrise Hwy, Massapequa, NY",1000 Sunrise Hwy,Massapequa,NY,96,697,9,Maroon
"3 Times Sq, New York, NY",3 Times Sq,New York,NY,49,8796,8,Crimson
"1330 Palisades Center Dr., West Nyack, NY",1330 Palisades Center Dr.,West Nyack,NY,66,6406,3,Orange
"381 Madison Ave, New York, NY",381 Madison Ave,New York,NY,5,4886,8,Puce
"15 E Midland Ave, Paramus, NJ",15 E Midland Ave,Paramus,NJ,70,2298,4,Turquoise
"198 Armstrong Rd, Garden City Park, NY",198 Armstrong Rd,Garden City Park,NY,61,8687,6,Orange
"3545 Broadway, New York, NY",3545 Broadway,New York,NY,48,8588,3,Yellow
"494 Gateway Dr Unit 14, Brooklyn, NY",494 Gateway Dr Unit 14,Brooklyn,NY,81,859,3,Purple
"205-14 Northern Blvd, Bayside, NY",205-14 Northern Blvd,Bayside,NY,37,9504,7,Purple
"160 Market St, Newark, NJ",160 Market St,Newark,NJ,18,2760,5,Turquoise
"2093 Smith Haven Plaza, Lake Grove, NY",2093 Smith Haven Plaza,Lake Grove,NY,36,894,4,Khaki
"47 Northern Blvd, Great Neck, NY",47 Northern Blvd,Great Neck,NY,8,8164,6,Teal
"630 Old Country Road, Garden City, NY",630 Old Country Road,Garden City,NY,33,4829,9,Green
"92 Linwood Plaza, Fort Lee, NJ",92 Linwood Plaza,Fort Lee,NJ,2,943,9,Fuscia
"605 State Route 46 E, Little Falls, NJ",605 State Route 46 E,Little Falls,NJ,14,7791,4,Orange
"75 W Passaic St, Rochelle Park, NJ",75 W Passaic St,Rochelle Park,NJ,82,4351,3,Puce
"614 West 181st Street, New York, NY",614 West 181st Street,New York,NY,69,1142,2,Crimson
"350 N. Broadway, Jericho, NY",350 N. Broadway,Jericho,NY,70,8156,7,Maroon
"81 West 125th Street, New York, NY",81 West 125th Street,New York,NY,42,7116,8,Goldenrod
"106 Washington St, Hoboken, NJ",106 Washington St,Hoboken,NJ,34,3501,9,Purple
"618-620 Brighton Beach Ave, Brooklyn, NY",618-620 Brighton Beach Ave,Brooklyn,NY,73,3440,5,Green
"1096 Green Acres Mall, Valley Stream, NY",1096 Green Acres Mall,Valley Stream,NY,7,4682,8,Purple
"2066 Broadway (171 West 71st), New York, NY",2066 Broadway (171 West 71st),New York,NY,32,9215,4,Orange
"33 Thomas St, New York, NY",33 Thomas St,New York,NY,59,239,6,Aquamarine
"773 Lexington Ave, New York, NY",773 Lexington Ave,New York,NY,22,5530,6,Violet
"372 Smith Haven Mall, Lake Grove, NY",372 Smith Haven Mall,Lake Grove,NY,72,4274,2,Crimson
"30 Mall Dr. West, Jersey City, NJ",30 Mall Dr. West,Jersey City,NJ,58,4896,3,Khaki
"200 E 86th St, New York, NY",200 E 86th St,New York,NY,85,1192,3,Green
"3736 82nd Street, Jackson Heights, NY",3736 82nd Street,Jackson Heights,NY,26,85,4,Violet
"21 Graham Avenue, Brooklyn, NY",21 Graham Avenue,Brooklyn,NY,6,5713,4,Goldenrod
"1444 E Jericho Tpke, Huntington, NY",1444 E Jericho Tpke,Huntington,NY,69,2743,3,Violet
"1411 Forest Ave, Staten Island, NY",1411 Forest Ave,Staten Island,NY,98,2476,8,Purple
"855 Montauk Hwy, Shirley, NY",855 Montauk Hwy,Shirley,NY,62,5322,6,Red
"476 Fulton St, Brooklyn, NY",476 Fulton St,Brooklyn,NY,14,8291,8,Orange
"164 - 11 Jamaica Ave, Jamaica, NY",164 - 11 Jamaica Ave,Jamaica,NY,58,4622,6,Blue
"95 William St, Newark, NJ",95 William St,Newark,NJ,94,4990,6,Violet
"16 East Fordham Rd, Bronx, NY",16 East Fordham Rd,Bronx,NY,63,5413,4,Orange
"250 West 57th Street, New York, NY",250 West 57th Street,New York,NY,76,1960,3,Green
"1103 Third Avenue, New York, NY",1103 Third Avenue,New York,NY,12,1771,8,Red
"453 86th Street, Brooklyn, NY",453 86th Street,Brooklyn,NY,45,1281,9,Indigo
"48 Rockland Plaza Route 59, Nanuet, NY",48 Rockland Plaza Route 59,Nanuet,NY,67,9321,9,Blue
"30-67 Steinway St., Astoria, NY",30-67 Steinway St.,Astoria,NY,79,4741,9,Blue
"75 River Road, Edgewater, NJ",75 River Road,Edgewater,NJ,73,175,2,Maroon
"1758 Veterans Memorial Highway, Islandia, NY",1758 Veterans Memorial Highway,Islandia,NY,94,996,3,Khaki
"2655 Richmond Ave, Staten Island, NY",2655 Richmond Ave,Staten Island,NY,34,5199,4,Khaki
"2195 Broadway, New York, NY",2195 Broadway,New York,NY,28,8633,4,Mauv
"381 East Fordham Rd, Bronx, NY",381 East Fordham Rd,Bronx,NY,53,4002,4,Pink
"2411c Hempstead Turnpike, East Meadow, NY",2411c Hempstead Turnpike,East Meadow,NY,67,779,1,Yellow
"1330 Avenue Of The Americas, New York, NY",1330 Avenue Of The Americas,New York,NY,4,3276,4,Goldenrod
"1200 Morris Turnpike, Short Hills, NJ",1200 Morris Turnpike,Short Hills,NJ,62,7449,7,Red
"134 E. Main Street, Mount Kisco, NY",134 E. Main Street,Mount Kisco,NY,31,5750,1,Maroon
"390 Starke Rd, Carlstadt, NJ",390 Starke Rd,Carlstadt,NJ,53,3352,3,Orange
"3505 Amelia Drive, Orchard Park, NY",3505 Amelia Drive,Orchard Park,NY,5,3061,3,Blue
"3057 Route 50, Ste 900, Saratoga Springs, NY",3057 Route 50,Saratoga Springs,NY,25,7265,6,Purple
"9627 Destiny Usa Dr, Sp B106, Syracuse, NY",9627 Destiny Usa Dr,Syracuse,NY,32,6089,9,Khaki
"748 South Meadow St, Ste 200, Ithaca, NY",748 South Meadow St,Ithaca,NY,100,11,6,Crimson
"223 Reynolds Rd, Johnson City, NY",223 Reynolds Rd,Johnson City,NY,36,5961,9,Puce
"307 Troy Road, Rensselaer, NY",307 Troy Road,Rensselaer,NY,36,3137,5,Green
"1 Crossgates Mall Rd, Albany, NY",1 Crossgates Mall Rd,Albany,NY,63,6,2,Fuscia
"1 Crossgates Mall Rd Spc B-128, Albany, NY",1 Crossgates Mall Rd Spc B-128,Albany,NY,47,966,7,Violet
"2 Kross Keys Dr, Albany, NY",2 Kross Keys Dr,Albany,NY,68,7818,6,Puce
"1509 Country Rd 64, Horseheads, NY",1509 Country Rd 64,Horseheads,NY,30,3765,1,Red
"74 Quaker Road, Queensbury, NY",74 Quaker Road,Queensbury,NY,10,8904,4,Red
"3108 Vestal Pkwy E, Vestal, NY",3108 Vestal Pkwy E,Vestal,NY,44,9884,6,Yellow
"604 Factory Ave, Syracuse, NY",604 Factory Ave,Syracuse,NY,55,2748,3,Maroon
"21182 Salmon Run Mall Loop W, Watertown, NY",21182 Salmon Run Mall Loop W,Watertown,NY,80,1700,3,Violet
"404 Balltown Rd, Schenectady, NY",404 Balltown Rd,Schenectady,NY,67,9528,4,Fuscia
"404 Smith St, Syracuse, NY",404 Smith St,Syracuse,NY,66,1597,8,Yellow
"43 Smithfield Blvd, Plattsburgh, NY",43 Smithfield Blvd,Plattsburgh,NY,81,3829,6,Violet
"1137 Ulster Ave, Kingston, NY",1137 Ulster Ave,Kingston,NY,54,1275,2,Yellow
"330 Route 211 East, Middletown, NY",330 Route 211 East,Middletown,NY,47,2478,3,Blue
"1431 Route 300, Newburgh, NY",1431 Route 300,Newburgh,NY,8,5282,8,Orange
"1730 Niagara Falls Blvd Ste400, Tonawanda, NY",1730 Niagara Falls Blvd Ste400,Tonawanda,NY,39,7902,1,Khaki
"1 Walden Galleria Drive, Cheektowaga, NY",1 Walden Galleria Drive,Cheektowaga,NY,35,5410,9,Blue
"1741 Sheridan Drive, Tonawanda, NY",1741 Sheridan Drive,Tonawanda,NY,80,303,4,Indigo
"1690 Walden Ave, Buffalo, NY",1690 Walden Ave,Buffalo,NY,55,4505,1,Yellow
"8200 Transit Rd, Amherst, NY",8200 Transit Rd,Amherst,NY,33,3100,2,Teal
"4900 Transit Rd, Depew, NY",4900 Transit Rd,Depew,NY,14,5489,3,Green
"4777 Commercial Dr., Utica, NY",4777 Commercial Dr.,Utica,NY,68,1148,1,Khaki
"600 Whitney Rd W, Fairport, NY",600 Whitney Rd W,Fairport,NY,26,1003,8,Green
"620 Jefferson Rd Ste 200, Rochester, NY",620 Jefferson Rd Ste 200,Rochester,NY,17,4464,9,Khaki
"2672 West Ridge Rd., Greece, NY",2672 West Ridge Rd.,Greece,NY,41,3974,3,Blue
"7979 Pittsford-victor Rd Sp4, Victor, NY",7979 Pittsford-victor Rd Sp4,Victor,NY,7,6020,2,Turquoise
"401 Greece Ridge Center Dr, Rochester, NY",401 Greece Ridge Center Dr,Rochester,NY,51,3218,2,Green
"345 North Main St, Ste 104, West Hartford, CT",345 North Main St,West Hartford,CT,12,49,3,Puce
"500 Westfarms Mall, Space B126, Farmington, CT",500 Westfarms Mall,Farmington,CT,15,6982,6,Orange
"300 Mishawum Rd, Ste 720, Woburn, MA",300 Mishawum Rd,Woburn,MA,58,8839,3,Blue
"Route 1, South Main Street, Saugus, MA",Route 1,Saugus,MA,24,991,3,Turquoise
"225 Market Street, Lynnfield, MA",225 Market Street,Lynnfield,MA,47,8303,9,Green
"210 Andover Street # E182, Peabody, MA",210 Andover Street # E182,Peabody,MA,38,2317,3,Goldenrod
"453 Park Avenue, Worcester, MA",453 Park Avenue,Worcester,MA,43,2151,5,Orange
"185 Bodwell St, Avon, MA",185 Bodwell St,Avon,MA,59,16,2,Indigo
"1363 Washington St., Hanover, MA",1363 Washington St.,Hanover,MA,25,2568,3,Puce
"32 John F Kennedy Street, Cambridge, MA",32 John F Kennedy Street,Cambridge,MA,24,3725,2,Blue
"75 Middlesex Turnpike St 2058a, Burlington, MA",75 Middlesex Turnpike St 2058a,Burlington,MA,53,3933,8,Indigo
"1919 East Main St., Torrington, CT",1919 East Main St.,Torrington,CT,91,8505,2,Orange
"172 Deming Street, Manchester, CT",172 Deming Street,Manchester,CT,94,5132,6,Goldenrod
"935 West Main St, Branford, CT",935 West Main St,Branford,CT,60,3063,1,Green
"606 Tarkiln Hill Rd, New Bedford, MA",606 Tarkiln Hill Rd,New Bedford,MA,47,2963,2,Puce
"550 Cochituate Rd, Framingham, MA",550 Cochituate Rd,Framingham,MA,71,7850,4,Pink
"1201 Boston Post Rd, Milford, CT",1201 Boston Post Rd,Milford,CT,35,9063,3,Pink
"211-c Highland Ave, Seekonk, MA",211-c Highland Ave,Seekonk,MA,95,3030,6,Mauv
"155 Northboro Rd, Southborough, MA",155 Northboro Rd,Southborough,MA,72,9765,8,Pink
"1214 Iyanough Road, Hyannis, MA",1214 Iyanough Road,Hyannis,MA,12,6483,2,Khaki
"250 Granite St., Braintree, MA",250 Granite St.,Braintree,MA,17,9020,2,Khaki
"287 School St Bldg A Unit 110, Mansfield, MA",287 School St Bldg A Unit 110,Mansfield,MA,89,2742,3,Violet
"826 Boston Rd, Springfield, MA",826 Boston Rd,Springfield,MA,83,4996,1,Green
"70 Worcester Providence Tpke, Millbury, MA",70 Worcester Providence Tpke,Millbury,MA,69,8659,4,Goldenrod
"1 Providence Place, Providence, RI",1 Providence Place,Providence,RI,66,2192,8,Purple
"194 Buckland Hills Dr, Manchester, CT",194 Buckland Hills Dr,Manchester,CT,7,8619,9,Orange
"100 Cambridgeside Place, Cambridge, MA",100 Cambridgeside Place,Cambridge,MA,52,6705,7,Blue
"3243 Berlin Turnpike, Newington, CT",3243 Berlin Turnpike,Newington,CT,7,9584,1,Purple
"430 Broad Street, New London, CT",430 Broad Street,New London,CT,66,5011,7,Turquoise
"42 Greenwich Ave, Greenwich, CT",42 Greenwich Ave,Greenwich,CT,84,8809,6,Red
"2273 Black Rock Turnpike, Fairfield, CT",2273 Black Rock Turnpike,Fairfield,CT,68,1480,6,Mauv
"2147 Summer St., Stamford, CT",2147 Summer St.,Stamford,CT,60,1429,6,Blue
"84 Deerfield Ln, Meriden, CT",84 Deerfield Ln,Meriden,CT,80,1431,5,Red
"50 Royal Little Dr, Providence, RI",50 Royal Little Dr,Providence,RI,11,6915,6,Yellow
"450 State Rd, North Dartmouth, MA",450 State Rd,North Dartmouth,MA,13,1455,1,Maroon
"2421 Cranberry Hwy, Wareham, MA",2421 Cranberry Hwy,Wareham,MA,4,1369,5,Aquamarine
"443 Washington St/8 Winter St, Boston, MA",443 Washington St/8 Winter St,Boston,MA,83,8411,9,Mauv
"622 George Washington Hwy #41a, Lincoln, RI",622 George Washington Hwy #41a,Lincoln,RI,2,2539,9,Khaki
"1018 Riverdale St., West Springfield, MA",1018 Riverdale St.,West Springfield,MA,68,3987,8,Orange
"699 Boylston Street, Boston, MA",699 Boylston Street,Boston,MA,50,1331,4,Blue
"362 Industrial Park Rd, Middletown, CT",362 Industrial Park Rd,Middletown,CT,97,7928,5,Green
"1329 Beacon St, Brookline, MA",1329 Beacon St,Brookline,MA,79,1187,6,Mauv
"123 Farmington Avenue, Bristol, CT",123 Farmington Avenue,Bristol,CT,73,8524,7,Blue
"91 Boston Post Rd, Orange, CT",91 Boston Post Rd,Orange,CT,58,5312,7,Khaki
"496 South Broad St. Suite F, Meriden, CT",496 South Broad St. Suite F,Meriden,CT,57,4310,2,Red
"329 Main St., Malden, MA",329 Main St.,Malden,MA,89,1451,2,Aquamarine
"405 Queen Street Plaza, Southington, CT",405 Queen Street Plaza,Southington,CT,39,1711,9,Teal
"495 Union Street, Waterbury, CT",495 Union Street,Waterbury,CT,40,2665,9,Crimson
"522 Fairfield Ave, Bridgeport, CT",522 Fairfield Ave,Bridgeport,CT,98,715,3,Mauv
"400 Bald Hill Road Site F4a, Warwick, RI",400 Bald Hill Road Site F4a,Warwick,RI,28,5062,3,Goldenrod
"119 Gates St, White River Junction, VT",119 Gates St,White River Junction,VT,64,7181,5,Crimson
"85 Marianno S. Bishop Blvd, Fall River, MA",85 Marianno S. Bishop Blvd,Fall River,MA,46,9769,9,Teal
"769 Iyannough Rd, Hyannis, MA",769 Iyannough Rd,Hyannis,MA,20,2683,3,Maroon
"12 Blanchard Rd, Burlington, MA",12 Blanchard Rd,Burlington,MA,26,5114,1,Indigo
"1245 Worchester St., Natick, MA",1245 Worchester St.,Natick,MA,90,5022,6,Red
"860 Providence Hwy, Dedham, MA",860 Providence Hwy,Dedham,MA,5,1158,5,Green
"5065 Main St Space 9125, Trumbull, CT",5065 Main St Space 9125,Trumbull,CT,87,1524,4,Aquamarine
"7 Backus Ave., Danbury, CT",7 Backus Ave.,Danbury,CT,46,9500,7,Orange
"87 West Stafford Road, Stafford Springs, CT",87 West Stafford Road,Stafford Springs,CT,59,7761,9,Purple
"777 Connecticut Ave, Norwalk, CT",777 Connecticut Ave,Norwalk,CT,69,1166,3,Green
"878 Stillwater Ste C, Bangor, ME",878 Stillwater Ste C,Bangor,ME,83,4485,4,Puce
"470 Lewis Ave, Meriden, CT",470 Lewis Ave,Meriden,CT,54,6064,3,Khaki
"140 Glastonbury Blvd, Glastonbury, CT",140 Glastonbury Blvd,Glastonbury,CT,100,9137,5,Goldenrod
"999 S. Washington Street, North Attleboro, MA",999 S. Washington Street,North Attleboro,MA,6,6299,7,Mauv
"850 Hartford Tpk, Waterford, CT",850 Hartford Tpk,Waterford,CT,78,6453,9,Teal
"185 Bent St, Cambridge, MA",185 Bent St,Cambridge,MA,9,2288,5,Pink
"50 Holyoke St, Holyoke, MA",50 Holyoke St,Holyoke,MA,92,5364,4,Khaki
"62 Davis Straits, Falmouth, MA",62 Davis Straits,Falmouth,MA,37,680,5,Puce
"100 Greyrock Place Space, Stamford, CT",100 Greyrock Place Space,Stamford,CT,69,7798,8,Mauv
"2100 Dixwell Ave, Hamden, CT",2100 Dixwell Ave,Hamden,CT,10,2367,8,Goldenrod
"1319 Boston Post Road, Milford, CT",1319 Boston Post Road,Milford,CT,63,9853,6,Khaki
"300 Universal Drive North, North Haven, CT",300 Universal Drive North,North Haven,CT,59,1126,2,Red
"100 Main St. North, Southbury, CT",100 Main St. North,Southbury,CT,93,9533,9,Violet
"12 Saunders Way, Westbrook, ME",12 Saunders Way,Westbrook,ME,85,2765,7,Indigo
"7 Hazard Ave Ste B, Enfield, CT",7 Hazard Ave Ste B,Enfield,CT,91,7185,5,Crimson
"1100 Market St #1142, R-103, Philadelphia, PA",1100 Market St #1142,Philadelphia,PA,37,5758,5,Mauv
"5256 State Rte 30, Space Nl 13, Greensburg, PA",5256 State Rte 30,Greensburg,PA,81,599,7,Yellow
"1 Route 18, Suite 571, Monaca, PA",1 Route 18,Monaca,PA,51,5698,6,Orange
"2500 Moreland Avenue, #8, Willow Grove, PA",2500 Moreland Avenue,Willow Grove,PA,82,9156,9,Blue
"270 Bilmar Dr, Pittsburgh, PA",270 Bilmar Dr,Pittsburgh,PA,8,2457,8,Turquoise
"1000 Ross Park Mall Dr, Pittsburgh, PA",1000 Ross Park Mall Dr,Pittsburgh,PA,12,1553,1,Teal
"3225 Pleasant Valley Blvd, Altoona, PA",3225 Pleasant Valley Blvd,Altoona,PA,44,2581,6,Yellow
"20125 Rt 19, Cranberry Twp, PA",20125 Rt 19,Cranberry Twp,PA,86,1592,3,Goldenrod
"100 Viewmont Mall, Scranton, PA",100 Viewmont Mall,Scranton,PA,49,9165,4,Puce
"761 - 763 W. Lancaster Ave., Bryn Mawr, PA",761 - 763 W. Lancaster Ave.,Bryn Mawr,PA,81,8301,9,Violet
"2233 Lincoln Hwy East, Lancaster, PA",2233 Lincoln Hwy East,Lancaster,PA,21,4928,1,Teal
"117 South 69th Street, Upper Darby, PA",117 South 69th Street,Upper Darby,PA,49,9826,7,Aquamarine
"1100 Baltimore Pike, Springfield, PA",1100 Baltimore Pike,Springfield,PA,43,9044,1,Maroon
"1 Susquehanna Vly Mall Dr A-9, Selinsgrove, PA",1 Susquehanna Vly Mall Dr A-9,Selinsgrove,PA,45,9550,7,Yellow
"1020 Blakeslee Blvd, Lehighton, PA",1020 Blakeslee Blvd,Lehighton,PA,100,3619,7,Indigo
"214 Lehigh Valley Mall, Whitehall, PA",214 Lehigh Valley Mall,Whitehall,PA,53,4371,6,Aquamarine
"400 Schell Lane, Phoenixville, PA",400 Schell Lane,Phoenixville,PA,29,9832,7,Mauv
"33 S 16th St, Philadelphia, PA",33 S 16th St,Philadelphia,PA,42,3389,8,Pink
"161 E City Avenue, Bala Cynwyd, PA",161 E City Avenue,Bala Cynwyd,PA,91,779,9,Teal
"4375 Lewis Rd, Harrisburg, PA",4375 Lewis Rd,Harrisburg,PA,57,285,4,Goldenrod
"160 N Gulph Rd, King Of Prussia, PA",160 N Gulph Rd,King Of Prussia,PA,65,9277,3,Goldenrod
"301 S Hills Village Mall, Pittsburgh, PA",301 S Hills Village Mall,Pittsburgh,PA,72,8509,1,Turquoise
"4030 William Penn Hwy, Monroeville, PA",4030 William Penn Hwy,Monroeville,PA,30,1430,7,Mauv
"2107b Cottman Ave, Philadelphia, PA",2107b Cottman Ave,Philadelphia,PA,1,6770,6,Puce
"2085 East State Street, Hermitage, PA",2085 East State Street,Hermitage,PA,59,4252,8,Yellow
"1000 Easton Road, Wyncote, PA",1000 Easton Road,Wyncote,PA,96,3055,1,Yellow
"5177 Commerce Dr, York, PA",5177 Commerce Dr,York,PA,12,7241,7,Yellow
"1906 Macarthur Rd, Whitehall, PA",1906 Macarthur Rd,Whitehall,PA,19,7319,9,Fuscia
"4350 Commerce Dr, Whitehall, PA",4350 Commerce Dr,Whitehall,PA,18,1629,6,Pink
"1465 W Broad Street, Quakertown, PA",1465 W Broad Street,Quakertown,PA,97,9049,3,Blue
"300 Town Center Drive Suite 1c, York, PA",300 Town Center Drive Suite 1c,York,PA,26,3001,5,Red
"3578 Route 611 Suite 265, Bartonsville, PA",3578 Route 611 Suite 265,Bartonsville,PA,45,9652,6,Pink
"3588 Capital City Mall Dr., Camp Hill, PA",3588 Capital City Mall Dr.,Camp Hill,PA,89,8224,1,Khaki
"1851 Columbus Blvd, Philadelphia, PA",1851 Columbus Blvd,Philadelphia,PA,70,8393,9,Violet
"280 Butler Commons, Butler, PA",280 Butler Commons,Butler,PA,99,3902,3,Maroon
"931 Bethlehem Pike, Montgomeryville, PA",931 Bethlehem Pike,Montgomeryville,PA,69,9109,9,Mauv
"1665 State Hill Rd, Wyomissing, PA",1665 State Hill Rd,Wyomissing,PA,93,4821,3,Yellow
"500 Galleria Dr, Johnstown, PA",500 Galleria Dr,Johnstown,PA,41,1523,9,Turquoise
"2899 Whiteford Rd, York, PA",2899 Whiteford Rd,York,PA,69,8296,3,Crimson
"2300 East Lincoln Highway, Langhorne, PA",2300 East Lincoln Highway,Langhorne,PA,51,4039,1,Mauv
"173a Levittown Parkway, Levittown, PA",173a Levittown Parkway,Levittown,PA,72,9361,9,Khaki
"101 Wilson Avenue Ste A, Hanover, PA",101 Wilson Avenue Ste A,Hanover,PA,54,799,4,Goldenrod
"2420 Cumberland Street, Lebanon, PA",2420 Cumberland Street,Lebanon,PA,62,9360,7,Aquamarine
"2533 West State Street, New Castle, PA",2533 West State Street,New Castle,PA,92,7578,3,Yellow
"3758 Dryland Way, Easton, PA",3758 Dryland Way,Easton,PA,79,4573,9,Teal
"301 W Chelten Avenue, Philadelphia, PA",301 W Chelten Avenue,Philadelphia,PA,16,6869,5,Crimson
"19045 Park Avenue Plaza, Meadville, PA",19045 Park Avenue Plaza,Meadville,PA,56,2629,4,Indigo
"950 Madison Ave, Norristown, PA",950 Madison Ave,Norristown,PA,6,8120,7,Mauv
"500 S 27th St, Philadelphia, PA",500 S 27th St,Philadelphia,PA,74,7596,2,Turquoise
"809 Scranton Carbondale Hwy, Scranton, PA",809 Scranton Carbondale Hwy,Scranton,PA,32,5797,9,Violet
"117 Park City, Lancaster, PA",117 Park City,Lancaster,PA,33,419,5,Blue
"586 Susquehanna Boulevard, Hazleton, PA",586 Susquehanna Boulevard,Hazleton,PA,6,175,7,Purple
"3584 Aramingo Ave, Philadelphia, PA",3584 Aramingo Ave,Philadelphia,PA,11,6460,2,Maroon
"6807 Peach Street, Erie, PA",6807 Peach Street,Erie,PA,61,1182,4,Purple
"778 West Sproul Road, Springfield, PA",778 West Sproul Road,Springfield,PA,52,3350,5,Orange
"2733 Paper Mills Rd, Reading, PA",2733 Paper Mills Rd,Reading,PA,66,5817,8,Yellow
"1725 North Atherton Street, State College, PA",1725 North Atherton Street,State College,PA,73,3546,4,Turquoise
"4920 Jonestown Road, Harrisburg, PA",4920 Jonestown Road,Harrisburg,PA,14,4517,1,Pink
"325 Washington Rd, Washington, PA",325 Washington Rd,Washington,PA,5,9871,4,Goldenrod
"240 Waterfront Dr E, Homestead, PA",240 Waterfront Dr E,Homestead,PA,66,569,9,Maroon
"1501 Walnut Street, Philadelphia, PA",1501 Walnut Street,Philadelphia,PA,9,2897,2,Puce
"620 West Dekalb Pike, King Of Prussia, PA",620 West Dekalb Pike,King Of Prussia,PA,69,5665,4,Crimson
"1108 Town Square Rd., Pottstown, PA",1108 Town Square Rd.,Pottstown,PA,59,9643,3,Teal
"485 Lasley Ave, Hanover Township, PA",485 Lasley Ave,Hanover Township,PA,99,2288,2,Yellow
"241 Exton Square Pkwy, Exton, PA",241 Exton Square Pkwy,Exton,PA,66,5973,5,Yellow
"132 Christiana Mall, Space1740, Newark, DE",132 Christiana Mall,Newark,DE,94,508,7,Mauv
"5608 Concord Pike, Wilmington, DE",5608 Concord Pike,Wilmington,DE,48,1128,2,Indigo
"19354 Unit A Miller Rd, Rehoboth Beach, DE",19354 Unit A Miller Rd,Rehoboth Beach,DE,81,4099,7,Mauv
"3601 Concord Pike, Wilmington, DE",3601 Concord Pike,Wilmington,DE,79,6864,1,Green
"65 Southgate Blvd, New Castle, DE",65 Southgate Blvd,New Castle,DE,54,8807,3,Maroon
"4603 Kirkwood Highway, Wilmington, DE",4603 Kirkwood Highway,Wilmington,DE,87,419,2,Turquoise
"275 North Dupont Highway, Dover, DE",275 North Dupont Highway,Dover,DE,56,6346,1,Puce
"4025 West Tilghman Street Un 3, Allentown, PA",4025 West Tilghman Street Un 3,Allentown,PA,26,881,5,Orange
"3588 Capital City Mall Dr., Camp Hill, PA",3588 Capital City Mall Dr.,Camp Hill,PA,82,9439,3,Purple
"4030 William Penn Hwy, Monroeville, PA",4030 William Penn Hwy,Monroeville,PA,39,7667,6,Green
"1115 West Chester Pike, West Chester, PA",1115 West Chester Pike,West Chester,PA,96,1485,3,Teal
"2550 Interstate Dr, Harrisburg, PA",2550 Interstate Dr,Harrisburg,PA,75,2964,3,Goldenrod
"3225 Pleasant Valley Blvd, Altoona, PA",3225 Pleasant Valley Blvd,Altoona,PA,28,5816,5,Pink
"277 Mundy Street, Wilkes Barre, PA",277 Mundy Street,Wilkes Barre,PA,27,2640,8,Indigo
"60 West Ave, Wayne, PA",60 West Ave,Wayne,PA,79,80,1,Indigo
"474 Holiday Drive, Suite 300, Rutland, VT",474 Holiday Drive,Rutland,VT,16,3441,9,Goldenrod
"99 Rockingham Park Blvd. W101, Salem, NH",99 Rockingham Park Blvd. W101,Salem,NH,48,4872,6,Khaki
"344 Dorset Street, South Burlington, VT",344 Dorset Street,South Burlington,VT,23,7122,6,Aquamarine
"310 Daniel Webster Hwy, Nashua, NH",310 Daniel Webster Hwy,Nashua,NH,72,6411,4,Green
"296 Daniel Webster Highway, Nashua, NH",296 Daniel Webster Highway,Nashua,NH,18,4185,8,Blue
"35 Scammon St, Saco, ME",35 Scammon St,Saco,ME,7,3631,6,Violet
"1500 S. Willow St, Manchester, NH",1500 S. Willow St,Manchester,NH,46,759,9,Maroon
"364 Maine Mall Rd, South Portland, ME",364 Maine Mall Rd,South Portland,ME,78,623,9,Fuscia
"1981 Woodbury Ave, Portsmouth, NH",1981 Woodbury Ave,Portsmouth,NH,72,8723,9,Aquamarine
"250 Albany Turnpike, Suite 1, Canton, CT",250 Albany Turnpike,Canton,CT,68,7216,1,Puce
"834 Walt Whitman Road, Ste A, Melville, NY",834 Walt Whitman Road,Melville,NY,89,4715,9,Mauv
"3455 Erie Blvd East, Ste 1, Dewitt, NY",3455 Erie Blvd East,Dewitt,NY,31,6479,1,Aquamarine
"350 Fifth Avenue, Suite 114, New York, NY",350 Fifth Avenue,New York,NY,61,6971,1,Yellow
"185 Greenwich Street, Ll5100, New York, NY",185 Greenwich Street,New York,NY,46,6349,4,Violet
"31 Water Street, Ste 2, Cuba, NY",31 Water Street,Cuba,NY,56,245,1,Orange
"413 Lynnway, Lynn, MA",413 Lynnway,Lynn,MA,6,4966,1,Violet
"65r Boston Street, Dorchester, MA",65r Boston Street,Dorchester,MA,46,938,5,Pink
"78 Brooksiide Ave, Chester, NY",78 Brooksiide Ave,Chester,NY,30,4108,1,Mauv
"750 Sunrise Highway, Valley Stream, NY",750 Sunrise Highway,Valley Stream,NY,52,3420,4,Violet
"89 Seaport Blvd, Boston, MA",89 Seaport Blvd,Boston,MA,79,6139,2,Puce
"2168-b White Plains Rd, Bronx, NY",2168-b White Plains Rd,Bronx,NY,77,8042,2,Crimson
"45 Wall Street, New York, NY",45 Wall Street,New York,NY,86,8060,7,Aquamarine
"239 Old Country Road, Carle Place, NY",239 Old Country Road,Carle Place,NY,100,1531,6,Goldenrod
"1215 Hurffville Road, Deptford, NJ",1215 Hurffville Road,Deptford,NJ,75,974,2,Maroon
"61 Spit Brook Rd, Nashua, NH",61 Spit Brook Rd,Nashua,NH,76,5052,1,Blue
"811 10th Ave, New York, NY",811 10th Ave,New York,NY,77,8254,2,Violet
"180 8th Ave, New York, NY",180 8th Ave,New York,NY,81,7785,5,Red
"8200 Perry Hall Blvd., Westboro, MA",8200 Perry Hall Blvd.,Westboro,MA,79,1335,2,Indigo
"2801 Mountaineer Drive, South Charleston, WV",2801 Mountaineer Drive,South Charleston,WV,76,7040,2,Fuscia
"3000 Charleston Town Center, Charleston, WV",3000 Charleston Town Center,Charleston,WV,85,7371,5,Khaki
"73 Great Teays Blvd, Scott Depot, WV",73 Great Teays Blvd,Scott Depot,WV,16,1919,6,Yellow
"9909 Mall Road Space 909, Morgantown, WV",9909 Mall Road Space 909,Morgantown,WV,78,2497,8,Blue
"1111 Van Voorhis Road, Morgantown, WV",1111 Van Voorhis Road,Morgantown,WV,74,1645,9,Puce
"117a Three Springs Drive, Weirton, WV",117a Three Springs Drive,Weirton,WV,23,7561,2,Purple
"300 Wharton Cir, Triadelphia, WV",300 Wharton Cir,Triadelphia,WV,52,6827,2,Crimson
"1008 N Eisenhower Dr-ste 1008, Beckley, WV",1008 N Eisenhower Dr-ste 1008,Beckley,WV,83,1774,6,Goldenrod
"80 Grace Dr, Hurricane, WV",80 Grace Dr,Hurricane,WV,2,4562,2,Mauv
"500 Mall Road, Barboursville, WV",500 Mall Road,Barboursville,WV,36,103,9,Orange
"2203 5th Street Rd, Huntington, WV",2203 5th Street Rd,Huntington,WV,88,4400,8,Pink
"3417 Murdoch Ave, Parkersburg, WV",3417 Murdoch Ave,Parkersburg,WV,21,140,6,Green
"2364 Benedict Rd, Culloden, WV",2364 Benedict Rd,Culloden,WV,98,378,3,Indigo
"542 Emily Drive, Clarksburg, WV",542 Emily Drive,Clarksburg,WV,87,682,3,Khaki
"2401 W Grace St, Chicago, IL",2401 W Grace St,Chicago,IL,10,4944,1,Green
"14700 Baltimore Ave, Suite 110, Laurel, MD",14700 Baltimore Ave,Laurel,MD,35,3458,6,Orange
"1803 York Road, Ste 101, Lutherville, MD",1803 York Road,Lutherville,MD,49,3396,7,Goldenrod
"1061 Annapolis Mall, Space 184, Annapolis, MD",1061 Annapolis Mall,Annapolis,MD,79,4851,6,Mauv
"8519 Georgia Ave., Silver Spring, MD",8519 Georgia Ave.,Silver Spring,MD,26,94,7,Teal
"10201 Martin Luther Kingjr Hwy, Bowie, MD",10201 Martin Luther Kingjr Hwy,Bowie,MD,48,4041,8,Blue
"6820 Virginia Manor Rd, Beltsville, MD",6820 Virginia Manor Rd,Beltsville,MD,54,7118,9,Mauv
"20934 B1c Frederick Road, Germantown, MD",20934 B1c Frederick Road,Germantown,MD,44,6484,7,Green
"538 N Fredrick Ave, Gaithersburg, MD",538 N Fredrick Ave,Gaithersburg,MD,79,5567,6,Teal
"9000 Mendenhall Ct, Columbia, MD",9000 Mendenhall Ct,Columbia,MD,17,7973,2,Goldenrod
"1809 Reisterstown Rd, Pikesville, MD",1809 Reisterstown Rd,Pikesville,MD,78,1166,5,Yellow
"105 West Ruark Drive, Salisbury, MD",105 West Ruark Drive,Salisbury,MD,4,615,9,Red
"825 Dulaney Valley Rd, Towson, MD",825 Dulaney Valley Rd,Towson,MD,34,7439,3,Purple
"220 Harker Place, Annapolis, MD",220 Harker Place,Annapolis,MD,71,5853,1,Orange
"1262 Vocke Rd., Lavale, MD",1262 Vocke Rd.,Lavale,MD,30,4237,4,Maroon
"8200 Perry Hall Blvd, Baltimore, MD",8200 Perry Hall Blvd,Baltimore,MD,100,8374,1,Turquoise
"10729 Colesville Road, Silver Spring, MD",10729 Colesville Road,Silver Spring,MD,85,858,5,Khaki
"12023 Rockville Pike, Rockville, MD",12023 Rockville Pike,Rockville,MD,88,286,6,Purple
"10300 Little Patuxent Pkwy 310, Columbia, MD",10300 Little Patuxent Pkwy 310,Columbia,MD,90,4812,6,Indigo
"3650 Crain Hwy, Waldorf, MD",3650 Crain Hwy,Waldorf,MD,80,4644,7,Red
"7101 Democracy Blvd. Spc 2166, Bethesda, MD",7101 Democracy Blvd. Spc 2166,Bethesda,MD,65,1000,7,Fuscia
"3921 Town Center Blvd, Bowie, MD",3921 Town Center Blvd,Bowie,MD,100,6173,4,Blue
"404 George Clauss Blvd, Severn, MD",404 George Clauss Blvd,Severn,MD,82,3303,6,Crimson
"5509 Urbana Pike, Frederick, MD",5509 Urbana Pike,Frederick,MD,64,9094,4,Khaki
"6490 Dobbin Center Way, Columbia, MD",6490 Dobbin Center Way,Columbia,MD,79,5463,9,Green
"17301 Valley Mall Rd #488, Hagerstown, MD",17301 Valley Mall Rd #488,Hagerstown,MD,72,815,6,Fuscia
"7150 Standard Dr, Hanover, MD",7150 Standard Dr,Hanover,MD,50,1122,9,Pink
"571 Baltimore Pike, Bel Air, MD",571 Baltimore Pike,Bel Air,MD,63,1080,6,Puce
"7491 Greenbelt Rd., Greenbelt, MD",7491 Greenbelt Rd.,Greenbelt,MD,8,6831,2,Yellow
"1501 Sentinel Drive, Ste 417, Chesapeake, VA",1501 Sentinel Drive,Chesapeake,VA,57,1295,3,Violet
"973 Emmet St., Suite C, Charlottesville, VA",973 Emmet St.,Charlottesville,VA,21,9909,2,Crimson
"723 Southpark Blvd, Colonial Heights, VA",723 Southpark Blvd,Colonial Heights,VA,70,5682,9,Puce
"11563 & 11565 West Broad St, Richmond, VA",11563 & 11565 West Broad St,Richmond,VA,18,4659,7,Fuscia
"1194 Azalea Garden Rd, Norfolk, VA",1194 Azalea Garden Rd,Norfolk,VA,73,9573,7,Purple
"1601 Carl D. Silver Parkway, Fredericksburg, VA",1601 Carl D. Silver Parkway,Fredericksburg,VA,81,9632,7,Pink
"1117 Jefferson Davis Hwy, Fredericksburg, VA",1117 Jefferson Davis Hwy,Fredericksburg,VA,50,9793,7,Green
"11649 Midlothian Turnpike, Midlothian, VA",11649 Midlothian Turnpike,Midlothian,VA,38,4237,2,Yellow
"1412 Greenbrier Parkway, Chesapeake, VA",1412 Greenbrier Parkway,Chesapeake,VA,39,4581,4,Orange
"4801 Cox Rd, Glen Allen, VA",4801 Cox Rd,Glen Allen,VA,20,2024,3,Aquamarine
"15505 Westchester Commons Way, Midlothian, VA",15505 Westchester Commons Way,Midlothian,VA,69,4669,1,Yellow
"9909 Southpoint Parkway, Fredericksburg, VA",9909 Southpoint Parkway,Fredericksburg,VA,66,9164,3,Turquoise
"1119 N Military Hwy Ste 200, Norfolk, VA",1119 N Military Hwy Ste 200,Norfolk,VA,9,1918,3,Mauv
"3955 Deep Rock Rd, Richmond, VA",3955 Deep Rock Rd,Richmond,VA,74,5161,2,Puce
"703 E Grace St, Richmond, VA",703 E Grace St,Richmond,VA,43,3426,3,Khaki
"4501 South Laburnum Ave, Richmond, VA",4501 South Laburnum Ave,Richmond,VA,62,6141,4,Turquoise
"4725 Virginia Beach Blvd Bld C, Virginia Beach, VA",4725 Virginia Beach Blvd Bld C,Virginia Beach,VA,97,7905,7,Goldenrod
"165 Holt Garrison Pkwy, Danville, VA",165 Holt Garrison Pkwy,Danville,VA,64,8177,2,Khaki
"978 Regional Park Rd, Lebanon, VA",978 Regional Park Rd,Lebanon,VA,22,7124,8,Purple
"3191 Lee Hwy, Bristol, VA",3191 Lee Hwy,Bristol,VA,84,5126,5,Khaki
"1936 Blue Hills Dr NE, Roanoke, VA",1936 Blue Hills Dr NE,Roanoke,VA,52,5612,7,Goldenrod
"12080 Jefferson Ave., Suite 91, Newport News, VA",12080 Jefferson Ave.,Newport News,VA,47,254,6,Blue
"2170 Coliseum Drive, Hampton, VA",2170 Coliseum Drive,Hampton,VA,85,5609,1,Red
"1604 Village Mkt Blvd Se, 100, Leesburg, VA",1604 Village Mkt Blvd Se,Leesburg,VA,97,1291,8,Violet
"8005-l Tyson's Corner Center, Mclean, VA",8005-l Tyson's Corner Center,Mclean,VA,46,4185,9,Yellow
"22000 Dulles Retail Plaza, Dulles, VA",22000 Dulles Retail Plaza,Dulles,VA,53,2762,2,Goldenrod
"3725 Jefferson Davis Hwy, Alexandria, VA",3725 Jefferson Davis Hwy,Alexandria,VA,49,281,3,Turquoise
"14900 Potomac Town Place, Woodbridge, VA",14900 Potomac Town Place,Woodbridge,VA,51,9890,5,Turquoise
"5831 Crossroads Center, Falls Church, VA",5831 Crossroads Center,Falls Church,VA,56,2463,8,Teal
"11425 Isaac Newton Sq S, Reston, VA",11425 Isaac Newton Sq S,Reston,VA,24,4279,9,Orange
"3000 Wilson Blvd Ste 100, Arlington, VA",3000 Wilson Blvd Ste 100,Arlington,VA,37,4058,9,Turquoise
"2700 Potomac Mills Circle, Woodbridge, VA",2700 Potomac Mills Circle,Woodbridge,VA,65,5121,8,Orange
"1100 S Hayes St Spc W04b, Arlington, VA",1100 S Hayes St Spc W04b,Arlington,VA,71,3040,5,Teal
"11794 Fair Oaks, Fairfax, VA",11794 Fair Oaks,Fairfax,VA,8,4659,4,Red
"1400 Defense Pentagon Rm 2c115, Arlington, VA",1400 Defense Pentagon Rm 2c115,Arlington,VA,23,944,4,Fuscia
"3165 Duke St., Alexandria, VA",3165 Duke St.,Alexandria,VA,4,5409,2,Goldenrod
"7702g Richmond Highway, Alexandria, VA",7702g Richmond Highway,Alexandria,VA,11,3383,7,Violet
"2148 S. Pleasant Valley Road, Winchester, VA",2148 S. Pleasant Valley Road,Winchester,VA,81,6169,8,Violet
"11015 Main Street, Fairfax, VA",11015 Main Street,Fairfax,VA,7,2909,4,Maroon
"6699 Frontier Dr, Springfield, VA",6699 Frontier Dr,Springfield,VA,73,4109,9,Goldenrod
"5301 Wisconsin Ave NW, Washington, DC",5301 Wisconsin Ave NW,Washington,DC,17,2755,3,Orange
"1518 Connecticut, Washington, DC",1518 Connecticut,Washington,DC,5,9324,5,Orange
"785 7th Street NW, Washington, DC",785 7th Street NW,Washington,DC,75,8104,2,Crimson
"1050 Connecticut Ave NW, Washington, DC",1050 Connecticut Ave NW,Washington,DC,31,6250,7,Pink
"7125 Columbia Gateway Dr, Columbia, MD",7125 Columbia Gateway Dr,Columbia,MD,68,1573,9,Goldenrod
"800 Fleet Street, Baltimore, MD",800 Fleet Street,Baltimore,MD,32,6289,1,Indigo
"Carretera 8860 Km 0.4 Matienz, Trujillo Alto, PR",Carretera 8860 Km 0.4 Matienz,Trujillo Alto,PR,48,3996,3,Pink
"273 Ave Ponce De Leon, San Juan, PR",273 Ave Ponce De Leon,San Juan,PR,65,7086,7,Pink
"800 E Merritt Island Causeway, Merritt Island, FL",800 E Merritt Island Causeway,Merritt Island,FL,52,5855,3,Violet
"4345 Norfolk Parkway, West Melbourne, FL",4345 Norfolk Parkway,West Melbourne,FL,73,1332,9,Mauv
"3065 Columbia Blvd., Titusville, FL",3065 Columbia Blvd.,Titusville,FL,73,1423,9,Aquamarine
"4450 W Eau Gallie Blvd Ste 126, Melbourne, FL",4450 W Eau Gallie Blvd Ste 126,Melbourne,FL,55,4383,9,Red
"2620 Enterprise Road, Orange City, FL",2620 Enterprise Road,Orange City,FL,41,3279,8,Turquoise
"1657 W.p. Ball Blvd, Sanford, FL",1657 W.p. Ball Blvd,Sanford,FL,61,9142,1,Green
"1808 Intl Speedway Blvd Ste801, Daytona Beach, FL",1808 Intl Speedway Blvd Ste801,Daytona Beach,FL,53,4442,1,Red
"5180 Sr East, Palm Coast, FL",5180 Sr East,Palm Coast,FL,2,6226,1,Red
"8085 Red Bug Lake Rd Ste.125, Oviedo, FL",8085 Red Bug Lake Rd Ste.125,Oviedo,FL,16,7954,7,Mauv
"5527 Williamson Blvd, Port Orange, FL",5527 Williamson Blvd,Port Orange,FL,28,4490,8,Indigo
"4240 N State Road 7, Coral Springs, FL",4240 N State Road 7,Coral Springs,FL,24,9986,6,Teal
"1920 S University Dr, Davie, FL",1920 S University Dr,Davie,FL,71,724,1,Fuscia
"9924 Glades Rd., Boca Raton, FL",9924 Glades Rd.,Boca Raton,FL,52,3210,4,Goldenrod
"2204 University Drive, Coral Springs, FL",2204 University Drive,Coral Springs,FL,87,1008,4,Khaki
"6000 Glades Rd Ste 1122, Boca Raton, FL",6000 Glades Rd Ste 1122,Boca Raton,FL,60,7384,9,Goldenrod
"530 North Federal Highway, Fort Lauderdale, FL",530 North Federal Highway,Fort Lauderdale,FL,16,8148,2,Khaki
"6311 North Andrews Avenue, Fort Lauderdale, FL",6311 North Andrews Avenue,Fort Lauderdale,FL,98,6754,3,Yellow
"8650 W Oakland Park Blvd, Sunrise, FL",8650 W Oakland Park Blvd,Sunrise,FL,39,9681,6,Teal
"12231 W Sunrise Blvd, Plantation, FL",12231 W Sunrise Blvd,Plantation,FL,69,8205,9,Violet
"1165 N Federal Hwy, Fort Lauderdale, FL",1165 N Federal Hwy,Fort Lauderdale,FL,57,3256,3,Khaki
"1879 Commercial Way, Spring Hill, FL",1879 Commercial Way,Spring Hill,FL,16,5843,1,Teal
"3626 SW Archer Rd, Gainesville, FL",3626 SW Archer Rd,Gainesville,FL,53,587,6,Puce
"6110 NW 4th Pl, Gainesville, FL",6110 NW 4th Pl,Gainesville,FL,100,9797,6,Goldenrod
"11113 San Jose Blvd,suite 102, Jacksonville, FL",11113 San Jose Blvd,Jacksonville,FL,75,892,1,Goldenrod
"4663 River City Dr., Jacksonville, FL",4663 River City Dr.,Jacksonville,FL,79,6339,8,Red
"9498 Atlantic Blvd, Jacksonville, FL",9498 Atlantic Blvd,Jacksonville,FL,11,6707,9,Green
"725 Nautica Drive, Jacksonville, FL",725 Nautica Drive,Jacksonville,FL,14,5746,1,Yellow
"9508 Crosshill Blvd, Jacksonville, FL",9508 Crosshill Blvd,Jacksonville,FL,60,1029,6,Blue
"256 State Road 312, Saint Augustine, FL",256 State Road 312,Saint Augustine,FL,100,9591,4,Khaki
"9039 Southside Blvd, Jacksonville, FL",9039 Southside Blvd,Jacksonville,FL,93,9988,8,Yellow
"10500 Ulmerton Rd., Unit 640, Largo, FL",10500 Ulmerton Rd.,Largo,FL,72,9372,6,Khaki
"2305 Edgewater Drive, Unit E, Orlando, FL",2305 Edgewater Drive,Orlando,FL,43,573,8,Goldenrod
"2499 Tamiami Trail, Port Charlotte, FL",2499 Tamiami Trail,Port Charlotte,FL,18,1389,1,Turquoise
"3107 Daniels Rd, Winter Garden, FL",3107 Daniels Rd,Winter Garden,FL,54,2494,3,Turquoise
"1313 Cortez Rd W #35, Bradenton, FL",1313 Cortez Rd W #35,Bradenton,FL,15,8114,2,Fuscia
"7727 S Orange Blossom Trl, Orlando, FL",7727 S Orange Blossom Trl,Orlando,FL,80,6315,8,Green
"2300 Bee Ridge Rd, Sarasota, FL",2300 Bee Ridge Rd,Sarasota,FL,42,2888,7,Teal
"13555 Tamiami Trail North, Naples, FL",13555 Tamiami Trail North,Naples,FL,23,5638,9,Blue
"4736 S Kirkman Rd Ste D, Orlando, FL",4736 S Kirkman Rd Ste D,Orlando,FL,84,9920,7,Aquamarine
"10945 Causeway Blvd., Brandon, FL",10945 Causeway Blvd.,Brandon,FL,4,3621,5,Indigo
"1770 Bruce B Downs Blvd., Wesley Chapel, FL",1770 Bruce B Downs Blvd.,Wesley Chapel,FL,11,5302,5,Teal
"4006 Conroy Rd, Orlando, FL",4006 Conroy Rd,Orlando,FL,61,6841,4,Khaki
"12150 Research Pkwy, Orlando, FL",12150 Research Pkwy,Orlando,FL,92,4553,6,Maroon
"10165 W Colonial Drive, Ocoee, FL",10165 W Colonial Drive,Ocoee,FL,86,6873,9,Khaki
"2460 State Road 580, Clearwater, FL",2460 State Road 580,Clearwater,FL,67,3289,5,Green
"4100 South Tamiami Trail, Venice, FL",4100 South Tamiami Trail,Venice,FL,19,4688,8,Purple
"8041 Dani Dr, Fort Myers, FL",8041 Dani Dr,Fort Myers,FL,44,5116,8,Teal
"7051 Narcoossee Road, Orlando, FL",7051 Narcoossee Road,Orlando,FL,25,6339,5,Green
"4313 E. Colonial Drive, Orlando, FL",4313 E. Colonial Drive,Orlando,FL,12,5345,2,Crimson
"1860 Pine Island Rd NE, Cape Coral, FL",1860 Pine Island Rd NE,Cape Coral,FL,17,3809,3,Fuscia
"215 N. Cattlemen Rd #53, Sarasota, FL",215 N. Cattlemen Rd #53,Sarasota,FL,38,148,2,Mauv
"3396 E Vista Blvd, Orlando, FL",3396 E Vista Blvd,Orlando,FL,14,9760,9,Indigo
"275 E Altamonte Drive, Altamonte Springs, FL",275 E Altamonte Drive,Altamonte Springs,FL,67,6204,4,Maroon
"1500 Oakley Seaver Dr., Clermont, FL",1500 Oakley Seaver Dr.,Clermont,FL,63,5226,3,Pink
"2083 9th St N. Unit 14, Naples, FL",2083 9th St N. Unit 14,Naples,FL,32,9107,4,Pink
"707 N. Alafaya Trail, Orlando, FL",707 N. Alafaya Trail,Orlando,FL,49,2889,6,Indigo
"2020 W Brandon Blvd, Brandon, FL",2020 W Brandon Blvd,Brandon,FL,47,5355,2,Puce
"1000 South Dale Mabry Hwy, Tampa, FL",1000 South Dale Mabry Hwy,Tampa,FL,51,9504,3,Aquamarine
"432 N. Orlando Ave, Winter Park, FL",432 N. Orlando Ave,Winter Park,FL,99,9164,5,Khaki
"3297 Greenwald Way North, Kissimmee, FL",3297 Greenwald Way North,Kissimmee,FL,34,1154,4,Turquoise
"5012 4th Street North, Saint Petersburg, FL",5012 4th Street North,Saint Petersburg,FL,88,5182,4,Violet
"11129 N Dale Mabry Hwy, Tampa, FL",11129 N Dale Mabry Hwy,Tampa,FL,42,70,4,Pink
"2351 E. Fowler Ave, Tampa, FL",2351 E. Fowler Ave,Tampa,FL,92,226,4,Puce
"1332 N. John Young Pkwy, Kissimmee, FL",1332 N. John Young Pkwy,Kissimmee,FL,32,5585,4,Crimson
"1812 N. Westshore Blvd., Tampa, FL",1812 N. Westshore Blvd.,Tampa,FL,50,8373,2,Aquamarine
"1107 3rd Street SW, Winter Haven, FL",1107 3rd Street SW,Winter Haven,FL,16,1837,4,Green
"2711 South Ferdon Blvd, Crestview, FL",2711 South Ferdon Blvd,Crestview,FL,22,4890,7,Indigo
"12805 Us Hwy 98 E, Rosemary Beach, FL",12805 Us Hwy 98 E,Rosemary Beach,FL,71,272,8,Orange
"34907 Emerald Coast Parkway, Destin, FL",34907 Emerald Coast Parkway,Destin,FL,32,9882,8,Turquoise
"4749 Hwy 90, Pace, FL",4749 Hwy 90,Pace,FL,89,5619,5,Pink
"425 Mary Esther Blvd., Mary Esther, FL",425 Mary Esther Blvd.,Mary Esther,FL,91,4942,7,Mauv
"5090 N. 9th Ave. Suite C, Pensacola, FL",5090 N. 9th Ave. Suite C,Pensacola,FL,56,8251,5,Pink
"6310 - 20th St., Vero Beach, FL",6310 - 20th St.,Vero Beach,FL,14,7320,7,Purple
"1395 NW Saint Lucie West Blvd, Port Saint Lucie, FL",1395 NW Saint Lucie West Blvd,Port Saint Lucie,FL,29,401,8,Puce
"2545 State Rd 7, Wellington, FL",2545 State Rd 7,Wellington,FL,36,576,5,Indigo
"3101 Pga Blvd, Palm Beach Gardens, FL",3101 Pga Blvd,Palm Beach Gardens,FL,9,9336,5,Goldenrod
"1880 N Congress Ave, Boynton Beach, FL",1880 N Congress Ave,Boynton Beach,FL,69,5292,9,Fuscia
"3005 Northlake Blvd, Palm Beach Gardens, FL",3005 Northlake Blvd,Palm Beach Gardens,FL,9,6842,4,Yellow
"520 Linton Blvd, Delray Beach, FL",520 Linton Blvd,Delray Beach,FL,73,7854,8,Crimson
"1862 Okeechobee Blvd, West Palm Beach, FL",1862 Okeechobee Blvd,West Palm Beach,FL,86,2560,5,Pink
"6286 W. Indiantown Rd., Jupiter, FL",6286 W. Indiantown Rd.,Jupiter,FL,25,8887,5,Indigo
"117 S State Road 7, Wellington, FL",117 S State Road 7,Wellington,FL,88,2242,1,Yellow
"100 N Magnolia Dr, Tallahassee, FL",100 N Magnolia Dr,Tallahassee,FL,80,5747,6,Khaki
"101 Bluefish Dr, Panama City Beach, FL",101 Bluefish Dr,Panama City Beach,FL,43,3172,7,Khaki
"2694 Highway 77, Panama City, FL",2694 Highway 77,Panama City,FL,76,4419,5,Teal
"1706 W. Tennessee St, Tallahassee, FL",1706 W. Tennessee St,Tallahassee,FL,46,8606,7,Purple
"2965 SW 160th Ave, Ste 160, Miramar, FL",2965 SW 160th Ave,Miramar,FL,29,6916,4,Khaki
"333-b South Sr 7, Hollywood, FL",333-b South Sr 7,Hollywood,FL,13,2728,5,Pink
"11380 Pines Blvd, Pembroke Pines, FL",11380 Pines Blvd,Pembroke Pines,FL,82,1374,9,Aquamarine
"3353 - B Sheridan St, Hollywood, FL",3353 - B Sheridan St,Hollywood,FL,97,4005,4,Goldenrod
"18101 Biscayne Blvd Ste 2202, Aventura, FL",18101 Biscayne Blvd Ste 2202,Aventura,FL,51,8392,3,Orange
"663 W 49th St, Hialeah, FL",663 W 49th St,Hialeah,FL,44,5072,8,Fuscia
"5644 NW 167th St., Miami Gardens, FL",5644 NW 167th St.,Miami Gardens,FL,32,4295,7,Purple
"19501 Biscayne Blvd, Miami, FL",19501 Biscayne Blvd,Miami,FL,51,5355,5,Fuscia
"10003 NW 41st St, Miami, FL",10003 NW 41st St,Miami,FL,15,5054,8,Fuscia
"7703 West Flagler St Ste C, Miami, FL",7703 West Flagler St Ste C,Miami,FL,74,9911,4,Turquoise
"8821 S. Dixie Hwy, Miami, FL",8821 S. Dixie Hwy,Miami,FL,35,9870,8,Crimson
"600 NW 79th Ave, Miami, FL",600 NW 79th Ave,Miami,FL,42,912,3,Orange
"215 Miracle Mile, Coral Gables, FL",215 Miracle Mile,Coral Gables,FL,53,9224,4,Purple
"3101 North Miami Ave, Miami, FL",3101 North Miami Ave,Miami,FL,5,9312,7,Mauv
"8888 SW 136 St, Miami, FL",8888 SW 136 St,Miami,FL,2,2951,8,Green
"12190 SW 88th St, Miami, FL",12190 SW 88th St,Miami,FL,40,1487,3,Maroon
"13550 SW 120th Street, Miami, FL",13550 SW 120th Street,Miami,FL,95,3390,3,Green
"32951 S Dixie Hwy, Florida City, FL",32951 S Dixie Hwy,Florida City,FL,32,3029,8,Blue
"7711 SW 40th Street, Miami, FL",7711 SW 40th Street,Miami,FL,94,5812,3,Turquoise
"8941 S.w. 107th Avenue, Miami, FL",8941 S.w. 107th Avenue,Miami,FL,83,3682,9,Green
"12599 Biscayne Blvd, North Miami, FL",12599 Biscayne Blvd,North Miami,FL,45,3900,4,Puce
"4405 SW College Rd, Ocala, FL",4405 SW College Rd,Ocala,FL,57,1928,8,Blue
"13751 Us Highway 441, Lady Lake, FL",13751 Us Highway 441,Lady Lake,FL,16,9956,6,Turquoise
"5312 SW 6th Pl, Ocala, FL",5312 SW 6th Pl,Ocala,FL,89,4808,9,Crimson
"2700 Dawson Rd Ste 32, Albany, GA",2700 Dawson Rd Ste 32,Albany,GA,84,3458,4,Maroon
"434 S Westover Blvd, Albany, GA",434 S Westover Blvd,Albany,GA,78,2954,5,Mauv
"422 Central Ave N, Tifton, GA",422 Central Ave N,Tifton,GA,24,6195,9,Khaki
"1700 Mcfarland 400 Dr, Alpharetta, GA",1700 Mcfarland 400 Dr,Alpharetta,GA,70,8700,4,Goldenrod
"125 Reese St, Athens, GA",125 Reese St,Athens,GA,65,9314,2,Maroon
"3630 Peachtree Pkwy,suite 501, Suwanee, GA",3630 Peachtree Pkwy,Suwanee,GA,15,6547,5,Puce
"4805 Briarcliff Rd, Suite 101, Atlanta, GA",4805 Briarcliff Rd,Atlanta,GA,97,374,7,Indigo
"3393 Peachtree Rd, Spc 1020a, Atlanta, GA",3393 Peachtree Rd,Atlanta,GA,15,5735,4,Teal
"3431 Lenox Road, N. E., Atlanta, GA",3431 Lenox Road,Atlanta,GA,99,3534,6,Yellow
"2685 Old Milton Pkwy, Ste 100, Alpharetta, GA",2685 Old Milton Pkwy,Alpharetta,GA,88,3601,7,Turquoise
"1380 Atlantic Dr, Suite 14155, Atlanta, GA",1380 Atlantic Dr,Atlanta,GA,54,4214,5,Mauv
"945memorialdr Se,bldg400ste416, Atlanta, GA",945memorialdr Se,Atlanta,GA,3,716,8,Green
"5175 Peachtree Pkwy Ste 1305, Norcross, GA",5175 Peachtree Pkwy Ste 1305,Norcross,GA,89,9854,1,Turquoise
"3523 Northside Parkway NW, Atlanta, GA",3523 Northside Parkway NW,Atlanta,GA,59,9582,5,Green
"105 Town Boulevard, Atlanta, GA",105 Town Boulevard,Atlanta,GA,62,6038,6,Maroon
"1085 Katie Kerr Dr, Decatur, GA",1085 Katie Kerr Dr,Decatur,GA,37,2035,4,Khaki
"3060 Northwoods Cir, Norcross, GA",3060 Northwoods Cir,Norcross,GA,40,5896,3,Khaki
"1025 Lenox Park Blvd NE, Atlanta, GA",1025 Lenox Park Blvd NE,Atlanta,GA,61,40,5,Yellow
"3330 Camp Creek Pkwy, East Point, GA",3330 Camp Creek Pkwy,East Point,GA,7,1867,5,Pink
"1891 Mt. Zion Rd, Morrow, GA",1891 Mt. Zion Rd,Morrow,GA,76,1559,7,Turquoise
"13065 Hwy 9 North, Milton, GA",13065 Hwy 9 North,Milton,GA,25,7664,1,Mauv
"51 Peachtree Center Ave SE, Atlanta, GA",51 Peachtree Center Ave SE,Atlanta,GA,82,8073,3,Orange
"2131 Pleasant Hill Road, Duluth, GA",2131 Pleasant Hill Road,Duluth,GA,90,3995,2,Maroon
"754 Peachtree St NE, Atlanta, GA",754 Peachtree St NE,Atlanta,GA,31,749,1,Purple
"136 Perimeter Ctr W, Atlanta, GA",136 Perimeter Ctr W,Atlanta,GA,100,4599,4,Teal
"300 North Point Pkwy, Alpharetta, GA",300 North Point Pkwy,Alpharetta,GA,94,1979,3,Yellow
"70 Courtland St NE, Atlanta, GA",70 Courtland St NE,Atlanta,GA,81,8554,3,Turquoise
"3380 Buford Drive, Buford, GA",3380 Buford Drive,Buford,GA,93,104,5,Goldenrod
"7900 Northpoint Parkway, Alpharetta, GA",7900 Northpoint Parkway,Alpharetta,GA,54,2711,2,Crimson
"4328 Thurmond Rd, Forest Park, GA",4328 Thurmond Rd,Forest Park,GA,20,908,6,Violet
"1315 Dogwood Drive, Suite D, Conyers, GA",1315 Dogwood Drive,Conyers,GA,96,5821,5,Indigo
"5740 Steeplechase Blvd, Ste105, Cumming, GA",5740 Steeplechase Blvd,Cumming,GA,65,6435,6,Khaki
"906 Market Place Blvd, Ste 101, Cumming, GA",906 Market Place Blvd,Cumming,GA,55,153,5,Maroon
"7105 Stonecrest Pkwy, Lithonia, GA",7105 Stonecrest Pkwy,Lithonia,GA,68,2697,3,Green
"1750 Epps Bridge Parkway, Athens, GA",1750 Epps Bridge Parkway,Athens,GA,66,9886,6,Puce
"1919 Scenic Hwy, Snellville, GA",1919 Scenic Hwy,Snellville,GA,68,9743,3,Mauv
"325 Jesse Jewel Parkway, Gainesville, GA",325 Jesse Jewel Parkway,Gainesville,GA,33,3070,4,Aquamarine
"7264 Industrial Blvd NE, Covington, GA",7264 Industrial Blvd NE,Covington,GA,88,7482,7,Crimson
"3422 Wrightsboro Road, Augusta, GA",3422 Wrightsboro Road,Augusta,GA,9,214,3,Khaki
"1702 Knox Ave, North Augusta, SC",1702 Knox Ave,North Augusta,SC,68,9142,3,Crimson
"3841 Wrightsboro Rd, Augusta, GA",3841 Wrightsboro Rd,Augusta,GA,23,8357,1,Turquoise
"2380 Chestnut St, Orangeburg, SC",2380 Chestnut St,Orangeburg,SC,67,9253,9,Yellow
"800 Q St, Brunswick, GA",800 Q St,Brunswick,GA,41,5262,2,Purple
"1318 West Walnut Ave, Ste 1, Dalton, GA",1318 West Walnut Ave,Dalton,GA,71,9049,6,Yellow
"5450 Whittlesey Blvd, Columbus, GA",5450 Whittlesey Blvd,Columbus,GA,18,2898,6,Fuscia
"3741 Coleman Rd N, Valdosta, GA",3741 Coleman Rd N,Valdosta,GA,27,589,4,Green
"113 Hill St, Lagrange, GA",113 Hill St,Lagrange,GA,84,684,5,Puce
"101 At&t Way, Cedartown, GA",101 At&t Way,Cedartown,GA,43,8154,7,Orange
"2424 Williams Rd, Columbus, GA",2424 Williams Rd,Columbus,GA,20,8635,4,Green
"405 Turner Mccall Blvd NE, Rome, GA",405 Turner Mccall Blvd NE,Rome,GA,63,663,5,Goldenrod
"321 Bullsboro Drive, Newnan, GA",321 Bullsboro Drive,Newnan,GA,73,7450,6,Crimson
"1833 Norman Drive, Valdosta, GA",1833 Norman Drive,Valdosta,GA,39,9196,6,Fuscia
"80 Main Street Marketplace SE, Cartersville, GA",80 Main Street Marketplace SE,Cartersville,GA,24,6002,4,Crimson
"101 Pyron Ct NE, Cartersville, GA",101 Pyron Ct NE,Cartersville,GA,79,9590,9,Puce
"6 Gilbert St, Newnan, GA",6 Gilbert St,Newnan,GA,64,4063,5,Maroon
"400 E Broughton St, Bainbridge, GA",400 E Broughton St,Bainbridge,GA,19,5762,1,Fuscia
"1420 Hwy 20 W, Mcdonough, GA",1420 Hwy 20 W,Mcdonough,GA,72,2151,3,Turquoise
"117 Pavilion Parkway, Fayetteville, GA",117 Pavilion Parkway,Fayetteville,GA,45,9252,7,Yellow
"285 Racetrack Rd, Mcdonough, GA",285 Racetrack Rd,Mcdonough,GA,83,7648,8,Purple
"794 Hwy 96, Bldg B, Tenant E, Bonaire, GA",794 Hwy 96,Bonaire,GA,77,721,8,Blue
"2510 N Columbia St., Milledgeville, GA",2510 N Columbia St.,Milledgeville,GA,16,2124,5,Violet
"4795 Riverside Drive Ste A, Macon, GA",4795 Riverside Drive Ste A,Macon,GA,23,7800,5,Turquoise
"4016 Watson Blvd., Warner Robins, GA",4016 Watson Blvd.,Warner Robins,GA,85,5297,3,Violet
"609 Bellevue Ave, Dublin, GA",609 Bellevue Ave,Dublin,GA,76,2660,3,Violet
"3245 Cobb Parkway Nw, Ste.113, Acworth, GA",3245 Cobb Parkway Nw,Acworth,GA,22,6915,4,Violet
"50 Barrett Parkway, Suite 3030, Marietta, GA",50 Barrett Parkway,Marietta,GA,96,7532,9,Blue
"2980 Cobb Parkway, Suite 160, Atlanta, GA",2980 Cobb Parkway,Atlanta,GA,4,7201,6,Puce
"5200 Powder Springs Dallas Rd, Powder Springs, GA",5200 Powder Springs Dallas Rd,Powder Springs,GA,50,8070,4,Blue
"1830 - 1 East West Connector, Austell, GA",1830 - 1 East West Connector,Austell,GA,2,5171,3,Red
"4250 Roswell Road, Marietta, GA",4250 Roswell Road,Marietta,GA,82,4729,3,Maroon
"4272 Jimmylee Smith Pkwy Ste E, Hiram, GA",4272 Jimmylee Smith Pkwy Ste E,Hiram,GA,41,4743,6,Indigo
"8989 Highway 92, Woodstock, GA",8989 Highway 92,Woodstock,GA,25,1365,9,Yellow
"2129 Cumming Hwy, Canton, GA",2129 Cumming Hwy,Canton,GA,17,6419,2,Mauv
"3372 Cobb Parkway NW, Acworth, GA",3372 Cobb Parkway NW,Acworth,GA,66,1698,2,Blue
"95 Chastain Rd NW, Kennesaw, GA",95 Chastain Rd NW,Kennesaw,GA,53,24,9,Goldenrod
"1300 Bull St, Savannah, GA",1300 Bull St,Savannah,GA,48,3987,3,Aquamarine
"552 W Oglethorpe Hwy, Hinesville, GA",552 W Oglethorpe Hwy,Hinesville,GA,46,1051,6,Mauv
"314 Mall Blvd, Savannah, GA",314 Mall Blvd,Savannah,GA,52,9968,7,Khaki
"416 Northside Drive East, Statesboro, GA",416 Northside Drive East,Statesboro,GA,10,1916,5,Puce
"1770 Campbell Lane, Bowling Green, KY",1770 Campbell Lane,Bowling Green,KY,35,7701,2,Aquamarine
"1061 Lovers Ln, Bowling Green, KY",1061 Lovers Ln,Bowling Green,KY,25,6544,8,Red
"3014 Bardstown Road, Louisville, KY",3014 Bardstown Road,Louisville,KY,43,1922,7,Green
"521 W Chestnut St, Louisville, KY",521 W Chestnut St,Louisville,KY,50,1077,2,Puce
"4007 Summit Plaza Dr., Louisville, KY",4007 Summit Plaza Dr.,Louisville,KY,50,2704,8,Purple
"305 Leonardwood Dr., Frankfort, KY",305 Leonardwood Dr.,Frankfort,KY,80,8502,7,Mauv
"6661 Dixie Highway, Louisville, KY",6661 Dixie Highway,Louisville,KY,25,5484,1,Green
"4426 Outer Loop, Louisville, KY",4426 Outer Loop,Louisville,KY,31,204,7,Green
"1972 N. Dixie Hwy, Elizabethtown, KY",1972 N. Dixie Hwy,Elizabethtown,KY,68,8402,6,Teal
"13315 Shelbyville Rd, Louisville, KY",13315 Shelbyville Rd,Louisville,KY,97,3333,5,Goldenrod
"4906 Shelbyville Road, Saint Matthews, KY",4906 Shelbyville Road,Saint Matthews,KY,80,9134,5,Yellow
"3503 College Dr, Louisville, KY",3503 College Dr,Louisville,KY,43,2583,9,Fuscia
"4560 Fort Campbell Blvd, Hopkinsville, KY",4560 Fort Campbell Blvd,Hopkinsville,KY,28,1664,9,Crimson
"1200 East Center Street, Madisonville, KY",1200 East Center Street,Madisonville,KY,34,8272,4,Green
"105 E. Everly Brothers Blvd., Central City, KY",105 E. Everly Brothers Blvd.,Central City,KY,97,6446,5,Red
"2201 Us Highway 41, Henderson, KY",2201 Us Highway 41,Henderson,KY,5,3407,3,Teal
"5115 Frederica St., Owensboro, KY",5115 Frederica St.,Owensboro,KY,42,7614,9,Aquamarine
"5021 Hinkleville Road, Paducah, KY",5021 Hinkleville Road,Paducah,KY,42,3115,8,Purple
"4565 N. Mayo Trail, Pikeville, KY",4565 N. Mayo Trail,Pikeville,KY,68,7125,8,Green
"411 Market Square Dr, Maysville, KY",411 Market Square Dr,Maysville,KY,11,254,2,Maroon
"5050 Corporate Way, Richmond, KY",5050 Corporate Way,Richmond,KY,75,7578,9,Yellow
"470 Eastern By-pass, Richmond, KY",470 Eastern By-pass,Richmond,KY,32,9737,4,Mauv
"121 Cross Brook Lane, Winchester, KY",121 Cross Brook Lane,Winchester,KY,47,1552,4,Turquoise
"3800 Corporate Dr, Winchester, KY",3800 Corporate Dr,Winchester,KY,55,4569,1,Crimson
"826 Eastpark Dr, Grayson, KY",826 Eastpark Dr,Grayson,KY,10,6247,1,Pink
"817 Winchester Ave, Ashland, KY",817 Winchester Ave,Ashland,KY,20,7772,3,Green
"116 Skywatch Drive, Suite B, Danville, KY",116 Skywatch Drive,Danville,KY,66,607,3,Red
"2160 Sir Barton Way, Lexington, KY",2160 Sir Barton Way,Lexington,KY,40,2293,3,Goldenrod
"3098 Richmond Road, Lexington, KY",3098 Richmond Road,Lexington,KY,33,5898,5,Teal
"105 E Muir Ave, Bardstown, KY",105 E Muir Ave,Bardstown,KY,15,1836,2,Crimson
"7841 Mall Rd, Florence, KY",7841 Mall Rd,Florence,KY,35,9774,4,Green
"2525 Wilson Rd, Highland Heights, KY",2525 Wilson Rd,Highland Heights,KY,46,3621,9,Crimson
"111 West Reynolds Rd., Lexington, KY",111 West Reynolds Rd.,Lexington,KY,97,1079,6,Indigo
"2766 S. Hwy 27, Somerset, KY",2766 S. Hwy 27,Somerset,KY,18,2766,8,Indigo
"10035 Us Hwy 25 S, Corbin, KY",10035 Us Hwy 25 S,Corbin,KY,5,4142,2,Yellow
"14892 N. Us Highway 25e, Corbin, KY",14892 N. Us Highway 25e,Corbin,KY,13,8181,4,Khaki
"304 Pond St, Jonesville, LA",304 Pond St,Jonesville,LA,25,5510,3,Indigo
"825 Murray St, Alexandria, LA",825 Murray St,Alexandria,LA,39,4695,8,Crimson
"1800 Macauthur Dr, Alexandria, LA",1800 Macauthur Dr,Alexandria,LA,36,6956,1,Pink
"3113d Hwy 28 East, Pineville, LA",3113d Hwy 28 East,Pineville,LA,56,3394,4,Fuscia
"650 Arlington Creek Centre Bld, Baton Rouge, LA",650 Arlington Creek Centre Bld,Baton Rouge,LA,8,1410,7,Mauv
"3111 Sherwood Forest Blvd, Baton Rouge, LA",3111 Sherwood Forest Blvd,Baton Rouge,LA,10,5125,9,Yellow
"7539 Corporate Blvd., Baton Rouge, LA",7539 Corporate Blvd.,Baton Rouge,LA,16,6337,1,Yellow
"6770 Siegen Lane, Baton Rouge, LA",6770 Siegen Lane,Baton Rouge,LA,90,4859,6,Maroon
"133 S. Airline Hwy, Gonzales, LA",133 S. Airline Hwy,Gonzales,LA,44,9016,3,Aquamarine
"6401 Bluebonnet Blvd, Baton Rouge, LA",6401 Bluebonnet Blvd,Baton Rouge,LA,16,5091,7,Puce
"27286 Crossing Circle, Denham Springs, LA",27286 Crossing Circle,Denham Springs,LA,8,7243,9,Red
"4455 American Way, Baton Rouge, LA",4455 American Way,Baton Rouge,LA,22,6286,5,Turquoise
"4820 Pecan Grove Rd, Saint Francisville, LA",4820 Pecan Grove Rd,Saint Francisville,LA,48,2464,3,Orange
"5555 Main Street, Zachary, LA",5555 Main Street,Zachary,LA,71,6279,9,Khaki
"3636 Nicholson Dr. Unit 500-1b, Baton Rouge, LA",3636 Nicholson Dr. Unit 500-1b,Baton Rouge,LA,33,7823,3,Mauv
"1625 South Morrison Boulevard, Hammond, LA",1625 South Morrison Boulevard,Hammond,LA,80,9857,3,Maroon
"1102 N. Hwy 190, Covington, LA",1102 N. Hwy 190,Covington,LA,5,6143,4,Blue
"68469 Tammany Trace Dr, Mandeville, LA",68469 Tammany Trace Dr,Mandeville,LA,94,7318,3,Blue
"1810 N. Causeway Blvd, Mandeville, LA",1810 N. Causeway Blvd,Mandeville,LA,8,1873,8,Fuscia
"796 E I-10 Service Rd., Slidell, LA",796 E I-10 Service Rd.,Slidell,LA,50,4914,2,Khaki
"601 N. Causeway Blvd., Mandeville, LA",601 N. Causeway Blvd.,Mandeville,LA,68,209,5,Yellow
"6001 Pinnacle Parkway, Covington, LA",6001 Pinnacle Parkway,Covington,LA,96,5499,3,Khaki
"1805 SW Railroad Ave, Hammond, LA",1805 SW Railroad Ave,Hammond,LA,48,3811,1,Goldenrod
"753 Odd Fellows Road, Unit C, Crowley, LA",753 Odd Fellows Road,Crowley,LA,79,7030,7,Violet
"3211 Louisiana Ave Ste 100, Lafayette, LA",3211 Louisiana Ave Ste 100,Lafayette,LA,67,556,2,Purple
"106 Harold Gauthe Dr, Scott, LA",106 Harold Gauthe Dr,Scott,LA,5,6244,5,Green
"2429 A West Congress Street, Lafayette, LA",2429 A West Congress Street,Lafayette,LA,24,5627,2,Maroon
"3807 Ambassador Caffery Pkwy, Lafayette, LA",3807 Ambassador Caffery Pkwy,Lafayette,LA,28,6661,9,Red
"5567 I-49 South Service Road, Opelousas, LA",5567 I-49 South Service Road,Opelousas,LA,36,4877,3,Violet
"3564 Pinhook Rd, Lafayette, LA",3564 Pinhook Rd,Lafayette,LA,42,6522,7,Green
"221 Venture Way, Lafayette, LA",221 Venture Way,Lafayette,LA,15,7555,5,Pink
"601 East Admiral Doyle, New Iberia, LA",601 East Admiral Doyle,New Iberia,LA,70,6187,1,Khaki
"2801 Derek Dr, Lake Charles, LA",2801 Derek Dr,Lake Charles,LA,68,3288,6,Green
"1405 Beglis Pkwy, Sulphur, LA",1405 Beglis Pkwy,Sulphur,LA,42,7021,4,Red
"271 N Highway 171, Moss Bluff, LA",271 N Highway 171,Moss Bluff,LA,91,1183,9,Crimson
"419 W Prien Lake Rd, Lake Charles, LA",419 W Prien Lake Rd,Lake Charles,LA,81,8694,2,Aquamarine
"224 N Martin Luther King Hwy, Lake Charles, LA",224 N Martin Luther King Hwy,Lake Charles,LA,98,9440,1,Red
"2602 Colony Blvd, Leesville, LA",2602 Colony Blvd,Leesville,LA,91,4423,5,Red
"7500 Bullard Ave., Ste. 101, New Orleans, LA",7500 Bullard Ave.,New Orleans,LA,28,9646,8,Crimson
"2101 South Claiborne Ave, New Orleans, LA",2101 South Claiborne Ave,New Orleans,LA,42,3682,4,Purple
"2222 Clearview Parkway, Metairie, LA",2222 Clearview Parkway,Metairie,LA,83,4270,1,Aquamarine
"2937-a Veterans Boulevard, Metairie, LA",2937-a Veterans Boulevard,Metairie,LA,48,1012,8,Orange
"1831 Manhattan Blvd, Harvey, LA",1831 Manhattan Blvd,Harvey,LA,23,9810,7,Purple
"1134 S. Clearview Pkwy, Harahan, LA",1134 S. Clearview Pkwy,Harahan,LA,92,2448,2,Red
"4637 Magazine St., New Orleans, LA",4637 Magazine St.,New Orleans,LA,96,2125,3,Fuscia
"819 West Esplanade Avenue, Kenner, LA",819 West Esplanade Avenue,Kenner,LA,86,6381,2,Turquoise
"1432 St. Charles Ave., New Orleans, LA",1432 St. Charles Ave.,New Orleans,LA,57,2795,6,Fuscia
"7423 Youree Dr. Ste. 600, Shreveport, LA",7423 Youree Dr. Ste. 600,Shreveport,LA,46,8767,6,Goldenrod
"3021 Bert Kouns Industrial Lo, Shreveport, LA",3021 Bert Kouns Industrial Lo,Shreveport,LA,23,7631,2,Blue
"2494 Airline Drive, Bossier City, LA",2494 Airline Drive,Bossier City,LA,33,3945,8,Red
"889 Bert Kouns Industrial Loop, Shreveport, LA",889 Bert Kouns Industrial Loop,Shreveport,LA,44,7053,1,Aquamarine
"5953 West Park Ave. Ste 2059, Houma, LA",5953 West Park Ave. Ste 2059,Houma,LA,67,2110,6,Pink
"606 North Canal Blvd Suite A, Thibodaux, LA",606 North Canal Blvd Suite A,Thibodaux,LA,92,8833,9,Indigo
"1125 N. Victor Ii Blvd, Morgan City, LA",1125 N. Victor Ii Blvd,Morgan City,LA,5,7499,6,Khaki
"1344 West Tunnel Blvd, Houma, LA",1344 West Tunnel Blvd,Houma,LA,90,8926,3,Yellow
"302 East St, Farmerville, LA",302 East St,Farmerville,LA,39,4424,2,Red
"609 N Service Rd East, Ruston, LA",609 N Service Rd East,Ruston,LA,69,7957,8,Puce
"208 Thomas Road, West Monroe, LA",208 Thomas Road,West Monroe,LA,10,5386,6,Fuscia
"2770 Louisville Ave, Monroe, LA",2770 Louisville Ave,Monroe,LA,57,419,3,Goldenrod
"1850 Old Natchitoches Rd, West Monroe, LA",1850 Old Natchitoches Rd,West Monroe,LA,98,105,9,Indigo
"2005 Hwy 45 North, Columbus, MS",2005 Hwy 45 North,Columbus,MS,30,9844,1,Green
"3513 5th St N, Columbus, MS",3513 5th St N,Columbus,MS,49,8225,5,Aquamarine
"902 1/2 Mississippi Hwy 12 W, Starkville, MS",902 1/2 Mississippi Hwy 12 W,Starkville,MS,38,4579,1,Goldenrod
"100 Brunie St, Hattiesburg, MS",100 Brunie St,Hattiesburg,MS,88,8438,6,Khaki
"6109 Us Highway 98, Hattiesburg, MS",6109 Us Highway 98,Hattiesburg,MS,59,9120,4,Purple
"805 West Park Ave, Suite 2, Greenwood, MS",805 West Park Ave,Greenwood,MS,27,9278,1,Mauv
"207 Vine St, Winona, MS",207 Vine St,Winona,MS,44,2922,8,Aquamarine
"125 N Edison St, Greenville, MS",125 N Edison St,Greenville,MS,86,5791,3,Blue
"850 S Pear Orchard Rd, Ridgeland, MS",850 S Pear Orchard Rd,Ridgeland,MS,50,9815,8,Pink
"4365 Michael Avalon St, Jackson, MS",4365 Michael Avalon St,Jackson,MS,31,1779,6,Crimson
"272 Dogwood Blvd., Flowood, MS",272 Dogwood Blvd.,Flowood,MS,82,7023,4,Red
"4253 Robinson Road, Jackson, MS",4253 Robinson Road,Jackson,MS,97,101,5,Yellow
"293 Marketridge Dr, Ridgeland, MS",293 Marketridge Dr,Ridgeland,MS,94,9521,9,Mauv
"1888 Main St, Madison, MS",1888 Main St,Madison,MS,42,2160,7,Pink
"958 Brookway Blvd., Ste L, Brookhaven, MS",958 Brookway Blvd.,Brookhaven,MS,81,3273,6,Khaki
"811 Main St, Natchez, MS",811 Main St,Natchez,MS,50,9182,1,Crimson
"1602a Veteran's Blvd, Mccomb, MS",1602a Veteran's Blvd,Mccomb,MS,53,3030,8,Orange
"103 South Frontage Road, Meridian, MS",103 South Frontage Road,Meridian,MS,56,7735,6,Red
"1065 Road 375, Philadelphia, MS",1065 Road 375,Philadelphia,MS,93,6050,3,Goldenrod
"124 Russell Dr, Meridian, MS",124 Russell Dr,Meridian,MS,33,3185,1,Crimson
"1805 Jackson Ave West, Oxford, MS",1805 Jackson Ave West,Oxford,MS,99,4702,5,Maroon
"404 1st St, Grenada, MS",404 1st St,Grenada,MS,17,4346,1,Pink
"2001 Virginia Lane, Corinth, MS",2001 Virginia Lane,Corinth,MS,3,1655,3,Fuscia
"112 Crystal Plaza Drive, New Albany, MS",112 Crystal Plaza Drive,New Albany,MS,41,3832,7,Purple
"2090 Mccullough Blvd, Tupelo, MS",2090 Mccullough Blvd,Tupelo,MS,32,6630,7,Khaki
"2436 West Main, Tupelo, MS",2436 West Main,Tupelo,MS,4,3638,1,Orange
"3849 N. Gloster, Tupelo, MS",3849 N. Gloster,Tupelo,MS,54,7168,1,Mauv
"60381-a Cotton Gin Road, Amory, MS",60381-a Cotton Gin Road,Amory,MS,35,8970,4,Aquamarine
"55 Cedars Rd, Vicksburg, MS",55 Cedars Rd,Vicksburg,MS,52,9343,1,Teal
"3585 Pemberton Blvd, Vicksburg, MS",3585 Pemberton Blvd,Vicksburg,MS,41,61,5,Orange
"15243 Crossroads Pkwy, Gulfport, MS",15243 Crossroads Pkwy,Gulfport,MS,76,295,6,Blue
"3051 Bienville Blvd, Ocean Springs, MS",3051 Bienville Blvd,Ocean Springs,MS,7,6391,4,Orange
"3865 Promenade Parkway, Diberville, MS",3865 Promenade Parkway,Diberville,MS,56,4370,2,Fuscia
"1723 22nd Ave, Gulfport, MS",1723 22nd Ave,Gulfport,MS,73,3565,3,Green
"24 O'henry Ave, Asheville, NC",24 O'henry Ave,Asheville,NC,8,5778,3,Green
"4 S. Tunnel Rd, Asheville, NC",4 S. Tunnel Rd,Asheville,NC,1,7375,1,Turquoise
"230 E Wt Harris Blvd, Suite A6, Charlotte, NC",230 E Wt Harris Blvd,Charlotte,NC,22,9606,3,Purple
"8016 Providence Rd, Suite 200, Charlotte, NC",8016 Providence Rd,Charlotte,NC,90,299,1,Purple
"2000 Cross Beam Dr, Charlotte, NC",2000 Cross Beam Dr,Charlotte,NC,100,1465,7,Yellow
"2237 Spider Dr, Kannapolis, NC",2237 Spider Dr,Kannapolis,NC,65,1780,4,Puce
"9433-d Pineville Matthews Rd, Pineville, NC",9433-d Pineville Matthews Rd,Pineville,NC,67,3921,5,Goldenrod
"7211 E Independence Blvd Ste 9, Charlotte, NC",7211 E Independence Blvd Ste 9,Charlotte,NC,89,9811,9,Orange
"9932 Knockando Lane, Huntersville, NC",9932 Knockando Lane,Huntersville,NC,64,9076,9,Blue
"5940 Fairview Rd. Ste 100, Charlotte, NC",5940 Fairview Rd. Ste 100,Charlotte,NC,56,305,7,Purple
"534 River Hwy, Mooresville, NC",534 River Hwy,Mooresville,NC,12,5349,4,Green
"8031 Concord Mills Blvd, Concord, NC",8031 Concord Mills Blvd,Concord,NC,22,3753,4,Orange
"9840 Rea Road, Charlotte, NC",9840 Rea Road,Charlotte,NC,41,233,8,Goldenrod
"2943 Monroe Way, Monroe, NC",2943 Monroe Way,Monroe,NC,69,9532,6,Khaki
"9330 Center Lake Drive, Charlotte, NC",9330 Center Lake Drive,Charlotte,NC,38,6208,2,Khaki
"1528 Us Highway 70 SE, Hickory, NC",1528 Us Highway 70 SE,Hickory,NC,78,8606,6,Aquamarine
"411 Cox Road, Gastonia, NC",411 Cox Road,Gastonia,NC,8,7221,6,Mauv
"210 N William St, Goldsboro, NC",210 N William St,Goldsboro,NC,46,4774,8,Yellow
"4405 Wendover Ave, Ste B, Greensboro, NC",4405 Wendover Ave,Greensboro,NC,9,572,8,Aquamarine
"3124 Waltham Blvd, Burlington, NC",3124 Waltham Blvd,Burlington,NC,36,755,2,Red
"2002 Pisgah Church Rd, Greensboro, NC",2002 Pisgah Church Rd,Greensboro,NC,51,1018,8,Fuscia
"2300-c North Main Street, High Point, NC",2300-c North Main Street,High Point,NC,66,3981,8,Crimson
"3709 Wireless Dr, Greensboro, NC",3709 Wireless Dr,Greensboro,NC,56,3777,6,Indigo
"816 Friendly Center Rd, Greensboro, NC",816 Friendly Center Rd,Greensboro,NC,87,9169,9,Fuscia
"5431 Page Rd, Suite 130, Durham, NC",5431 Page Rd,Durham,NC,49,6569,2,Yellow
"8005 Brier Creek Pkwy, Ste 140, Raleigh, NC",8005 Brier Creek Pkwy,Raleigh,NC,99,5074,4,Puce
"5348 Mcfarland Road, Durham, NC",5348 Mcfarland Road,Durham,NC,82,7562,7,Crimson
"5715 Glenwood Ave, Raleigh, NC",5715 Glenwood Ave,Raleigh,NC,24,544,8,Blue
"7055 White Oak Rd, Garner, NC",7055 White Oak Rd,Garner,NC,90,1865,5,Puce
"3400 Bush St, Raleigh, NC",3400 Bush St,Raleigh,NC,70,9775,2,Yellow
"5010 2nd Ave, Raleigh, NC",5010 2nd Ave,Raleigh,NC,24,2956,9,Goldenrod
"6709 Fayetteville Rd - Suite A, Durham, NC",6709 Fayetteville Rd - Suite A,Durham,NC,83,8546,4,Orange
"1117 Walnut Street, Cary, NC",1117 Walnut Street,Cary,NC,72,1403,9,Blue
"2001 Creekside Landing Drive, Apex, NC",2001 Creekside Landing Drive,Apex,NC,89,230,1,Purple
"5100 Capital Blvd., Raleigh, NC",5100 Capital Blvd.,Raleigh,NC,33,4294,4,Goldenrod
"4120 Main At North Hills St., Raleigh, NC",4120 Main At North Hills St.,Raleigh,NC,43,5437,6,Puce
"2500 N College Rd, Wilmington, NC",2500 N College Rd,Wilmington,NC,65,1381,5,Fuscia
"314 S College Road, Wilmington, NC",314 S College Road,Wilmington,NC,91,7008,7,Mauv
"205 S. Stratford Rd. Ste 205-d, Winston Salem, NC",205 S. Stratford Rd. Ste 205-d,Winston Salem,NC,1,8720,8,Pink
"197 Summit Square Blvd., Winston Salem, NC",197 Summit Square Blvd.,Winston Salem,NC,97,200,1,Blue
"3708 Creekshire Ct., Winston Salem, NC",3708 Creekshire Ct.,Winston Salem,NC,86,504,5,Yellow
"629 W 5th St, Winston Salem, NC",629 W 5th St,Winston Salem,NC,47,276,8,Teal
"4621 Ramsey Rd, Fayetteville, NC",4621 Ramsey Rd,Fayetteville,NC,14,7949,8,Teal
"208 Owen Dr, Fayetteville, NC",208 Owen Dr,Fayetteville,NC,59,2967,5,Fuscia
"1918 Skibo Rd, Fayetteville, NC",1918 Skibo Rd,Fayetteville,NC,35,4679,1,Maroon
"1813 North Sand Hills Blvd., Aberdeen, NC",1813 North Sand Hills Blvd.,Aberdeen,NC,55,8064,1,Purple
"621 Greenville Blvd, Greenville, NC",621 Greenville Blvd,Greenville,NC,83,3775,2,Puce
"1325 Western Blvd, Jacksonville, NC",1325 Western Blvd,Jacksonville,NC,5,4371,9,Purple
"3518 Clemson Blvd, Anderson, SC",3518 Clemson Blvd,Anderson,SC,83,913,9,Yellow
"1700 Shoremeade Road, Mount Pleasant, SC",1700 Shoremeade Road,Mount Pleasant,SC,16,7061,5,Purple
"975 Savannah Hwy Ste 301, Charleston, SC",975 Savannah Hwy Ste 301,Charleston,SC,93,2622,7,Goldenrod
"7460 Rivers Ave, Charleston, SC",7460 Rivers Ave,Charleston,SC,45,2837,1,Violet
"1835 Pine Island Rd, Myrtle Beach, SC",1835 Pine Island Rd,Myrtle Beach,SC,75,1355,8,Puce
"1218 N. Main Street, Summerville, SC",1218 N. Main Street,Summerville,SC,9,5273,9,Fuscia
"213 Hwy 17 N, North Myrtle Beach, SC",213 Hwy 17 N,North Myrtle Beach,SC,92,6015,4,Puce
"1233 Savannah Hwy, Charleston, SC",1233 Savannah Hwy,Charleston,SC,66,6996,3,Crimson
"1140 N Fraser St, Georgetown, SC",1140 N Fraser St,Georgetown,SC,36,9204,4,Yellow
"5540 Sunset Blvd, Ste C, Lexington, SC",5540 Sunset Blvd,Lexington,SC,38,7580,8,Fuscia
"140 Stonemark Ln, Columbia, SC",140 Stonemark Ln,Columbia,SC,21,2636,8,Green
"702 Cross Hill Rd Ste 500, Columbia, SC",702 Cross Hill Rd Ste 500,Columbia,SC,80,1648,7,Red
"239 Harbison Blvd., Columbia, SC",239 Harbison Blvd.,Columbia,SC,44,1522,1,Aquamarine
"155 Forum Dr., Columbia, SC",155 Forum Dr.,Columbia,SC,37,5771,6,Orange
"430 Second Loop Rd, Florence, SC",430 Second Loop Rd,Florence,SC,82,1559,2,Goldenrod
"1603 W Evans St, Florence, SC",1603 W Evans St,Florence,SC,52,2806,5,Indigo
"3007 W Radio Drive, Florence, SC",3007 W Radio Drive,Florence,SC,95,2798,3,Goldenrod
"10906 E Marietta Ave, Spokane Valley, WA",10906 E Marietta Ave,Spokane Valley,WA,37,6100,7,Orange
"20309 N Creek Pkwy, Bothell, WA",20309 N Creek Pkwy,Bothell,WA,86,6352,4,Yellow
"955 Broadway, Tacoma, WA",955 Broadway,Tacoma,WA,1,6374,4,Khaki
"1121 Woodruff Rd, Greenville, SC",1121 Woodruff Rd,Greenville,SC,69,6254,2,Mauv
"218 College St, Greenville, SC",218 College St,Greenville,SC,96,6163,2,Goldenrod
"1855 E Main St., Spartanburg, SC",1855 E Main St.,Spartanburg,SC,60,9595,5,Turquoise
"127 E Blackstock Rd., Spartanburg, SC",127 E Blackstock Rd.,Spartanburg,SC,32,3584,8,Puce
"2434 Dave Lyle Blvd, Rock Hill, SC",2434 Dave Lyle Blvd,Rock Hill,SC,8,5909,7,Goldenrod
"1853 Gunbarrel Rd., Chattanooga, TN",1853 Gunbarrel Rd.,Chattanooga,TN,6,1325,6,Mauv
"5691 Highway 153, Hixson, TN",5691 Highway 153,Hixson,TN,93,4680,1,Turquoise
"5718 Lee Hwy, Chattanooga, TN",5718 Lee Hwy,Chattanooga,TN,32,6183,6,Mauv
"4494 Frontage Rd. NW, Cleveland, TN",4494 Frontage Rd. NW,Cleveland,TN,63,9492,3,Crimson
"618 S James Campbell Blvd, Columbia, TN",618 S James Campbell Blvd,Columbia,TN,26,9141,1,Yellow
"1012 Vann Drive, Jackson, TN",1012 Vann Drive,Jackson,TN,57,1175,5,Mauv
"7041 Kingston Pike, Knoxville, TN",7041 Kingston Pike,Knoxville,TN,43,6632,1,Crimson
"234 Hamilton Crossing Drive, Alcoa, TN",234 Hamilton Crossing Drive,Alcoa,TN,49,7699,9,Crimson
"11555 Parkside Drive, Farragut, TN",11555 Parkside Drive,Farragut,TN,98,5009,9,Goldenrod
"5429 Washington Pike, Knoxville, TN",5429 Washington Pike,Knoxville,TN,12,5756,6,Red
"940 Elm St, Knoxville, TN",940 Elm St,Knoxville,TN,16,7216,4,Purple
"2550 East Morris Blvd, Morristown, TN",2550 East Morris Blvd,Morristown,TN,72,749,1,Mauv
"4938 Poplar Ave, Memphis, TN",4938 Poplar Ave,Memphis,TN,46,3920,6,Indigo
"8457 N Hwy 51, Millington, TN",8457 N Hwy 51,Millington,TN,44,9482,9,Pink
"5070 Goodman Rd, Olive Branch, MS",5070 Goodman Rd,Olive Branch,MS,83,3190,2,Crimson
"2825 N Germantown Pkwy Ste 101, Memphis, TN",2825 N Germantown Pkwy Ste 101,Memphis,TN,85,1519,7,Indigo
"6267 Poplar Ave, Memphis, TN",6267 Poplar Ave,Memphis,TN,74,2334,6,Crimson
"1733 Sycamore View Rd, Memphis, TN",1733 Sycamore View Rd,Memphis,TN,23,4850,9,Puce
"3720 Hacks Cross Rd, Memphis, TN",3720 Hacks Cross Rd,Memphis,TN,13,3873,6,Crimson
"5985 Stage Rd., Bartlett, TN",5985 Stage Rd.,Bartlett,TN,43,3302,3,Purple
"900 West Poplar Ave, Collierville, TN",900 West Poplar Ave,Collierville,TN,21,9210,8,Indigo
"2282 Union Avenue, Memphis, TN",2282 Union Avenue,Memphis,TN,8,4158,2,Green
"1684 N Germantown Pkwy, Cordova, TN",1684 N Germantown Pkwy,Cordova,TN,86,1695,5,Mauv
"115 Goodman Rd. West, Southaven, MS",115 Goodman Rd. West,Southaven,MS,41,419,6,Red
"434 Keough Rd, Collierville, TN",434 Keough Rd,Collierville,TN,41,1348,6,Yellow
"455 Research Dr, Southaven, MS",455 Research Dr,Southaven,MS,74,475,2,Green
"6702 Charlotte Pike, Ste 101, Nashville, TN",6702 Charlotte Pike,Nashville,TN,84,6599,4,Yellow
"598 Sam Ridley Pkwy W, Smyrna, TN",598 Sam Ridley Pkwy W,Smyrna,TN,9,1864,8,Crimson
"4106 Hillsboro Rd, Nashville, TN",4106 Hillsboro Rd,Nashville,TN,70,4302,5,Maroon
"2560 Wilma Rudolph Blvd, Clarksville, TN",2560 Wilma Rudolph Blvd,Clarksville,TN,64,7991,7,Red
"3021 Mallory Lane, Franklin, TN",3021 Mallory Lane,Franklin,TN,5,5251,8,Fuscia
"2001 Gallatin Pike North, Madison, TN",2001 Gallatin Pike North,Madison,TN,49,3957,7,Khaki
"2627 Brick Church Pike, Nashville, TN",2627 Brick Church Pike,Nashville,TN,6,7407,9,Purple
"401 S Mt. Juliet Rd., Mount Juliet, TN",401 S Mt. Juliet Rd.,Mount Juliet,TN,87,5505,7,Yellow
"1900 West End, Nashville, TN",1900 West End,Nashville,TN,4,4596,8,Goldenrod
"577 North Thompson Lane, Murfreesboro, TN",577 North Thompson Lane,Murfreesboro,TN,14,9015,5,Red
"250 Indian Lake Blvd., Hendersonville, TN",250 Indian Lake Blvd.,Hendersonville,TN,14,1149,1,Violet
"2612 N Roan St, Johnson City, TN",2612 N Roan St,Johnson City,TN,73,8196,8,Teal
"1817 East Stone Dr., Kingsport, TN",1817 East Stone Dr.,Kingsport,TN,78,7254,9,Maroon
"4109 Myrtle Ave, Anniston, AL",4109 Myrtle Ave,Anniston,AL,3,8487,5,Fuscia
"1830 Quintard Ave., Anniston, AL",1830 Quintard Ave.,Anniston,AL,3,8912,4,Orange
"1790 Riverchase Dr., Ste 100, Hoover, AL",1790 Riverchase Dr.,Hoover,AL,25,4608,9,Violet
"4949 Promenada Parkway, Bessemer, AL",4949 Promenada Parkway,Bessemer,AL,23,5180,4,Fuscia
"4700 Us Highway 280 E, Birmingham, AL",4700 Us Highway 280 E,Birmingham,AL,79,6635,1,Turquoise
"1715 6th Ave N, Birmingham, AL",1715 6th Ave N,Birmingham,AL,95,2265,2,Fuscia
"1876 Data Dr, Hoover, AL",1876 Data Dr,Hoover,AL,40,6448,6,Aquamarine
"521 Fieldstown Rd. Suite 101, Gardendale, AL",521 Fieldstown Rd. Suite 101,Gardendale,AL,66,4092,8,Goldenrod
"60 Colonial Promenade Pkwy, Alabaster, AL",60 Colonial Promenade Pkwy,Alabaster,AL,58,2365,1,Goldenrod
"1616 Gadsden Highway Ste. 102, Birmingham, AL",1616 Gadsden Highway Ste. 102,Birmingham,AL,62,6570,1,Khaki
"2904 Commerce Sq S, Irondale, AL",2904 Commerce Sq S,Irondale,AL,45,3702,5,Teal
"220 State Farm Parkway, Birmingham, AL",220 State Farm Parkway,Birmingham,AL,98,1255,1,Teal
"2405 Highway 31, Calera, AL",2405 Highway 31,Calera,AL,14,1199,8,Aquamarine
"609 35th St S, Birmingham, AL",609 35th St S,Birmingham,AL,63,3162,9,Goldenrod
"901 Rainbow Drive, Gadsden, AL",901 Rainbow Drive,Gadsden,AL,75,3481,4,Pink
"4929 University Drive, Suite G, Huntsville, AL",4929 University Drive,Huntsville,AL,57,9807,2,Pink
"1217 Mallard Parkway SE, Decatur, AL",1217 Mallard Parkway SE,Decatur,AL,48,7773,8,Purple
"2190 Winchester Rd NE Ste E, Huntsville, AL",2190 Winchester Rd NE Ste E,Huntsville,AL,51,8695,2,Teal
"400 Diamond Dr NW, Huntsville, AL",400 Diamond Dr NW,Huntsville,AL,15,1428,6,Green
"6886 Governors Dr West Ste 108, Huntsville, AL",6886 Governors Dr West Ste 108,Huntsville,AL,24,9373,8,Aquamarine
"1871 Cherokee Avenue SW, Cullman, AL",1871 Cherokee Avenue SW,Cullman,AL,15,3866,9,Red
"8640 Madison Blvd, Madison, AL",8640 Madison Blvd,Madison,AL,35,6931,3,Goldenrod
"1217 Memorial Pkwy NW, Huntsville, AL",1217 Memorial Pkwy NW,Huntsville,AL,54,4522,7,Red
"8135 Highway 72 West, Madison, AL",8135 Highway 72 West,Madison,AL,37,6769,1,Indigo
"4800 Whitesburg Drive, Huntsville, AL",4800 Whitesburg Drive,Huntsville,AL,18,2949,7,Blue
"5520 Holmes Ave NW, Huntsville, AL",5520 Holmes Ave NW,Huntsville,AL,22,3236,6,Aquamarine
"1704 Highway 78 East, Jasper, AL",1704 Highway 78 East,Jasper,AL,57,8369,6,Mauv
"720 Schillinger Rd. South, Mobile, AL",720 Schillinger Rd. South,Mobile,AL,24,6699,4,Turquoise
"9912 Dimitrios Blvd Suite 101, Daphne, AL",9912 Dimitrios Blvd Suite 101,Daphne,AL,4,8114,1,Purple
"3730 Airport Blvd, Mobile, AL",3730 Airport Blvd,Mobile,AL,79,700,9,Goldenrod
"135 W Church St, Jackson, AL",135 W Church St,Jackson,AL,1,8267,3,Blue
"4419 Rangeline Rd., Mobile, AL",4419 Rangeline Rd.,Mobile,AL,52,9898,2,Orange
"3740 Industrial Park Dr, Mobile, AL",3740 Industrial Park Dr,Mobile,AL,69,8566,4,Pink
"2131 Mckenzie Street, Foley, AL",2131 Mckenzie Street,Foley,AL,75,4667,9,Red
"10494 Highway 80 E, Montgomery, AL",10494 Highway 80 E,Montgomery,AL,45,337,7,Goldenrod
"1220 E Highland Ave, Selma, AL",1220 E Highland Ave,Selma,AL,63,2850,2,Yellow
"7024 Eastchase Pkwy, Montgomery, AL",7024 Eastchase Pkwy,Montgomery,AL,38,9923,9,Blue
"400 E Madison St, Troy, AL",400 E Madison St,Troy,AL,57,8375,7,Orange
"233 Avalon Ave., Muscle Shoals, AL",233 Avalon Ave.,Muscle Shoals,AL,79,8007,4,Orange
"15046 Hwy 43 Suite C, Russellville, AL",15046 Hwy 43 Suite C,Russellville,AL,47,8693,9,Green
"349 Cox Creek Pkwy, Florence, AL",349 Cox Creek Pkwy,Florence,AL,65,3441,2,Green
"1351 Mcfarland Blvd NE Ste 105, Tuscaloosa, AL",1351 Mcfarland Blvd NE Ste 105,Tuscaloosa,AL,73,47,5,Blue
"5980 Old Greensboro Rd Ste 1, Tuscaloosa, AL",5980 Old Greensboro Rd Ste 1,Tuscaloosa,AL,72,4235,4,Goldenrod
"2101 7th St, Tuscaloosa, AL",2101 7th St,Tuscaloosa,AL,3,8075,5,Puce
"2200 Mcfarland Blvd E, Tuscaloosa, AL",2200 Mcfarland Blvd E,Tuscaloosa,AL,86,3517,6,Maroon
"2927 Ross Clark Cir, Dothan, AL",2927 Ross Clark Cir,Dothan,AL,18,1170,2,Pink
"221 Venture Way, Ste 1, Lafayette, LA",221 Venture Way,Lafayette,LA,76,6304,5,Turquoise
"1733 Sycamore View Rd, Ste 200, Memphis, TN",1733 Sycamore View Rd,Memphis,TN,96,2057,1,Goldenrod
"1817 E Stone Drive, Kingsport, TN",1817 E Stone Drive,Kingsport,TN,72,2222,1,Indigo
"1876 Data Dr, Hoover, AL",1876 Data Dr,Hoover,AL,31,8753,6,Blue
"4127 Us Hwy 98 N Ste A134, Lakeland, FL",4127 Us Hwy 98 N Ste A134,Lakeland,FL,58,6174,6,Teal
"3051 Bienville Blvd, Ocean Springs, MS",3051 Bienville Blvd,Ocean Springs,MS,95,3469,4,Khaki
"754 Peachtree St NE, Atlanta, GA",754 Peachtree St NE,Atlanta,GA,14,2597,5,Orange
"2301 23rd Ave N, Escanaba, MI",2301 23rd Ave N,Escanaba,MI,43,1307,1,Purple
"310 W 7th Ave, Sault Sainte Marie, MI",310 W 7th Ave,Sault Sainte Marie,MI,79,943,2,Mauv
"1311 Wright St, Cadillac, MI",1311 Wright St,Cadillac,MI,44,1227,7,Fuscia
"3030 44th Street, Building K, Grandville, MI",3030 44th Street,Grandville,MI,60,8267,7,Indigo
"6385 B Drive North, Ste B, Battle Creek, MI",6385 B Drive North,Battle Creek,MI,78,7761,2,Puce
"3422 Lousma Dr SE, Grand Rapids, MI",3422 Lousma Dr SE,Grand Rapids,MI,7,4124,5,Maroon
"13655 Hall Road, Shelby Township, MI",13655 Hall Road,Shelby Township,MI,81,9730,2,Violet
"342 N Drake Rd., Kalamazoo, MI",342 N Drake Rd.,Kalamazoo,MI,85,3749,7,Yellow
"28835 Gratiot Ave, Roseville, MI",28835 Gratiot Ave,Roseville,MI,99,4384,2,Violet
"31361 Orchard Lake Rd, Farmington Hills, MI",31361 Orchard Lake Rd,Farmington Hills,MI,15,3706,9,Crimson
"3435 W Shore Dr, Holland, MI",3435 W Shore Dr,Holland,MI,68,8873,6,Aquamarine
"941 Hastings St, Traverse City, MI",941 Hastings St,Traverse City,MI,61,1087,6,Aquamarine
"23201 W 8 Mile Rd, Detroit, MI",23201 W 8 Mile Rd,Detroit,MI,14,8406,4,Orange
"360 Enterprise Ct, Bloomfield Hills, MI",360 Enterprise Ct,Bloomfield Hills,MI,67,6007,1,Red
"3217 Washtenaw Blvd, Ann Arbor, MI",3217 Washtenaw Blvd,Ann Arbor,MI,21,2525,3,Turquoise
"5791 Harvey Street, Norton Shores, MI",5791 Harvey Street,Norton Shores,MI,84,6070,1,Orange
"2000 W Big Beaver Road, Troy, MI",2000 W Big Beaver Road,Troy,MI,59,6844,7,Green
"26050 Novi Rd., Novi, MI",26050 Novi Rd.,Novi,MI,53,483,4,Maroon
"2480 S Telegraph Rd, Dearborn, MI",2480 S Telegraph Rd,Dearborn,MI,83,8497,2,Indigo
"1151 Us 31 N, Petoskey, MI",1151 Us 31 N,Petoskey,MI,20,6520,7,Goldenrod
"1419 N West Avenue, Jackson, MI",1419 N West Avenue,Jackson,MI,56,9574,8,Orange
"39 East St, Manistee, MI",39 East St,Manistee,MI,88,5590,2,Maroon
"30254 Woodward Ave., Royal Oak, MI",30254 Woodward Ave.,Royal Oak,MI,1,9044,4,Orange
"811 N Mitchell St, Cadillac, MI",811 N Mitchell St,Cadillac,MI,90,9731,2,Khaki
"23350 Eureka Road, Taylor, MI",23350 Eureka Road,Taylor,MI,83,6586,4,Fuscia
"1620 Michigan Ave, Detroit, MI",1620 Michigan Ave,Detroit,MI,85,6696,7,Maroon
"3963 Baldwin Rd, Auburn Hills, MI",3963 Baldwin Rd,Auburn Hills,MI,55,5548,9,Mauv
"26820 Southfield Rd., Lathrup Village, MI",26820 Southfield Rd.,Lathrup Village,MI,98,7501,2,Khaki
"42633 Ford Rd, Canton, MI",42633 Ford Rd,Canton,MI,16,9435,1,Puce
"2726 S 11th St, Niles, MI",2726 S 11th St,Niles,MI,1,9385,6,Pink
"3289 South Airport Rd, Traverse City, MI",3289 South Airport Rd,Traverse City,MI,33,8398,7,Violet
"3255 Us Hwy 41 W, Marquette, MI",3255 Us Hwy 41 W,Marquette,MI,21,9495,9,Turquoise
"133 W Lovell St, Kalamazoo, MI",133 W Lovell St,Kalamazoo,MI,70,2990,2,Blue
"2500 E Beltline Ave SE Ste B, Grand Rapids, MI",2500 E Beltline Ave SE Ste B,Grand Rapids,MI,16,3444,1,Fuscia
"22371 Gratiot Avenue, Eastpointe, MI",22371 Gratiot Avenue,Eastpointe,MI,73,208,8,Turquoise
"7171 Haggerty Rd, Canton, MI",7171 Haggerty Rd,Canton,MI,49,5808,6,Teal
"24500 W 12 Mile Rd, Southfield, MI",24500 W 12 Mile Rd,Southfield,MI,86,3615,2,Green
"5901 S. Westnedge Avenue, Portage, MI",5901 S. Westnedge Avenue,Portage,MI,5,5928,8,Indigo
"3295 Henry St, Muskegon, MI",3295 Henry St,Muskegon,MI,54,1069,1,Yellow
"4029 Miller Road, Flint, MI",4029 Miller Road,Flint,MI,63,5823,1,Teal
"2031 Dix Highway, Lincoln Park, MI",2031 Dix Highway,Lincoln Park,MI,45,9410,9,Pink
"2910 Tittabawasee Rd, Saginaw, MI",2910 Tittabawasee Rd,Saginaw,MI,58,7299,6,Khaki
"32800 John R Rd, Madison Heights, MI",32800 John R Rd,Madison Heights,MI,7,9856,2,Green
"1021 Main St, Saint Joseph, MI",1021 Main St,Saint Joseph,MI,77,5399,7,Red
"23500 Northwestern Hwy Bldg W, Southfield, MI",23500 Northwestern Hwy Bldg W,Southfield,MI,71,3451,1,Crimson
"100 Oakbrook Center, Space 28, Oak Brook, IL",100 Oakbrook Center,Oak Brook,IL,100,9184,8,Red
"13501 S. Route 59, Ste 103, Plainfield, IL",13501 S. Route 59,Plainfield,IL,54,1854,7,Khaki
"6232 S. Halsted St., Ste A, Chicago, IL",6232 S. Halsted St.,Chicago,IL,34,7168,1,Khaki
"305 N Veterans Pkwy, Ste 102, Bloomington, IL",305 N Veterans Pkwy,Bloomington,IL,74,2727,7,Yellow
"2830 Mannheim Rd, Ste 200, Franklin Park, IL",2830 Mannheim Rd,Franklin Park,IL,84,1893,6,Crimson
"1538 N. Clybourn, Ste. A123, Chicago, IL",1538 N. Clybourn,Chicago,IL,44,6785,6,Fuscia
"59 Skokie Valley Road, Highland Park, IL",59 Skokie Valley Road,Highland Park,IL,11,2015,4,Violet
"2500 Colt Rd, Springfield, IL",2500 Colt Rd,Springfield,IL,36,2860,3,Violet
"3650 Industrial Ave, Rolling Meadows, IL",3650 Industrial Ave,Rolling Meadows,IL,38,1128,3,Teal
"205 W Monroe, Chicago, IL",205 W Monroe,Chicago,IL,50,8805,1,Goldenrod
"1 N Lagrange Rd Unit 1-b, Lagrange, IL",1 N Lagrange Rd Unit 1-b,Lagrange,IL,10,5044,6,Khaki
"15896 S. Lagrange Rd., Orland Park, IL",15896 S. Lagrange Rd.,Orland Park,IL,9,6693,5,Violet
"1400 Golf Road, Schaumburg, IL",1400 Golf Road,Schaumburg,IL,74,732,9,Teal
"7501 Brush Hill Rd, Burr Ridge, IL",7501 Brush Hill Rd,Burr Ridge,IL,58,3311,7,Red
"445 E. Townline Rd, Vernon Hills, IL",445 E. Townline Rd,Vernon Hills,IL,74,6088,8,Turquoise
"1454 S. Randall Rd., Algonquin, IL",1454 S. Randall Rd.,Algonquin,IL,86,5976,3,Purple
"260 Danada Square W, Wheaton, IL",260 Danada Square W,Wheaton,IL,78,9528,3,Turquoise
"3909 Broadway St. Ste.104, Mount Vernon, IL",3909 Broadway St. Ste.104,Mount Vernon,IL,10,7800,1,Crimson
"1101 South Canal Street, Chicago, IL",1101 South Canal Street,Chicago,IL,78,9522,7,Goldenrod
"6270 E State Street, Rockford, IL",6270 E State Street,Rockford,IL,72,4261,9,Green
"3340 Mall Loop Dr, Joliet, IL",3340 Mall Loop Dr,Joliet,IL,62,6346,1,Yellow
"11244 W. Lincoln Hwy, Mokena, IL",11244 W. Lincoln Hwy,Mokena,IL,55,1729,4,Red
"555 E Cook St, Springfield, IL",555 E Cook St,Springfield,IL,86,3976,5,Turquoise
"17858 Halsted Street, Homewood, IL",17858 Halsted Street,Homewood,IL,7,7359,7,Fuscia
"85 W Congress Pkwy, Chicago, IL",85 W Congress Pkwy,Chicago,IL,47,7016,7,Yellow
"840 E State Pkwy, Schaumburg, IL",840 E State Pkwy,Schaumburg,IL,6,8107,2,Teal
"917 Randall Rd, St. Charles, IL",917 Randall Rd,St. Charles,IL,99,3101,9,Orange
"4155 1/2 N Harlem Ave, Norridge, IL",4155 1/2 N Harlem Ave,Norridge,IL,4,4088,1,Teal
"1146 Collinsville Crossing Blv, Collinsville, IL",1146 Collinsville Crossing Blv,Collinsville,IL,51,4741,2,Crimson
"930 National Pkwy, Schaumburg, IL",930 National Pkwy,Schaumburg,IL,20,983,9,Mauv
"3701 W. Touhy Ave., Lincolnwood, IL",3701 W. Touhy Ave.,Lincolnwood,IL,43,6465,4,Turquoise
"585 E Palatine Rd, Arlington Heights, IL",585 E Palatine Rd,Arlington Heights,IL,20,2255,1,Puce
"2808 Us Highway 34, Oswego, IL",2808 Us Highway 34,Oswego,IL,76,9773,2,Orange
"15 S Halsted St., Chicago, IL",15 S Halsted St.,Chicago,IL,7,8115,6,Teal
"1720 6th Ave, Moline, IL",1720 6th Ave,Moline,IL,87,4228,7,Green
"95 W Algonquin Rd -- Z1, Arlington Heights, IL",95 W Algonquin Rd -- Z1,Arlington Heights,IL,60,7947,3,Teal
"1617 N Damen Avenue, Chicago, IL",1617 N Damen Avenue,Chicago,IL,54,2147,1,Aquamarine
"2916 Commerce Drive, Johnsburg, IL",2916 Commerce Drive,Johnsburg,IL,17,8550,6,Mauv
"8658 S Cottage Grove, Chicago, IL",8658 S Cottage Grove,Chicago,IL,44,6116,3,Aquamarine
"312 S Randall Rd, South Elgin, IL",312 S Randall Rd,South Elgin,IL,28,1907,4,Yellow
"1155 Golf Rd, Rolling Meadows, IL",1155 Golf Rd,Rolling Meadows,IL,4,1638,1,Red
"1421 Barclay Blvd, Buffalo Grove, IL",1421 Barclay Blvd,Buffalo Grove,IL,64,9094,4,Maroon
"4361 Venture Drive, Peru, IL",4361 Venture Drive,Peru,IL,79,5463,9,Turquoise
"1921 W Morton Ave, Jacksonville, IL",1921 W Morton Ave,Jacksonville,IL,72,815,6,Goldenrod
"729 West Main Street, West Dundee, IL",729 West Main Street,West Dundee,IL,50,1122,9,Purple
"4912 Northwest Highway, Crystal Lake, IL",4912 Northwest Highway,Crystal Lake,IL,63,1080,6,Maroon
"291 North York Street, Elmhurst, IL",291 North York Street,Elmhurst,IL,8,6831,2,Pink
"16 North State St., Chicago, IL",16 North State St.,Chicago,IL,57,1295,3,Indigo
"1 Aviation Center Dr, Rantoul, IL",1 Aviation Center Dr,Rantoul,IL,21,9909,2,Khaki
"600 North Michigan Ave, Chicago, IL",600 North Michigan Ave,Chicago,IL,70,5682,9,Blue
"1730 W. Fullerton Ave, Chicago, IL",1730 W. Fullerton Ave,Chicago,IL,18,4659,7,Mauv
"1902 North Prospect Ave., Champaign, IL",1902 North Prospect Ave.,Champaign,IL,73,9573,7,Yellow
"9725 Skokie Blvd, Skokie, IL",9725 Skokie Blvd,Skokie,IL,81,9632,7,Khaki
"7075 Grand Ave, Gurnee, IL",7075 Grand Ave,Gurnee,IL,50,9793,7,Crimson
"5201 Broadway Street, Quincy, IL",5201 Broadway Street,Quincy,IL,38,4237,2,Goldenrod
"4756 West Cal Sag Road, Crestwood, IL",4756 West Cal Sag Road,Crestwood,IL,39,4581,4,Khaki
"2410 W Wabash Avenue, Springfield, IL",2410 W Wabash Avenue,Springfield,IL,20,2024,3,Red
"5251 W 95th Street, Oak Lawn, IL",5251 W 95th Street,Oak Lawn,IL,69,4669,1,Orange
"9505 S. Western Ave., Chicago, IL",9505 S. Western Ave.,Chicago,IL,66,9164,3,Fuscia
"17w504 22nd St, Oakbrook Terrace, IL",17w504 22nd St,Oakbrook Terrace,IL,9,1918,3,Turquoise
"425 N Harlem Ave, Oak Park, IL",425 N Harlem Ave,Oak Park,IL,74,5161,2,Violet
"6697 Center Grove Rd, Edwardsville, IL",6697 Center Grove Rd,Edwardsville,IL,43,3426,3,Green
"4412 E New York St., Aurora, IL",4412 E New York St.,Aurora,IL,62,6141,4,Blue
"1215 Carolina Dr, West Chicago, IL",1215 Carolina Dr,West Chicago,IL,97,7905,7,Indigo
"2415 75th St Ste E, Darien, IL",2415 75th St Ste E,Darien,IL,64,8177,2,Teal
"5840 Belleville Crossing St, Belleville, IL",5840 Belleville Crossing St,Belleville,IL,22,7124,8,Puce
"729 W Main St, West Dundee, IL",729 W Main St,West Dundee,IL,84,5126,5,Maroon
"1500 Polaris Parkway, Ste 2172, Columbus, OH",1500 Polaris Parkway,Columbus,OH,52,5612,7,Blue
"20669 Center Ridge Rd, Fairview Park, OH",20669 Center Ridge Rd,Fairview Park,OH,47,254,6,Maroon
"8089 South Ave, Youngstown, OH",8089 South Ave,Youngstown,OH,85,5609,1,Orange
"650 Boardman-canfield Road, Boardman, OH",650 Boardman-canfield Road,Boardman,OH,97,1291,8,Fuscia
"2692 Madison Rd, Cincinnati, OH",2692 Madison Rd,Cincinnati,OH,46,4185,9,Mauv
"1801 Henderson Rd, Columbus, OH",1801 Henderson Rd,Columbus,OH,53,2762,2,Pink
"950 North Bridge Street, Chillicothe, OH",950 North Bridge Street,Chillicothe,OH,49,281,3,Fuscia
"4906 Monroe St, Toledo, OH",4906 Monroe St,Toledo,OH,51,9890,5,Teal
"6710 Strip Ave, North Canton, OH",6710 Strip Ave,North Canton,OH,56,2463,8,Red
"2312 Taylor Park Dr, Reynoldsburg, OH",2312 Taylor Park Dr,Reynoldsburg,OH,24,4279,9,Mauv
"1605 Western Ave, Cincinnati, OH",1605 Western Ave,Cincinnati,OH,37,4058,9,Yellow
"1351 River Valley Blvd, Lancaster, OH",1351 River Valley Blvd,Lancaster,OH,65,5121,8,Crimson
"3397 Princeton Road, Hamilton, OH",3397 Princeton Road,Hamilton,OH,71,3040,5,Red
"750 Huron Rd E, Cleveland, OH",750 Huron Rd E,Cleveland,OH,8,4659,4,Mauv
"2145 Eastern Ave, Gallipolis, OH",2145 Eastern Ave,Gallipolis,OH,23,944,4,Orange
"2335 Gallia Street, Portsmouth, OH",2335 Gallia Street,Portsmouth,OH,4,5409,2,Teal
"1547 West River Rd, Elyria, OH",1547 West River Rd,Elyria,OH,11,3383,7,Turquoise
"1555 Olentangy River Road, Columbus, OH",1555 Olentangy River Road,Columbus,OH,81,6169,8,Crimson
"1545 Hilliard Rome Rd, Columbus, OH",1545 Hilliard Rome Rd,Columbus,OH,7,2909,4,Orange
"2427 Miamisburg Centerville Rd, Dayton, OH",2427 Miamisburg Centerville Rd,Dayton,OH,73,4109,9,Purple
"700 Bell St, Akron, OH",700 Bell St,Akron,OH,17,2755,3,Orange
"1495 Polaris Pkwy, Columbus, OH",1495 Polaris Pkwy,Columbus,OH,5,9324,5,Goldenrod
"5412 Youngstown Warren Road, Niles, OH",5412 Youngstown Warren Road,Niles,OH,75,8104,2,Fuscia
"4465 Eastgate Blvd, Cincinnati, OH",4465 Eastgate Blvd,Cincinnati,OH,31,6250,7,Purple
"34808 Euclid Ave, Willoughby, OH",34808 Euclid Ave,Willoughby,OH,68,1573,9,Violet
"2727 Fairfield Commons, Beavercreek, OH",2727 Fairfield Commons,Beavercreek,OH,32,6289,1,Blue
"1036 W Liberty St, Cincinnati, OH",1036 W Liberty St,Cincinnati,OH,48,3996,3,Yellow
"3952 Morse Crossing, Columbus, OH",3952 Morse Crossing,Columbus,OH,65,7086,7,Indigo
"4199 Weaver Ct S, Hilliard, OH",4199 Weaver Ct S,Hilliard,OH,52,5855,3,Pink
"3955 Townsfair Way, Columbus, OH",3955 Townsfair Way,Columbus,OH,73,1332,9,Pink
"6901 Rockside Road, Independence, OH",6901 Rockside Road,Independence,OH,73,1423,9,Violet
"17970 Royalton Rd, Strongsville, OH",17970 Royalton Rd,Strongsville,OH,55,4383,9,Purple
"4108 Buckeye Pkwy, Grove City, OH",4108 Buckeye Pkwy,Grove City,OH,41,3279,8,Violet
"26300 Cedar Rd, Beachwood, OH",26300 Cedar Rd,Beachwood,OH,61,9142,1,Teal
"35925 Detroit Rd Ste 121, Avon, OH",35925 Detroit Rd Ste 121,Avon,OH,53,4442,1,Green
"3910 South Ave, Youngstown, OH",3910 South Ave,Youngstown,OH,2,6226,1,Aquamarine
"4912 N. Whipple Avenue, Canton, OH",4912 N. Whipple Avenue,Canton,OH,16,7954,7,Khaki
"67800 Mall Ring Rd, Saint Clairsville, OH",67800 Mall Ring Rd,Saint Clairsville,OH,28,4490,8,Mauv
"794 Howe Avenue, Cuyahoga Falls, OH",794 Howe Avenue,Cuyahoga Falls,OH,24,9986,6,Mauv
"1301 E 9th St, Cleveland, OH",1301 E 9th St,Cleveland,OH,71,724,1,Teal
"3612 Stone Creek Blvd., Cincinnati, OH",3612 Stone Creek Blvd.,Cincinnati,OH,52,3210,4,Khaki
"9940 Waterstone Blvd, Cincinnati, OH",9940 Waterstone Blvd,Cincinnati,OH,87,1008,4,Purple
"7701 - 7707 Mentor Ave., Mentor, OH",7701 - 7707 Mentor Ave.,Mentor,OH,60,7384,9,Crimson
"4467 Walnut Street, Dayton, OH",4467 Walnut Street,Dayton,OH,16,8148,2,Turquoise
"3591 Salem Ave, Dayton, OH",3591 Salem Ave,Dayton,OH,98,6754,3,Yellow
"1636 Bechtle Avenue, Springfield, OH",1636 Bechtle Avenue,Springfield,OH,39,9681,6,Aquamarine
"3890 Medina Road, Akron, OH",3890 Medina Road,Akron,OH,69,8205,9,Maroon
"28101 Chagrin Blvd, Woodmere, OH",28101 Chagrin Blvd,Woodmere,OH,57,3256,3,Crimson
"7875 Montgomery Rd., Cincinnati, OH",7875 Montgomery Rd.,Cincinnati,OH,16,5843,1,Orange
"6450 Davis Industrial Pkwy, Solon, OH",6450 Davis Industrial Pkwy,Solon,OH,53,587,6,Puce
"9800 76th Street, Suite 104, Pleasant Prairie, WI",9800 76th Street,Pleasant Prairie,WI,100,9797,6,Turquoise
"6150 N. Port Washington Road, Glendale, WI",6150 N. Port Washington Road,Glendale,WI,75,892,1,Orange
"1045 Clark St, Stevens Point, WI",1045 Clark St,Stevens Point,WI,79,6339,8,Yellow
"17515 W. Bluemound Rd. #200, Brookfield, WI",17515 W. Bluemound Rd. #200,Brookfield,WI,11,6707,9,Purple
"4739 S. 76th Street, Greenfield, WI",4739 S. 76th Street,Greenfield,WI,14,5746,1,Purple
"15345 W Coffee Rd, New Berlin, WI",15345 W Coffee Rd,New Berlin,WI,60,1029,6,Turquoise
"3310 East Calumet, Appleton, WI",3310 East Calumet,Appleton,WI,100,9591,4,Khaki
"406 S. Gammon Road, Madison, WI",406 S. Gammon Road,Madison,WI,93,9988,8,Teal
"3131 Milton Ave Ste 100, Janesville, WI",3131 Milton Ave Ste 100,Janesville,WI,72,9372,6,Green
"3902 E. Washington Avenue, Madison, WI",3902 E. Washington Avenue,Madison,WI,43,573,8,Fuscia
"130 Dixon St, Madison, WI",130 Dixon St,Madison,WI,18,1389,1,Orange
"677 Bay Park Square Mall, Green Bay, WI",677 Bay Park Square Mall,Green Bay,WI,54,2494,3,Puce
"1380 Pabst Farms Circle, Oconomowoc, WI",1380 Pabst Farms Circle,Oconomowoc,WI,15,8114,2,Crimson
"5825 N 99th St, Milwaukee, WI",5825 N 99th St,Milwaukee,WI,80,6315,8,Maroon
"5502 Washington Ave Ste 900, Mount Pleasant, WI",5502 Washington Ave Ste 900,Mount Pleasant,WI,42,2888,7,Goldenrod
"11450 W Burleigh St, Wauwatosa, WI",11450 W Burleigh St,Wauwatosa,WI,23,5638,9,Purple
"205 S Jefferson St, Green Bay, WI",205 S Jefferson St,Green Bay,WI,84,9920,7,Green
"226061 Rib Mountain Drive, Wausau, WI",226061 Rib Mountain Drive,Wausau,WI,4,3621,5,Purple
"5075 S. 76th St., Greenfield, WI",5075 S. 76th St.,Greenfield,WI,11,5302,5,Orange
"2580 American Dr, Appleton, WI",2580 American Dr,Appleton,WI,61,6841,4,Aquamarine
"4739 S 76th St, Greenfield, WI",4739 S 76th St,Greenfield,WI,92,4553,6,Violet
"3827 Tower Ave, Superior, WI",3827 Tower Ave,Superior,WI,86,6873,9,Crimson
"4620 Golf Road, Eau Claire, WI",4620 Golf Road,Eau Claire,WI,67,3289,5,Khaki
"4850 E. Southport, Ste L, Indianapolis, IN",4850 E. Southport,Indianapolis,IN,19,4688,8,Green
"530 Massachusetts Ave, Ste 105, Indianapolis, IN",530 Massachusetts Ave,Indianapolis,IN,44,5116,8,Violet
"260 N Jacob Drive, Bloomington, IN",260 N Jacob Drive,Bloomington,IN,25,6339,5,Goldenrod
"5020 W Lloyd Expressway, Evansville, IN",5020 W Lloyd Expressway,Evansville,IN,12,5345,2,Violet
"1820 Midwest Blvd, Indianapolis, IN",1820 Midwest Blvd,Indianapolis,IN,17,3809,3,Purple
"4351 Lafayette Road, Indianapolis, IN",4351 Lafayette Road,Indianapolis,IN,38,148,2,Red
"1437 S Reed Rd, Kokomo, IN",1437 S Reed Rd,Kokomo,IN,14,9760,9,Orange
"709 East Lewis And Clark Pkwy, Clarksville, IN",709 East Lewis And Clark Pkwy,Clarksville,IN,67,6204,4,Blue
"4510 Ohara Dr, Evansville, IN",4510 Ohara Dr,Evansville,IN,63,5226,3,Violet
"5101 Vogel Rd, Evansville, IN",5101 Vogel Rd,Evansville,IN,32,9107,4,Orange
"10105 E. Washington Street, Indianapolis, IN",10105 E. Washington Street,Indianapolis,IN,49,2889,6,Green
"330 Burkhardt Rd, Evansville, IN",330 Burkhardt Rd,Evansville,IN,47,5355,2,Red
"1548 S. Washington, Crawfordsville, IN",1548 S. Washington,Crawfordsville,IN,51,9504,3,Indigo
"601 E Alto Rd, Kokomo, IN",601 E Alto Rd,Kokomo,IN,99,9164,5,Blue
"4170 Grape Rd, Mishawaka, IN",4170 Grape Rd,Mishawaka,IN,34,1154,4,Blue
"5719 Kopetsky Dr, Indianapolis, IN",5719 Kopetsky Dr,Indianapolis,IN,88,5182,4,Maroon
"5182 S Franklin St, Michigan City, IN",5182 S Franklin St,Michigan City,IN,42,70,4,Khaki
"3811 Illinois Rd, Fort Wayne, IN",3811 Illinois Rd,Fort Wayne,IN,92,226,4,Khaki
"1121 E Ireland Rd, South Bend, IN",1121 E Ireland Rd,South Bend,IN,32,5585,4,Mauv
"7724 East Us Hwy 36, Avon, IN",7724 East Us Hwy 36,Avon,IN,50,8373,2,Pink
"4711 S. Scatterfield Rd., Anderson, IN",4711 S. Scatterfield Rd.,Anderson,IN,16,1837,4,Yellow
"6723 W. Jefferson Blvd, Fort Wayne, IN",6723 W. Jefferson Blvd,Fort Wayne,IN,22,4890,7,Goldenrod
"13901 Town Center Blvd, Noblesville, IN",13901 Town Center Blvd,Noblesville,IN,71,272,8,Red
"5206 Rockville Rd, Indianapolis, IN",5206 Rockville Rd,Indianapolis,IN,32,9882,8,Maroon
"1414 W Mcgalliard Rd, Muncie, IN",1414 W Mcgalliard Rd,Muncie,IN,89,5619,5,Orange
"9210 Rockville Rd, Indianapolis, IN",9210 Rockville Rd,Indianapolis,IN,91,4942,7,Blue
"2629 E 80th Ave, Merrillville, IN",2629 E 80th Ave,Merrillville,IN,56,8251,5,Purple
"7336 E 90th St, Indianapolis, IN",7336 E 90th St,Indianapolis,IN,14,7320,7,Khaki
"2894 E 3rd St, Bloomington, IN",2894 E 3rd St,Bloomington,IN,29,401,8,Crimson
"3920 E Market St, Logansport, IN",3920 E Market St,Logansport,IN,36,576,5,Puce
"3231 N Green River Road, Evansville, IN",3231 N Green River Road,Evansville,IN,9,9336,5,Green
"2707 Cassopolis St, Elkhart, IN",2707 Cassopolis St,Elkhart,IN,69,5292,9,Fuscia
"6155 North Keystone Ave, Indianapolis, IN",6155 North Keystone Ave,Indianapolis,IN,9,6842,4,Violet
"2120 Sagamore Parkway S., Lafayette, IN",2120 Sagamore Parkway S.,Lafayette,IN,73,7854,8,Puce
"8812 Us 31 South, Indianapolis, IN",8812 Us 31 South,Indianapolis,IN,86,2560,5,Red
"7917 Indianapolis Blvd, Hammond, IN",7917 Indianapolis Blvd,Hammond,IN,25,8887,5,Red
"2001 E Greyhound Pass Ste 6, Carmel, IN",2001 E Greyhound Pass Ste 6,Carmel,IN,88,2242,1,Yellow
"1619 Magnavox Way, Fort Wayne, IN",1619 Magnavox Way,Fort Wayne,IN,80,5747,6,Maroon
"918 N 26th St, Milwaukee, WI",918 N 26th St,Milwaukee,WI,43,3172,7,Violet
"3100 South Halsted St, Chicago, IL",3100 South Halsted St,Chicago,IL,76,4419,5,Fuscia
"1912 8th St, Bedford, IN",1912 8th St,Bedford,IN,46,8606,7,Yellow
"3230 Mccarty Rd, Saginaw, MI",3230 Mccarty Rd,Saginaw,MI,29,6916,4,Violet
"2240 12th Ave. NW, Ardmore, OK",2240 12th Ave. NW,Ardmore,OK,13,2728,5,Yellow
"502 Shawnee Mall Drive, Shawnee, OK",502 Shawnee Mall Drive,Shawnee,OK,82,1374,9,Blue
"2310 NW Cache Road, Lawton, OK",2310 NW Cache Road,Lawton,OK,97,4005,4,Orange
"1828 S 4th Street, Chickasha, OK",1828 S 4th Street,Chickasha,OK,51,8392,3,Khaki
"7102 S. Memorial, Tulsa, OK",7102 S. Memorial,Tulsa,OK,44,5072,8,Blue
"3802 S 79th East Ave, Tulsa, OK",3802 S 79th East Ave,Tulsa,OK,32,4295,7,Indigo
"5505 E 41st St, Tulsa, OK",5505 E 41st St,Tulsa,OK,51,5355,5,Yellow
"1580 E Electric Ave, Mcalester, OK",1580 E Electric Ave,Mcalester,OK,15,5054,8,Teal
"15901 E Skelly Dr, Tulsa, OK",15901 E Skelly Dr,Tulsa,OK,74,9911,4,Green
"2125 SE Washington Blvd, Bartlesville, OK",2125 SE Washington Blvd,Bartlesville,OK,35,9870,8,Khaki
"9031 N 121st East Ave, Owasso, OK",9031 N 121st East Ave,Owasso,OK,42,912,3,Green
"7263 S Olympia Ave W, Tulsa, OK",7263 S Olympia Ave W,Tulsa,OK,53,9224,4,Khaki
"1200 E. Hillside Dr., Broken Arrow, OK",1200 E. Hillside Dr.,Broken Arrow,OK,5,9312,7,Blue
"520 East Hall Of Fame, Stillwater, OK",520 East Hall Of Fame,Stillwater,OK,2,2951,8,Turquoise
"402 N York Street, Muskogee, OK",402 N York Street,Muskogee,OK,40,1487,3,Green
"433 S. George Nigh Expressway, Mcalester, OK",433 S. George Nigh Expressway,Mcalester,OK,95,3390,3,Puce
"10035 South Memorial Dr, Tulsa, OK",10035 South Memorial Dr,Tulsa,OK,32,3029,8,Orange
"1404-a S Lewis, Tulsa, OK",1404-a S Lewis,Tulsa,OK,94,5812,3,Blue
"2401 W. Owen K Garriot Rd., Enid, OK",2401 W. Owen K Garriot Rd.,Enid,OK,83,3682,9,Turquoise
"2237 W. Memorial Rd, Oklahoma City, OK",2237 W. Memorial Rd,Oklahoma City,OK,45,3900,4,Green
"1600 Garth Brooks Blvd Ste 100, Yukon, OK",1600 Garth Brooks Blvd Ste 100,Yukon,OK,57,1928,8,Goldenrod
"1444 - 24th Ave NW, Norman, OK",1444 - 24th Ave NW,Norman,OK,16,9956,6,Orange
"1413-c W. I-240 Service Rd., Oklahoma City, OK",1413-c W. I-240 Service Rd.,Oklahoma City,OK,89,4808,9,Indigo
"2670 S Service Rd, Moore, OK",2670 S Service Rd,Moore,OK,84,3458,4,Puce
"111 Dean A Mcgee Ave, Oklahoma City, OK",111 Dean A Mcgee Ave,Oklahoma City,OK,78,2954,5,Blue
"3201 Quail Springs Pkwy, Oklahoma City, OK",3201 Quail Springs Pkwy,Oklahoma City,OK,24,6195,9,Indigo
"7205 SE 29th St., Midwest City, OK",7205 SE 29th St.,Midwest City,OK,70,8700,4,Orange
"502 West 3rd, Elk City, OK",502 West 3rd,Elk City,OK,65,9314,2,Goldenrod
"2003 West Danforth Road, Edmond, OK",2003 West Danforth Road,Edmond,OK,15,6547,5,Green
"2351 W. Main, Norman, OK",2351 W. Main,Norman,OK,97,374,7,Puce
"500 South Macarthur, Oklahoma City, OK",500 South Macarthur,Oklahoma City,OK,15,5735,4,Pink
"3800 S Douglas Ave, Oklahoma City, OK",3800 S Douglas Ave,Oklahoma City,OK,99,3534,6,Pink
"6959 Northwest Expressway, Oklahoma City, OK",6959 Northwest Expressway,Oklahoma City,OK,88,3601,7,Mauv
"5325 North May Avenue, Oklahoma City, OK",5325 North May Avenue,Oklahoma City,OK,54,4214,5,Pink
"1255 East Second St, Edmond, OK",1255 East Second St,Edmond,OK,3,716,8,Khaki
"5704 N San Bernardo Ave, Laredo, TX",5704 N San Bernardo Ave,Laredo,TX,89,9854,1,Khaki
"10719 Mcpherson Road, Laredo, TX",10719 Mcpherson Road,Laredo,TX,59,9582,5,Violet
"4757 South Broadway Ave, Tyler, TX",4757 South Broadway Ave,Tyler,TX,62,6038,6,Green
"3407 N. 4th Street, Longview, TX",3407 N. 4th Street,Longview,TX,37,2035,4,Goldenrod
"109 W Loop 281, Longview, TX",109 W Loop 281,Longview,TX,40,5896,3,Purple
"8922 S Broadway Ave Ste 112, Tyler, TX",8922 S Broadway Ave Ste 112,Tyler,TX,61,40,5,Orange
"301 W Whaley St, Longview, TX",301 W Whaley St,Longview,TX,7,1867,5,Blue
"4400 N. Midland Drive, #600, Midland, TX",4400 N. Midland Drive,Midland,TX,76,1559,7,Purple
"1505 W Francis Ave, Midland, TX",1505 W Francis Ave,Midland,TX,25,7664,1,Turquoise
"201 N Nelson St, Fort Stockton, TX",201 N Nelson St,Fort Stockton,TX,82,8073,3,Red
"3301 N Midkiff, Midland, TX",3301 N Midkiff,Midland,TX,90,3995,2,Mauv
"4937 E. 42nd, Odessa, TX",4937 E. 42nd,Odessa,TX,31,749,1,Blue
"302 N 6th St, Alpine, TX",302 N 6th St,Alpine,TX,100,4599,4,Red
"6605 I-40 West, Bldg. B, Amarillo, TX",6605 I-40 West,Amarillo,TX,94,1979,3,Yellow
"5930 Glenoak Ln, Amarillo, TX",5930 Glenoak Ln,Amarillo,TX,81,8554,3,Maroon
"5752 W. Amarillo Blvd., Amarillo, TX",5752 W. Amarillo Blvd.,Amarillo,TX,93,104,5,Aquamarine
"4410 S Coulter St, Amarillo, TX",4410 S Coulter St,Amarillo,TX,54,2711,2,Mauv
"1011 W. 5th St., Ste. 150a, Austin, TX",1011 W. 5th St.,Austin,TX,20,908,6,Khaki
"11909 Domain Dr, Ste 130, Austin, TX",11909 Domain Dr,Austin,TX,96,5821,5,Orange
"651 Barnes Dr, Bldg 2, Ste 206, San Marcos, TX",651 Barnes Dr,San Marcos,TX,65,6435,6,Blue
"1103 Rivery Blvd., Georgetown, TX",1103 Rivery Blvd.,Georgetown,TX,55,153,5,Green
"1335 E. Whitestone, Cedar Park, TX",1335 E. Whitestone,Cedar Park,TX,68,2697,3,Mauv
"2828 Guadalupe St, Austin, TX",2828 Guadalupe St,Austin,TX,66,9886,6,Blue
"4544 S Lamar Blvd, Austin, TX",4544 S Lamar Blvd,Austin,TX,68,9743,3,Khaki
"5033a Us Hwy 290 W, Austin, TX",5033a Us Hwy 290 W,Austin,TX,33,3070,4,Red
"1100 S. Lamar Blvd, Austin, TX",1100 S. Lamar Blvd,Austin,TX,88,7482,7,Aquamarine
"13000 N. Ih 35, Austin, TX",13000 N. Ih 35,Austin,TX,9,214,3,Teal
"14009 N. Us Hwy 183 Ste. 107, Austin, TX",14009 N. Us Hwy 183 Ste. 107,Austin,TX,68,9142,3,Crimson
"747 Hwy 71 West, Bastrop, TX",747 Hwy 71 West,Bastrop,TX,23,8357,1,Mauv
"5827 E Ben White Blvd, Austin, TX",5827 E Ben White Blvd,Austin,TX,67,9253,9,Goldenrod
"2601 S Ih 35, Round Rock, TX",2601 S Ih 35,Round Rock,TX,41,5262,2,Crimson
"9900 S. Ih-35 Service Rd Sb, Austin, TX",9900 S. Ih-35 Service Rd Sb,Austin,TX,71,9049,6,Teal
"1000 East 5th St, Austin, TX",1000 East 5th St,Austin,TX,18,2898,6,Maroon
"5695 Kyle Parkway Ste 300, Kyle, TX",5695 Kyle Parkway Ste 300,Kyle,TX,27,589,4,Indigo
"1611 Headway Cir, Austin, TX",1611 Headway Cir,Austin,TX,84,684,5,Red
"5407 North Ih 35, Austin, TX",5407 North Ih 35,Austin,TX,43,8154,7,Green
"4405 Williams Dr., Georgetown, TX",4405 Williams Dr.,Georgetown,TX,20,8635,4,Aquamarine
"1011 W 5th Street, Austin, TX",1011 W 5th Street,Austin,TX,63,663,5,Orange
"2901 S Captl Of Tx Hwy Ste E03, Austin, TX",2901 S Captl Of Tx Hwy Ste E03,Austin,TX,73,7450,6,Purple
"10001 Research Blvd, Austin, TX",10001 Research Blvd,Austin,TX,39,9196,6,Green
"4400 Staggerbrush Rd, Austin, TX",4400 Staggerbrush Rd,Austin,TX,24,6002,4,Puce
"5701 West Slaughter Lane Bld E, Austin, TX",5701 West Slaughter Lane Bld E,Austin,TX,79,9590,9,Khaki
"5770 North Mopac Expwy, Austin, TX",5770 North Mopac Expwy,Austin,TX,64,4063,5,Goldenrod
"5425 S. Padre Island Drive, Corpus Christi, TX",5425 S. Padre Island Drive,Corpus Christi,TX,19,5762,1,Mauv
"64 N Reynolds St, Alice, TX",64 N Reynolds St,Alice,TX,72,2151,3,Teal
"402 East F.m. 351, Beeville, TX",402 East F.m. 351,Beeville,TX,45,9252,7,Pink
"13525 Northwest Blvd, Corpus Christi, TX",13525 Northwest Blvd,Corpus Christi,TX,83,7648,8,Khaki
"1900 Dr N.w.atkinson Blvd.#100, Alice, TX",1900 Dr N.w.atkinson Blvd.#100,Alice,TX,77,721,8,Puce
"3138 South Padre Island Drive, Corpus Christi, TX",3138 South Padre Island Drive,Corpus Christi,TX,16,2124,5,Mauv
"6308 Navarro St, Victoria, TX",6308 Navarro St,Victoria,TX,23,7800,5,Goldenrod
"4460 Dowlen Rd, Beaumont, TX",4460 Dowlen Rd,Beaumont,TX,85,5297,3,Khaki
"8445 Memorial Blvd, Port Arthur, TX",8445 Memorial Blvd,Port Arthur,TX,76,2660,3,Red
"2802 N Ih-35, Ste. D, New Braunfels, TX",2802 N Ih-35,New Braunfels,TX,22,6915,4,Violet
"8345 Agora Pkwy, Selma, TX",8345 Agora Pkwy,Selma,TX,96,7532,9,Indigo
"7023 Ih-35 S, San Antonio, TX",7023 Ih-35 S,San Antonio,TX,4,7201,6,Crimson
"1141 North Fm 1604 E, San Antonio, TX",1141 North Fm 1604 E,San Antonio,TX,50,8070,4,Mauv
"6045 NW Loop 410, San Antonio, TX",6045 NW Loop 410,San Antonio,TX,2,5171,3,Yellow
"13127 San Pedro, San Antonio, TX",13127 San Pedro,San Antonio,TX,82,4729,3,Orange
"1022 Grubb Rd, San Antonio, TX",1022 Grubb Rd,San Antonio,TX,41,4743,6,Blue
"2639 NW Loop 410 Ste 102, San Antonio, TX",2639 NW Loop 410 Ste 102,San Antonio,TX,25,1365,9,Turquoise
"201 N High St, Uvalde, TX",201 N High St,Uvalde,TX,17,6419,2,Teal
"11745 Ih 10 West, San Antonio, TX",11745 Ih 10 West,San Antonio,TX,66,1698,2,Yellow
"17503 La Cantera Pkwy, San Antonio, TX",17503 La Cantera Pkwy,San Antonio,TX,53,24,9,Goldenrod
"8227 State Hwy 151 Unit 102, San Antonio, TX",8227 State Hwy 151 Unit 102,San Antonio,TX,48,3987,3,Puce
"18610 Blanco Rd, San Antonio, TX",18610 Blanco Rd,San Antonio,TX,46,1051,6,Violet
"5539 W Loop 1604 N, San Antonio, TX",5539 W Loop 1604 N,San Antonio,TX,52,9968,7,Teal
"7322 Jones Maltsberger, San Antonio, TX",7322 Jones Maltsberger,San Antonio,TX,10,1916,5,Aquamarine
"3138 SE Military Dr, San Antonio, TX",3138 SE Military Dr,San Antonio,TX,35,7701,2,Maroon
"331 Nolan St, San Antonio, TX",331 Nolan St,San Antonio,TX,25,6544,8,Yellow
"310 Himes Dr, Euless, TX",310 Himes Dr,Euless,TX,43,1922,7,Indigo
"607 N Miller Blvd, Oklahoma City, OK",607 N Miller Blvd,Oklahoma City,OK,50,1077,2,Aquamarine
"2400 Lacy Ln, Carrollton, TX",2400 Lacy Ln,Carrollton,TX,50,2704,8,Mauv
"13900 Midway Rd, Farmers Branch, TX",13900 Midway Rd,Farmers Branch,TX,80,8502,7,Pink
"3201 Lawrence Rd, Wichita Falls, TX",3201 Lawrence Rd,Wichita Falls,TX,25,5484,1,Teal
"4300 Kell Blvd, Wichita Falls, TX",4300 Kell Blvd,Wichita Falls,TX,31,204,7,Goldenrod
"1971 N. Us 287, Ste 113, Mansfield, TX",1971 N. Us 287,Mansfield,TX,68,8402,6,Goldenrod
"311 Interstate 20 E, Arlington, TX",311 Interstate 20 E,Arlington,TX,97,3333,5,Turquoise
"1002 N Collins St, Arlington, TX",1002 N Collins St,Arlington,TX,80,9134,5,Mauv
"6358 Lake Worth Blvd., Fort Worth, TX",6358 Lake Worth Blvd.,Fort Worth,TX,43,2583,9,Puce
"8416 Denton Hwy, Watauga, TX",8416 Denton Hwy,Watauga,TX,28,1664,9,Yellow
"1169 N. Burleson Blvd., Burleson, TX",1169 N. Burleson Blvd.,Burleson,TX,34,8272,4,Yellow
"220 Adams Drive Ste 210 Bldg C, Weatherford, TX",220 Adams Drive Ste 210 Bldg C,Weatherford,TX,97,6446,5,Yellow
"980 Melborne, Hurst, TX",980 Melborne,Hurst,TX,5,3407,3,Fuscia
"6600 North Freeway, Fort Worth, TX",6600 North Freeway,Fort Worth,TX,42,7614,9,Pink
"1401 William D Tate Ave Ste600, Grapevine, TX",1401 William D Tate Ave Ste600,Grapevine,TX,42,3115,8,Blue
"4801 Bryant Irvin Rd, Fort Worth, TX",4801 Bryant Irvin Rd,Fort Worth,TX,68,7125,8,Red
"1451 N Hwy 77, Waxahachie, TX",1451 N Hwy 77,Waxahachie,TX,11,254,2,Pink
"2834 S Hulen, Fort Worth, TX",2834 S Hulen,Fort Worth,TX,75,7578,9,Khaki
"1431 E. Southlake Blvd Ste 511, Southlake, TX",1431 E. Southlake Blvd Ste 511,Southlake,TX,32,9737,4,Violet
"2811 W Washington, Stephenville, TX",2811 W Washington,Stephenville,TX,47,1552,4,Maroon
"201 W Tom Stafford Ave, Weatherford, OK",201 W Tom Stafford Ave,Weatherford,OK,55,4569,1,Mauv
"3329 Turner Dr., #108s, Abilene, TX",3329 Turner Dr.,Abilene,TX,10,6247,1,Yellow
"Abi 4243 Southwest Drive, Abilene, TX",Abi 4243 Southwest Drive,Abilene,TX,20,7772,3,Turquoise
"2017 Knickerbocker Rd, San Angelo, TX",2017 Knickerbocker Rd,San Angelo,TX,66,607,3,Crimson
"4533 Sherwood Way, San Angelo, TX",4533 Sherwood Way,San Angelo,TX,40,2293,3,Mauv
"323 S Chadbourne St, San Angelo, TX",323 S Chadbourne St,San Angelo,TX,33,5898,5,Khaki
"210 W Commerce St, Brownwood, TX",210 W Commerce St,Brownwood,TX,15,1836,2,Goldenrod
"4301 Oil Belt Ln, Abilene, TX",4301 Oil Belt Ln,Abilene,TX,35,9774,4,Aquamarine
"2321 N University Ave, Lubbock, TX",2321 N University Ave,Lubbock,TX,46,3621,9,Yellow
"5109 82nd St Unit 4, Lubbock, TX",5109 82nd St Unit 4,Lubbock,TX,97,1079,6,Teal
"1420 Broadway St, Lubbock, TX",1420 Broadway St,Lubbock,TX,18,2766,8,Crimson
"6914 82nd St, Lubbock, TX",6914 82nd St,Lubbock,TX,5,4142,2,Indigo
"5016 Milwaukee Avenue, Lubbock, TX",5016 Milwaukee Avenue,Lubbock,TX,13,8181,4,Mauv
"601 University Ave Ste K, Lubbock, TX",601 University Ave Ste K,Lubbock,TX,25,5510,3,Turquoise
"3809 S General Bruce Dr, Temple, TX",3809 S General Bruce Dr,Temple,TX,39,4695,8,Violet
"3010 E. Hwy 190 Bldg 2 Ste 200, Copperas Cove, TX",3010 E. Hwy 190 Bldg 2 Ste 200,Copperas Cove,TX,36,6956,1,Blue
"201 E Central Texas Expressway, Harker Heights, TX",201 E Central Texas Expressway,Harker Heights,TX,56,3394,4,Purple
"1300 E Central Texas Expwy, Killeen, TX",1300 E Central Texas Expwy,Killeen,TX,8,1410,7,Maroon
"5959 Royal Lane, Ste 777, Dallas, TX",5959 Royal Lane,Dallas,TX,10,5125,9,Purple
"7800 N Macarthur Blvd, Ste 150, Irving, TX",7800 N Macarthur Blvd,Irving,TX,16,6337,1,Orange
"308 S Akard Street, Suite 101, Dallas, TX",308 S Akard Street,Dallas,TX,90,4859,6,Yellow
"1001 N. Beckley, Suite 614d, Desoto, TX",1001 N. Beckley,Desoto,TX,44,9016,3,Turquoise
"3300 Dallas Pkwy, Ste. 100, Plano, TX",3300 Dallas Pkwy,Plano,TX,16,5091,7,Pink
"1101 S. Preston Rd., Ste 30, Prosper, TX",1101 S. Preston Rd.,Prosper,TX,8,7243,9,Goldenrod
"2180 N Glenville Dr, Richardson, TX",2180 N Glenville Dr,Richardson,TX,22,6286,5,Maroon
"1681 N Central Expwy, Mckinney, TX",1681 N Central Expwy,Mckinney,TX,48,2464,3,Puce
"1645 Town East Blvd, Mesquite, TX",1645 Town East Blvd,Mesquite,TX,71,6279,9,Crimson
"2305 West Interstate 20, Grand Prairie, TX",2305 West Interstate 20,Grand Prairie,TX,33,7823,3,Teal
"6000 Las Colinas Blvd, Irving, TX",6000 Las Colinas Blvd,Irving,TX,80,9857,3,Yellow
"701 N. Central Expy, Plano, TX",701 N. Central Expy,Plano,TX,5,6143,4,Yellow
"6161 Long Prairie Rd, Flower Mound, TX",6161 Long Prairie Rd,Flower Mound,TX,94,7318,3,Mauv
"4331 Communications Dr, Dallas, TX",4331 Communications Dr,Dallas,TX,8,1873,8,Indigo
"190 E. Stacy Road, Allen, TX",190 E. Stacy Road,Allen,TX,50,4914,2,Mauv
"1701 Vantage Dr Ste 209, Carrollton, TX",1701 Vantage Dr Ste 209,Carrollton,TX,68,209,5,Green
"4100 Bryan St, Dallas, TX",4100 Bryan St,Dallas,TX,96,5499,3,Maroon
"2601 Preston Rd #2238, Frisco, TX",2601 Preston Rd #2238,Frisco,TX,48,3811,1,Turquoise
"352 N Highway 67, Cedar Hill, TX",352 N Highway 67,Cedar Hill,TX,79,7030,7,Puce
"2270 Lakeside Blvd, Richardson, TX",2270 Lakeside Blvd,Richardson,TX,67,556,2,Orange
"2220 Campbell Creek Blvd, Richardson, TX",2220 Campbell Creek Blvd,Richardson,TX,5,6244,5,Purple
"3460 W. Fm 544 Ste 500, Wylie, TX",3460 W. Fm 544 Ste 500,Wylie,TX,24,5627,2,Green
"5100 Belt Line Rd. Ste. 1032, Addison, TX",5100 Belt Line Rd. Ste. 1032,Addison,TX,28,6661,9,Teal
"2783 Ridge Rd, Rockwall, TX",2783 Ridge Rd,Rockwall,TX,36,4877,3,Goldenrod
"2304 S. Loop 288, Denton, TX",2304 S. Loop 288,Denton,TX,42,6522,7,Pink
"2520 W. University Dr., Denton, TX",2520 W. University Dr.,Denton,TX,15,7555,5,Indigo
"2701 N Beltline Rd, Irving, TX",2701 N Beltline Rd,Irving,TX,70,6187,1,Indigo
"5345 N Garland Ave, Garland, TX",5345 N Garland Ave,Garland,TX,68,3288,6,Goldenrod
"3329 Oak Lawn Avenue, Dallas, TX",3329 Oak Lawn Avenue,Dallas,TX,42,7021,4,Khaki
"9100 N. Central Expressway, Dallas, TX",9100 N. Central Expressway,Dallas,TX,91,1183,9,Aquamarine
"8687 N Central Expressway, Dallas, TX",8687 N Central Expressway,Dallas,TX,81,8694,2,Green
"12021 Dallas Parkway Ste 500, Frisco, TX",12021 Dallas Parkway Ste 500,Frisco,TX,98,9440,1,Blue
"2397 Stemmons Freeway, Lewisville, TX",2397 Stemmons Freeway,Lewisville,TX,91,4423,5,Violet
"3551 Preston Rd, Frisco, TX",3551 Preston Rd,Frisco,TX,28,9646,8,Maroon
"301 E. Hwy 82, Sherman, TX",301 E. Hwy 82,Sherman,TX,42,3682,4,Fuscia
"4770 State Highway 121 Ste 170, Lewisville, TX",4770 State Highway 121 Ste 170,Lewisville,TX,83,4270,1,Aquamarine
"901 Northwest Hwy, Garland, TX",901 Northwest Hwy,Garland,TX,48,1012,8,Puce
"1905 Tulane Drive, Lufkin, TX",1905 Tulane Drive,Lufkin,TX,23,9810,7,Mauv
"209 E Crockett St, Cleveland, TX",209 E Crockett St,Cleveland,TX,92,2448,2,Aquamarine
"5514 Weslayan St., Unit 16, Houston, TX",5514 Weslayan St.,Houston,TX,96,2125,3,Yellow
"1505 Texas Ave S, Ste A, College Station, TX",1505 Texas Ave S,College Station,TX,86,6381,2,Violet
"14201 Cypress Rosehill Rd, 100, Cypress, TX",14201 Cypress Rosehill Rd,Cypress,TX,57,2795,6,Orange
"6615 N. Grand Pkwy W., Ste 310, Spring, TX",6615 N. Grand Pkwy W.,Spring,TX,46,8767,6,Violet
"11971 N. Grand Pkwy E., Ste. 3, New Caney, TX",11971 N. Grand Pkwy E.,New Caney,TX,23,7631,2,Pink
"2948 I-45 North, Conroe, TX",2948 I-45 North,Conroe,TX,33,3945,8,Mauv
"5708 Fairmont Parkway, Pasadena, TX",5708 Fairmont Parkway,Pasadena,TX,44,7053,1,Violet
"10420 Broadway St., Pearland, TX",10420 Broadway St.,Pearland,TX,67,2110,6,Puce
"205 Hwy 332 West, Lake Jackson, TX",205 Hwy 332 West,Lake Jackson,TX,92,8833,9,Crimson
"19752 Ih45 North, Spring, TX",19752 Ih45 North,Spring,TX,5,7499,6,Aquamarine
"5530 W. Grand Pkwy. South, Richmond, TX",5530 W. Grand Pkwy. South,Richmond,TX,90,8926,3,Goldenrod
"15419-a Wallisville Rd, Houston, TX",15419-a Wallisville Rd,Houston,TX,39,4424,2,Maroon
"4009 Dunlavy St, Houston, TX",4009 Dunlavy St,Houston,TX,69,7957,8,Blue
"1333 W. Bay Area Blvd, Webster, TX",1333 W. Bay Area Blvd,Webster,TX,10,5386,6,Violet
"11410 Gulf Fwy, Houston, TX",11410 Gulf Fwy,Houston,TX,57,419,3,Red
"22521 Tomball Parkway, Houston, TX",22521 Tomball Parkway,Houston,TX,98,105,9,Indigo
"232 Meyerland Plaza, Houston, TX",232 Meyerland Plaza,Houston,TX,30,9844,1,Fuscia
"303 Sawdust Rd., The Woodlands, TX",303 Sawdust Rd.,The Woodlands,TX,49,8225,5,Khaki
"9700 Bissonnet St, Houston, TX",9700 Bissonnet St,Houston,TX,38,4579,1,Yellow
"7911 W. Fm 1960, Houston, TX",7911 W. Fm 1960,Houston,TX,88,8438,6,Blue
"2191 Texas Dr, Sugar Land, TX",2191 Texas Dr,Sugar Land,TX,59,9120,4,Puce
"1801 Briarcrest, Bryan, TX",1801 Briarcrest,Bryan,TX,27,9278,1,Purple
"4536 Kingwood Dr, Kingwood, TX",4536 Kingwood Dr,Kingwood,TX,44,2922,8,Crimson
"13341 Westheimer Rd, Houston, TX",13341 Westheimer Rd,Houston,TX,86,5791,3,Goldenrod
"1660 Fm 646 Rd W Ste A, Dickinson, TX",1660 Fm 646 Rd W Ste A,Dickinson,TX,50,9815,8,Mauv
"6595 Highway 6 North, Houston, TX",6595 Highway 6 North,Houston,TX,31,1779,6,Orange
"14002 Fm 2920 Suite A, Tomball, TX",14002 Fm 2920 Suite A,Tomball,TX,82,7023,4,Pink
"8412 Katy Freeway, Houston, TX",8412 Katy Freeway,Houston,TX,97,101,5,Green
"4868 Garth Rd. Ste B, Baytown, TX",4868 Garth Rd. Ste B,Baytown,TX,94,9521,9,Indigo
"19959 Katy Freeway, Houston, TX",19959 Katy Freeway,Houston,TX,42,2160,7,Khaki
"7025 Fm 1960 East, Humble, TX",7025 Fm 1960 East,Humble,TX,81,3273,6,Green
"790 W. Sam Houston Pkwy N., Houston, TX",790 W. Sam Houston Pkwy N.,Houston,TX,50,9182,1,Orange
"1407 Jefferson St, Houston, TX",1407 Jefferson St,Houston,TX,53,3030,8,Goldenrod
"6531 Fm 1488, Magnolia, TX",6531 Fm 1488,Magnolia,TX,56,7735,6,Mauv
"1195 West Loop N, Houston, TX",1195 West Loop N,Houston,TX,93,6050,3,Teal
"1919 Taylor St. Ste A, Houston, TX",1919 Taylor St. Ste A,Houston,TX,33,3185,1,Blue
"28033 Ih 45 North, Spring, TX",28033 Ih 45 North,Spring,TX,99,4702,5,Mauv
"19727 Highway 59 N, Humble, TX",19727 Highway 59 N,Humble,TX,17,4346,1,Green
"109 Hwy 290 West, Brenham, TX",109 Hwy 290 West,Brenham,TX,3,1655,3,Teal
"3006 Hwy 30 West, Huntsville, TX",3006 Hwy 30 West,Huntsville,TX,41,3832,7,Goldenrod
"2727 Mercantile Dr., Rosenberg, TX",2727 Mercantile Dr.,Rosenberg,TX,32,6630,7,Yellow
"1505 S Mason Rd, Katy, TX",1505 S Mason Rd,Katy,TX,4,3638,1,Red
"917 William D Fitch Pkwy, College Station, TX",917 William D Fitch Pkwy,College Station,TX,54,7168,1,Purple
"415 W Crosstimbers St, Houston, TX",415 W Crosstimbers St,Houston,TX,35,8970,4,Orange
"4330 West Waco Dr, Waco, TX",4330 West Waco Dr,Waco,TX,52,9343,1,Maroon
"3701 W Expressway 83 Ste 100, Mcallen, TX",3701 W Expressway 83 Ste 100,Mcallen,TX,41,61,5,Turquoise
"7113 N 10th St, Mcallen, TX",7113 N 10th St,Mcallen,TX,76,295,6,Khaki
"6906 W Expy 83, Harlingen, TX",6906 W Expy 83,Harlingen,TX,7,6391,4,Purple
"102 Bass Pro Drive, Harlingen, TX",102 Bass Pro Drive,Harlingen,TX,56,4370,2,Indigo
"4305 N. Expressway, Brownsville, TX",4305 N. Expressway,Brownsville,TX,73,3565,3,Red
"1400 E. Expressway 83, Mcallen, TX",1400 E. Expressway 83,Mcallen,TX,8,5778,3,Fuscia
"6403 North Illinois Street, Fairview Heights, IL",6403 North Illinois Street,Fairview Heights,IL,1,7375,1,Blue
"5451 Phantom Dr, Hazelwood, MO",5451 Phantom Dr,Hazelwood,MO,22,9606,3,Crimson
"3181 Phoenix Center Dr, Washington, MO",3181 Phoenix Center Dr,Washington,MO,90,299,1,Khaki
"6291 Mid Rivers Mall Drive, Saint Peters, MO",6291 Mid Rivers Mall Drive,Saint Peters,MO,100,1465,7,Green
"6411 Chippewa St, Saint Louis, MO",6411 Chippewa St,Saint Louis,MO,65,1780,4,Fuscia
"11600 Olive Blvd Ste A-1, Creve Coeur, MO",11600 Olive Blvd Ste A-1,Creve Coeur,MO,67,3921,5,Pink
"892 Woods Mill Rd, Ballwin, MO",892 Woods Mill Rd,Ballwin,MO,89,9811,9,Puce
"1811 S Brentwood Blvd, Brentwood, MO",1811 S Brentwood Blvd,Brentwood,MO,64,9076,9,Yellow
"12930 Olive Blvd, Creve Coeur, MO",12930 Olive Blvd,Creve Coeur,MO,56,305,7,Violet
"15924 Manchester Rd, Ellisville, MO",15924 Manchester Rd,Ellisville,MO,12,5349,4,Crimson
"2875 North Us Highway 67, Florissant, MO",2875 North Us Highway 67,Florissant,MO,22,3753,4,Puce
"257 East 5th Street, Eureka, MO",257 East 5th Street,Eureka,MO,41,233,8,Fuscia
"3899 Veterans Memorial, Saint Peters, MO",3899 Veterans Memorial,Saint Peters,MO,69,9532,6,Purple
"701 Gravois, Fenton, MO",701 Gravois,Fenton,MO,38,6208,2,Pink
"404 Oak St, Washington, MO",404 Oak St,Washington,MO,78,8606,6,Green
"13744 Shoreline East Court, Earth City, MO",13744 Shoreline East Court,Earth City,MO,8,7221,6,Yellow
"17253 Chesterfield Airport Rd, Chesterfield, MO",17253 Chesterfield Airport Rd,Chesterfield,MO,46,4774,8,Orange
"13351 Manchester Rd, Des Peres, MO",13351 Manchester Rd,Des Peres,MO,9,572,8,Aquamarine
"4133 Elm Park Drive, Saint Louis, MO",4133 Elm Park Drive,Saint Louis,MO,36,755,2,Yellow
"2210 Hwy K., O Fallon, MO",2210 Hwy K.,O Fallon,MO,51,1018,8,Turquoise
"115 W Adams Ave, Kirkwood, MO",115 W Adams Ave,Kirkwood,MO,66,3981,8,Mauv
"13740 Shoreline Ct E, Earth City, MO",13740 Shoreline Ct E,Earth City,MO,56,3777,6,Puce
"802 Branson Hills Pkwy, Branson, MO",802 Branson Hills Pkwy,Branson,MO,87,9169,9,Khaki
"510 E Mcdaniel St, Springfield, MO",510 E Mcdaniel St,Springfield,MO,49,6569,2,Turquoise
"1702 S Range Line Rd, Joplin, MO",1702 S Range Line Rd,Joplin,MO,99,5074,4,Goldenrod
"2601 North Kansas Expressway, Springfield, MO",2601 North Kansas Expressway,Springfield,MO,82,7562,7,Khaki
"4160 S. Campbell Avenue, Springfield, MO",4160 S. Campbell Avenue,Springfield,MO,24,544,8,Purple
"4001 Richard Joseph Blvd, Joplin, MO",4001 Richard Joseph Blvd,Joplin,MO,90,1865,5,Khaki
"4001 Osage Beach Pkwy, Osage Beach, MO",4001 Osage Beach Pkwy,Osage Beach,MO,70,9775,2,Goldenrod
"2109 W Worley, Columbia, MO",2109 W Worley,Columbia,MO,24,2956,9,Blue
"3185 West Broadway Blvd, Sedalia, MO",3185 West Broadway Blvd,Sedalia,MO,83,8546,4,Red
"119 S Bishop Ave, Rolla, MO",119 S Bishop Ave,Rolla,MO,72,1403,9,Violet
"312 Highway Z, Saint Robert, MO",312 Highway Z,Saint Robert,MO,89,230,1,Yellow
"1305 Grindstone Pkwy., Columbia, MO",1305 Grindstone Pkwy.,Columbia,MO,33,4294,4,Goldenrod
"610 Wildwood Drive, Jefferson City, MO",610 Wildwood Drive,Jefferson City,MO,43,5437,6,Yellow
"1210 N Westwood Blvd, Poplar Bluff, MO",1210 N Westwood Blvd,Poplar Bluff,MO,65,1381,5,Red
"740 W Karsch Blvd, Farmington, MO",740 W Karsch Blvd,Farmington,MO,91,7008,7,Purple
"1313 S. Main Street, Sikeston, MO",1313 S. Main Street,Sikeston,MO,1,8720,8,Orange
"3363 Gordonville, Cape Girardeau, MO",3363 Gordonville,Cape Girardeau,MO,97,200,1,Maroon
"19210 E. 39th Street,ste A, Independence, MO",19210 E. 39th Street,Independence,MO,86,504,5,Turquoise
"2029 S Sheridan Rd, Tulsa, OK",2029 S Sheridan Rd,Tulsa,OK,47,276,8,Khaki
"6615 W 135th Street, Overland Park, KS",6615 W 135th Street,Overland Park,KS,14,7949,8,Purple
"8026 E 171st, Belton, MO",8026 E 171st,Belton,MO,59,2967,5,Indigo
"7801 Farley St, Overland Park, KS",7801 Farley St,Overland Park,KS,35,4679,1,Red
"10620 Parallel Parkway, Kansas City, KS",10620 Parallel Parkway,Kansas City,KS,55,8064,1,Fuscia
"635 NW Murray Road, Lees Summit, MO",635 NW Murray Road,Lees Summit,MO,83,3775,2,Blue
"9150 NE Barry Rd, Kansas City, MO",9150 NE Barry Rd,Kansas City,MO,5,4371,9,Crimson
"11971 S Blackbob Rd, Olathe, KS",11971 S Blackbob Rd,Olathe,KS,83,913,9,Khaki
"16900 E Us Highway 40, Independence, MO",16900 E Us Highway 40,Independence,MO,16,7061,5,Green
"1140 Eisenhower Rd, Leavenworth, KS",1140 Eisenhower Rd,Leavenworth,KS,93,2622,7,Fuscia
"5107 N. Belt Highway, Saint Joseph, MO",5107 N. Belt Highway,Saint Joseph,MO,45,2837,1,Pink
"3310 Iowa St. Suite A, Lawrence, KS",3310 Iowa St. Suite A,Lawrence,KS,75,1355,8,Puce
"10636 Lackman Rd, Lenexa, KS",10636 Lackman Rd,Lenexa,KS,9,5273,9,Yellow
"320 N 10th St, Saint Joseph, MO",320 N 10th St,Saint Joseph,MO,92,6015,4,Violet
"8454 NW Prairie View Rd, Kansas City, MO",8454 NW Prairie View Rd,Kansas City,MO,66,6996,3,Crimson
"8801 Johnson Dr, Merriam, KS",8801 Johnson Dr,Merriam,KS,36,9204,4,Puce
"4015 Mill Street, Kansas City, MO",4015 Mill Street,Kansas City,MO,38,7580,8,Fuscia
"715 NE Coronado Dr., Blue Springs, MO",715 NE Coronado Dr.,Blue Springs,MO,21,2636,8,Purple
"2201 Wanamaker #101, Topeka, KS",2201 Wanamaker #101,Topeka,KS,80,1648,7,Pink
"1622 NW Saline St, Topeka, KS",1622 NW Saline St,Topeka,KS,44,1522,1,Green
"2404 N Maize Rd, Wichita, KS",2404 N Maize Rd,Wichita,KS,37,5771,6,Yellow
"208 Gunsmoke St, Dodge City, KS",208 Gunsmoke St,Dodge City,KS,82,1559,2,Orange
"11611 E Kellogg Dr Suite 101, Wichita, KS",11611 E Kellogg Dr Suite 101,Wichita,KS,52,2806,5,Aquamarine
"3300 N. Rock Rd., Wichita, KS",3300 N. Rock Rd.,Wichita,KS,95,2798,3,Yellow
"20 S Steuben Ave, Chanute, KS",20 S Steuben Ave,Chanute,KS,37,6100,7,Turquoise
"407 N 7th St, Garden City, KS",407 N 7th St,Garden City,KS,86,6352,4,Mauv
"2620 Amherst Ave, Manhattan, KS",2620 Amherst Ave,Manhattan,KS,1,6374,4,Puce
"100 Bluemont Ave #b, Manhattan, KS",100 Bluemont Ave #b,Manhattan,KS,69,6254,2,Khaki
"4404 W Walnut Suites 1,2,3, Rogers, AR",4404 W Walnut Suites 1,Rogers,AR,96,6163,2,Turquoise
"4201 N Shiloh Dr, Fayetteville, AR",4201 N Shiloh Dr,Fayetteville,AR,60,9595,5,Goldenrod
"3200 Kennedy Ct, Fort Smith, AR",3200 Kennedy Ct,Fort Smith,AR,32,3584,8,Khaki
"2012 S. Promenade Blvd, Rogers, AR",2012 S. Promenade Blvd,Rogers,AR,8,5909,7,Purple
"4489 W Sunset Ave, Springdale, AR",4489 W Sunset Ave,Springdale,AR,6,1325,6,Khaki
"7110 Rogers Ave Ste 100, Fort Smith, AR",7110 Rogers Ave Ste 100,Fort Smith,AR,93,4680,1,Goldenrod
"3075 North College, Fayetteville, AR",3075 North College,Fayetteville,AR,32,6183,6,Blue
"700 W Walnut St, Rogers, AR",700 W Walnut St,Rogers,AR,63,9492,3,Red
"3075 E. Main St, Russellville, AR",3075 E. Main St,Russellville,AR,26,9141,1,Violet
"1412 Higdon Ferry Road, Hot Springs, AR",1412 Higdon Ferry Road,Hot Springs,AR,57,1175,5,Yellow
"5112 Summerhill Rd, Texarkana, TX",5112 Summerhill Rd,Texarkana,TX,43,6632,1,Goldenrod
"7409 Alcoa Road, Bryant, AR",7409 Alcoa Road,Bryant,AR,49,7699,9,Yellow
"250 Richmond Ranch Road, Texarkana, TX",250 Richmond Ranch Road,Texarkana,TX,98,5009,9,Red
"220 Prospect Ave, Hot Springs, AR",220 Prospect Ave,Hot Springs,AR,12,5756,6,Purple
"650 W Service Rd Ste 101, West Memphis, AR",650 W Service Rd Ste 101,West Memphis,AR,16,7216,4,Orange
"3544 E Race, Searcy, AR",3544 E Race,Searcy,AR,72,749,1,Maroon
"723 S Church St, Jonesboro, AR",723 S Church St,Jonesboro,AR,46,3920,6,Turquoise
"3006 East Highland Ave, Jonesboro, AR",3006 East Highland Ave,Jonesboro,AR,44,9482,9,Khaki
"17000 Cantrell Rd, Little Rock, AR",17000 Cantrell Rd,Little Rock,AR,83,3190,2,Purple
"2401 Taylor St, North Little Rock, AR",2401 Taylor St,North Little Rock,AR,85,1519,7,Indigo
"10301 Stagecoach Rd, Little Rock, AR",10301 Stagecoach Rd,Little Rock,AR,74,2334,6,Red
"11520 Financial Ctr Pkwy, Little Rock, AR",11520 Financial Ctr Pkwy,Little Rock,AR,23,4850,9,Fuscia
"2070 John Harden Dr, Jacksonville, AR",2070 John Harden Dr,Jacksonville,AR,13,3873,6,Blue
"2617 Lakewood Village Dr., North Little Rock, AR",2617 Lakewood Village Dr.,North Little Rock,AR,43,3302,3,Crimson
"300 S University Ave, Little Rock, AR",300 S University Ave,Little Rock,AR,21,9210,8,Khaki
"855 Amity Rd, Conway, AR",855 Amity Rd,Conway,AR,8,4158,2,Green
"208 Hillcrest Rd, North Little Rock, AR",208 Hillcrest Rd,North Little Rock,AR,86,1695,5,Fuscia
"131 Greenfield Dr, Monticello, AR",131 Greenfield Dr,Monticello,AR,41,419,6,Pink
"2528 W 28th St, Pine Bluff, AR",2528 W 28th St,Pine Bluff,AR,41,1348,6,Puce
"1575 N Resler Dr, El Paso, TX",1575 N Resler Dr,El Paso,TX,74,475,2,Yellow
"12211 Montwood, El Paso, TX",12211 Montwood,El Paso,TX,84,6599,4,Violet
"1321 George Dieter Drive, El Paso, TX",1321 George Dieter Drive,El Paso,TX,9,1864,8,Crimson
"655 Sunland Park Drive, El Paso, TX",655 Sunland Park Drive,El Paso,TX,70,4302,5,Puce
"821 Southwestern Dr, El Paso, TX",821 Southwestern Dr,El Paso,TX,64,7991,7,Fuscia
"8889 Gateway W. Blvd Ste 2500, El Paso, TX",8889 Gateway W. Blvd Ste 2500,El Paso,TX,5,5251,8,Purple
"3115 Avenue J, Rosenberg, TX",3115 Avenue J,Rosenberg,TX,49,3957,7,Pink
"310 E. Illinois, Vinita, OK",310 E. Illinois,Vinita,OK,6,7407,9,Green
"3069 William St, Cape Girardeau, MO",3069 William St,Cape Girardeau,MO,87,5505,7,Yellow
"2901 Gholson Rd, Waco, TX",2901 Gholson Rd,Waco,TX,4,4596,8,Orange
"4133 Elm Park Drive, Saint Louis, MO",4133 Elm Park Drive,Saint Louis,MO,14,9015,5,Aquamarine
"3401 Lucius Mccelvey Dr, Temple, TX",3401 Lucius Mccelvey Dr,Temple,TX,14,1149,1,Yellow
"306 N Houston St, Wharton, TX",306 N Houston St,Wharton,TX,73,8196,8,Turquoise
"1955 Wentzville Pkwy, Wentzville, MO",1955 Wentzville Pkwy,Wentzville,MO,78,7254,9,Mauv
"17000 Cantrell Rd, Little Rock, AR",17000 Cantrell Rd,Little Rock,AR,3,8487,5,Puce
"4544 S Lamar Blvd, Austin, TX",4544 S Lamar Blvd,Austin,TX,3,8912,4,Khaki
"2808 N. Telshore Blvd., Las Cruces, NM",2808 N. Telshore Blvd.,Las Cruces,NM,25,4608,9,Turquoise
"3554 E Main St Ste A, Farmington, NM",3554 E Main St Ste A,Farmington,NM,23,5180,4,Goldenrod
"1819 N Turner St Ste A, Hobbs, NM",1819 N Turner St Ste A,Hobbs,NM,79,6635,1,Khaki
"2200 Louisiana Blvd. NE, Albuquerque, NM",2200 Louisiana Blvd. NE,Albuquerque,NM,95,2265,2,Purple
"10036 Coors Bypass N.w., Albuquerque, NM",10036 Coors Bypass N.w.,Albuquerque,NM,40,6448,6,Khaki
"4545 N Scottsdale Rd, Scottsdale, AZ",4545 N Scottsdale Rd,Scottsdale,AZ,66,4092,8,Goldenrod
"12221 N. Tatum Bloulevard, Phoenix, AZ",12221 N. Tatum Bloulevard,Phoenix,AZ,58,2365,1,Blue
"1330 N Dysart Road, Goodyear, AZ",1330 N Dysart Road,Goodyear,AZ,62,6570,1,Red
"5000 Arizona Mills Circle, Tempe, AZ",5000 Arizona Mills Circle,Tempe,AZ,45,3702,5,Violet
"2000 East Rio Salado Pkwy, Tempe, AZ",2000 East Rio Salado Pkwy,Tempe,AZ,98,1255,1,Yellow
"10460 N 28th Drive, Phoenix, AZ",10460 N 28th Drive,Phoenix,AZ,14,1199,8,Goldenrod
"7515 W Encanto Blvd, Phoenix, AZ",7515 W Encanto Blvd,Phoenix,AZ,63,3162,9,Yellow
"13757 West Bell Road, Surprise, AZ",13757 West Bell Road,Surprise,AZ,75,3481,4,Red
"2780 W Chandler Blvd, Chandler, AZ",2780 W Chandler Blvd,Chandler,AZ,57,9807,2,Purple
"2002 East Camelback Road, Phoenix, AZ",2002 East Camelback Road,Phoenix,AZ,48,7773,8,Orange
"1411 South Power Rd Ste 300, Mesa, AZ",1411 South Power Rd Ste 300,Mesa,AZ,51,8695,2,Maroon
"4722 E Ray Rd, Phoenix, AZ",4722 E Ray Rd,Phoenix,AZ,15,1428,6,Turquoise
"2020 E Rio Salado Pkwy Ste 103, Tempe, AZ",2020 E Rio Salado Pkwy Ste 103,Tempe,AZ,24,9373,8,Khaki
"17025 N Scottsdale Rd, Scottsdale, AZ",17025 N Scottsdale Rd,Scottsdale,AZ,15,3866,9,Purple
"2224 E. Williams Field Road, Gilbert, AZ",2224 E. Williams Field Road,Gilbert,AZ,35,6931,3,Indigo
"7530 W Bell Rd, Glendale, AZ",7530 W Bell Rd,Glendale,AZ,54,4522,7,Red
"6351 E Broadway Blvd Ste 101, Tucson, AZ",6351 E Broadway Blvd Ste 101,Tucson,AZ,37,6769,1,Fuscia
"1217 W Irvington Rd, Tucson, AZ",1217 W Irvington Rd,Tucson,AZ,18,2949,7,Blue
"18726 S Nogales Hwy, Green Valley, AZ",18726 S Nogales Hwy,Green Valley,AZ,22,3236,6,Crimson
"1202 E Florence Blvd, Casa Grande, AZ",1202 E Florence Blvd,Casa Grande,AZ,57,8369,6,Khaki
"3494 Zafarano Drive, Santa Fe, NM",3494 Zafarano Drive,Santa Fe,NM,24,6699,4,Green
"1819 N Turner St Ste A, Hobbs, NM",1819 N Turner St Ste A,Hobbs,NM,4,8114,1,Fuscia
"211 W Monroe St, Phoenix, AZ",211 W Monroe St,Phoenix,AZ,79,700,9,Pink
"3722a Hawkins St NE, Albuquerque, NM",3722a Hawkins St NE,Albuquerque,NM,1,8267,3,Puce
"5825 E Main St, Farmington, NM",5825 E Main St,Farmington,NM,52,9898,2,Yellow
"111 3rd St NW, Albuquerque, NM",111 3rd St NW,Albuquerque,NM,69,8566,4,Violet
"1355 W University Dr, Mesa, AZ",1355 W University Dr,Mesa,AZ,75,4667,9,Crimson
"126 E Alameda St, Tucson, AZ",126 E Alameda St,Tucson,AZ,45,337,7,Puce
"4701 1st Ave SE, Cedar Rapids, IA",4701 1st Ave SE,Cedar Rapids,IA,63,2850,2,Fuscia
"490 S 68th St., West Des Moines, IA",490 S 68th St.,West Des Moines,IA,38,9923,9,Purple
"4163 109th St, Urbandale, IA",4163 109th St,Urbandale,IA,57,8375,7,Pink
"3737 Merle Hay Road, Des Moines, IA",3737 Merle Hay Road,Des Moines,IA,79,8007,4,Green
"4157 109th St, Urbandale, IA",4157 109th St,Urbandale,IA,47,8693,9,Yellow
"4901 O Street, Suite 100, Lincoln, NE",4901 O Street,Lincoln,NE,65,3441,2,Orange
"7820 Dodge Street, Omaha, NE",7820 Dodge Street,Omaha,NE,73,47,5,Aquamarine
"3200 Singing Hill Blvd, Sioux City, IA",3200 Singing Hill Blvd,Sioux City,IA,72,4235,4,Yellow
"9614 S. 71st Plaza, Papillion, NE",9614 S. 71st Plaza,Papillion,NE,3,8075,5,Turquoise
"144 W Roberts Rd, Grand Island, NE",144 W Roberts Rd,Grand Island,NE,86,3517,6,Mauv
"3120 E. 53rd Street, Davenport, IA",3120 E. 53rd Street,Davenport,IA,18,1170,2,Puce
"3200 Singing Hill Blvd, Sioux City, IA",3200 Singing Hill Blvd,Sioux City,IA,76,6304,5,Khaki
"5348 Elmore Cir, Davenport, IA",5348 Elmore Cir,Davenport,IA,96,2057,1,Turquoise
"3120 E. 53rd Street, Davenport, IA",3120 E. 53rd Street,Davenport,IA,72,2222,1,Goldenrod
"7900 Xerxes Ave S, Bloomington, MN",7900 Xerxes Ave S,Bloomington,MN,31,8753,6,Khaki
"900 Lund Blvd, Anoka, MN",900 Lund Blvd,Anoka,MN,58,6174,6,Purple
"8911 Columbine Rd, Eden Prairie, MN",8911 Columbine Rd,Eden Prairie,MN,95,3469,4,Khaki
"1600 Miller Trunk Hwy, Duluth, MN",1600 Miller Trunk Hwy,Duluth,MN,14,2597,5,Goldenrod
"1447 44th St N, Fargo, ND",1447 44th St N,Fargo,ND,43,1307,1,Blue
"8582 Rock Ridge Dr, Mountain Iron, MN",8582 Rock Ridge Dr,Mountain Iron,MN,79,943,2,Red
"10100 City Walk Dr Ste 200, Woodbury, MN",10100 City Walk Dr Ste 200,Woodbury,MN,44,1227,7,Violet
"2132 Ford Parkway, Saint Paul, MN",2132 Ford Parkway,Saint Paul,MN,60,8267,7,Yellow
"11644 Elm Creek Blvd., Osseo, MN",11644 Elm Creek Blvd.,Osseo,MN,78,7761,2,Goldenrod
"541 S 7th St, Bismarck, ND",541 S 7th St,Bismarck,ND,7,4124,5,Yellow
"590 Prairie Center Dr., Eden Prairie, MN",590 Prairie Center Dr.,Eden Prairie,MN,81,9730,2,Red
"430 Crossroads Dr SW, Rochester, MN",430 Crossroads Dr SW,Rochester,MN,85,3749,7,Purple
"3070 White Bear Avenue, Maplewood, MN",3070 White Bear Avenue,Maplewood,MN,99,4384,2,Orange
"314 W 1st St, Duluth, MN",314 W 1st St,Duluth,MN,15,3706,9,Maroon
"12481 Riverdale Blvd NW, Coon Rapids, MN",12481 Riverdale Blvd NW,Coon Rapids,MN,68,8873,6,Turquoise
"14695 Edgewood Dr.suite 100, Baxter, MN",14695 Edgewood Dr.suite 100,Baxter,MN,61,1087,6,Khaki
"1945 Southdale Center, Edina, MN",1945 Southdale Center,Edina,MN,14,8406,4,Purple
"224 East Central Entrance, Duluth, MN",224 East Central Entrance,Duluth,MN,67,6007,1,Indigo
"760 N. Chestnut St., Chaska, MN",760 N. Chestnut St.,Chaska,MN,21,2525,3,Red
"1433 West Lake St., Minneapolis, MN",1433 West Lake St.,Minneapolis,MN,84,6070,1,Fuscia
"14270 Buck Hill Road, Burnsville, MN",14270 Buck Hill Road,Burnsville,MN,59,6844,7,Blue
"2515 24th Ave S, Minneapolis, MN",2515 24th Ave S,Minneapolis,MN,53,483,4,Crimson
"8105 Wedgewood Ln, Maple Grove, MN",8105 Wedgewood Ln,Maple Grove,MN,83,8497,2,Khaki
"1498 Hwy. 33 South, Cloquet, MN",1498 Hwy. 33 South,Cloquet,MN,20,6520,7,Green
"1920 S Pokegama Ave, Grand Rapids, MN",1920 S Pokegama Ave,Grand Rapids,MN,56,9574,8,Fuscia
"1023 East Blue Earth Ave, Fairmont, MN",1023 East Blue Earth Ave,Fairmont,MN,88,5590,2,Pink
"1800 Plymouth Rd, Minnetonka, MN",1800 Plymouth Rd,Minnetonka,MN,1,9044,4,Puce
"4101 W Division St Space E0008, St. Cloud, MN",4101 W Division St Space E0008,St. Cloud,MN,90,9731,2,Yellow
"1854 Madison Ave, Mankato, MN",1854 Madison Ave,Mankato,MN,83,6586,4,Violet
"118 S 19th St, Omaha, NE",118 S 19th St,Omaha,NE,85,6696,7,Crimson
"2505 S 72nd St, Omaha, NE",2505 S 72nd St,Omaha,NE,55,5548,9,Puce
"1052 29th St, SE, Watertown, SD",1052 29th St,Watertown,SD,98,7501,2,Fuscia
"1325 Elgin St., Ste 200, Rapid City, SD",1325 Elgin St.,Rapid City,SD,16,9435,1,Purple
"1224 W 41st St, Sioux Falls, SD",1224 W 41st St,Sioux Falls,SD,1,9385,6,Pink
"3709 W 41st St Ste 1, Sioux Falls, SD",3709 W 41st St Ste 1,Sioux Falls,SD,33,8398,7,Green
"2800 W 10th St, Sioux Falls, SD",2800 W 10th St,Sioux Falls,SD,21,9495,9,Yellow
"2103 2nd Ave W, Williston, ND",2103 2nd Ave W,Williston,ND,70,2990,2,Orange
"2449 W Chicago St, Rapid City, SD",2449 W Chicago St,Rapid City,SD,16,3444,1,Aquamarine
"4417 13th Ave S, Fargo, ND",4417 13th Ave S,Fargo,ND,73,208,8,Yellow
"3447 S. Broadway, Minot, ND",3447 S. Broadway,Minot,ND,49,5808,6,Turquoise
"541 S 7th St, Bismarck, ND",541 S 7th St,Bismarck,ND,86,3615,2,Mauv
"3750 32nd Ave S Ste 105, Grand Forks, ND",3750 32nd Ave S Ste 105,Grand Forks,ND,5,5928,8,Puce
"935 E Colorado Blvd, Spearfish, SD",935 E Colorado Blvd,Spearfish,SD,54,1069,1,Khaki
"1103 E Boxelder Rd Ste I, Gillette, WY",1103 E Boxelder Rd Ste I,Gillette,WY,63,5823,1,Turquoise
"105 Buffalo Way, Jackson Hole, WY",105 Buffalo Way,Jackson Hole,WY,45,9410,9,Goldenrod
"6750 Wildcat Rd, Evansville, WY",6750 Wildcat Rd,Evansville,WY,58,7299,6,Khaki
"4070 Plaza Dr, Casper, WY",4070 Plaza Dr,Casper,WY,7,9856,2,Purple
"5800 N Meeker Ave, Boise, ID",5800 N Meeker Ave,Boise,ID,77,5399,7,Khaki
"2386 N Eagle Road, Meridian, ID",2386 N Eagle Road,Meridian,ID,71,3451,1,Goldenrod
"16597 North Marketplace Blvd, Nampa, ID",16597 North Marketplace Blvd,Nampa,ID,100,9184,8,Blue
"501 N Milwaukee St, Boise, ID",501 N Milwaukee St,Boise,ID,54,1854,7,Red
"2890 S 25th E, Idaho Falls, ID",2890 S 25th E,Idaho Falls,ID,34,7168,1,Violet
"799 Cheney Drive, Twin Falls, ID",799 Cheney Drive,Twin Falls,ID,74,2727,7,Yellow
"948 N Harrison, Pocatello, ID",948 N Harrison,Pocatello,ID,84,1893,6,Goldenrod
"100 S Main St, Pueblo, CO",100 S Main St,Pueblo,CO,44,6785,6,Yellow
"3758 W 7800 S, West Jordan, UT",3758 W 7800 S,West Jordan,UT,11,2015,4,Red
"936 N Main St, Layton, UT",936 N Main St,Layton,UT,36,2860,3,Purple
"4025 Riverdale Road, Ogden, UT",4025 Riverdale Road,Ogden,UT,38,1128,3,Orange
"2572 Washington Blvd, Ogden, UT",2572 Washington Blvd,Ogden,UT,50,8805,1,Maroon
"6227 S. State Street #4, Murray, UT",6227 S. State Street #4,Murray,UT,10,5044,6,Turquoise
"192 N 200 E, Roosevelt, UT",192 N 200 E,Roosevelt,UT,9,6693,5,Khaki
"11316 State Street, Sandy, UT",11316 State Street,Sandy,UT,74,732,9,Purple
"545 E University Pkwy Ste 100, Orem, UT",545 E University Pkwy Ste 100,Orem,UT,58,3311,7,Indigo
"1152 W Hwy 40 Ste 5, Vernal, UT",1152 W Hwy 40 Ste 5,Vernal,UT,74,6088,8,Red
"11426 South District Drive, South Jordan, UT",11426 South District Drive,South Jordan,UT,86,5976,3,Fuscia
"3069 S. Colt Plaza Dr., West Valley City, UT",3069 S. Colt Plaza Dr.,West Valley City,UT,78,9528,3,Blue
"1865 W Pleasant Grove Blvd D, Pleasant Grove, UT",1865 W Pleasant Grove Blvd D,Pleasant Grove,UT,10,7800,1,Crimson
"1010 North Main, Logan, UT",1010 North Main,Logan,UT,78,9522,7,Khaki
"1299 East Main St. Ste 110, Lehi, UT",1299 East Main St. Ste 110,Lehi,UT,72,4261,9,Green
"576 E 400 S, Salt Lake City, UT",576 E 400 S,Salt Lake City,UT,62,6346,1,Fuscia
"3333 W Hwy 56, Cedar City, UT",3333 W Hwy 56,Cedar City,UT,55,1729,4,Pink
"1140 Brickyard Rd Suite 180, Salt Lake City, UT",1140 Brickyard Rd Suite 180,Salt Lake City,UT,86,3976,5,Puce
"3100 E Kennedy Dr, Salt Lake City, UT",3100 E Kennedy Dr,Salt Lake City,UT,20,908,6,Yellow
"1610 Cheyenne Mt Blvd, Ste 160, Colorado Springs, CO",1610 Cheyenne Mt Blvd,Colorado Springs,CO,96,5821,5,Violet
"7158 N. Academy Blvd, Colorado Springs, CO",7158 N. Academy Blvd,Colorado Springs,CO,65,6435,6,Crimson
"3532 New Center Point, Colorado Springs, CO",3532 New Center Point,Colorado Springs,CO,55,153,5,Puce
"810 Hwy 50 West, Pueblo, CO",810 Hwy 50 West,Pueblo,CO,68,2697,3,Fuscia
"951 E 120th Ave., Thornton, CO",951 E 120th Ave.,Thornton,CO,66,9886,6,Purple
"180 Kenn Pratt Blvd #130, Longmont, CO",180 Kenn Pratt Blvd #130,Longmont,CO,68,9743,3,Pink
"1 W. Flatiron Crossing Dr, Broomfield, CO",1 W. Flatiron Crossing Dr,Broomfield,CO,33,3070,4,Green
"1675 29th Street, Boulder, CO",1675 29th Street,Boulder,CO,88,7482,7,Yellow
"4515 Jfk Parkway, Fort Collins, CO",4515 Jfk Parkway,Fort Collins,CO,9,214,3,Orange
"810 Hwy 50 West, Pueblo, CO",810 Hwy 50 West,Pueblo,CO,68,9142,3,Aquamarine
"161 Inverness Dr W, Englewood, CO",161 Inverness Dr W,Englewood,CO,23,8357,1,Yellow
"1425 Champa St, Denver, CO",1425 Champa St,Denver,CO,67,9253,9,Turquoise
"589 South Hover St., Longmont, CO",589 South Hover St.,Longmont,CO,41,5262,2,Mauv
"14532 Orchard Pkwy, Westminster, CO",14532 Orchard Pkwy,Westminster,CO,71,9049,6,Puce
"4524 Centerplace Dr., Greeley, CO",4524 Centerplace Dr.,Greeley,CO,18,2898,6,Khaki
"178 Bodo Dr, Durango, CO",178 Bodo Dr,Durango,CO,27,589,4,Turquoise
"1104 Cpl Max Donahue Ln, Highlands Ranch, CO",1104 Cpl Max Donahue Ln,Highlands Ranch,CO,84,684,5,Goldenrod
"58 N Steele Street, Denver, CO",58 N Steele Street,Denver,CO,43,8154,7,Khaki
"7365 W. Alaska Dr, Lakewood, CO",7365 W. Alaska Dr,Lakewood,CO,20,8635,4,Purple
"14401 E Bayaud Ave, Aurora, CO",14401 E Bayaud Ave,Aurora,CO,63,663,5,Khaki
"1001 16th St, Denver, CO",1001 16th St,Denver,CO,73,7450,6,Goldenrod
"8246 W Bowles Ave, Littleton, CO",8246 W Bowles Ave,Littleton,CO,39,9196,6,Blue
"2454 Highway 6 & 50, Grand Junction, CO",2454 Highway 6 & 50,Grand Junction,CO,24,6002,4,Red
"7507 E. 36th Ave, Denver, CO",7507 E. 36th Ave,Denver,CO,79,9590,9,Violet
"5131 Kipling Street, Wheat Ridge, CO",5131 Kipling Street,Wheat Ridge,CO,64,4063,5,Yellow
"8425 Park Meadows Center Dr., Lone Tree, CO",8425 Park Meadows Center Dr.,Lone Tree,CO,19,5762,1,Goldenrod
"14195 W. Colfax Avenue, Lakewood, CO",14195 W. Colfax Avenue,Lakewood,CO,72,2151,3,Yellow
"4417 S. Meridian Street, Ste A, Puyallup, WA",4417 S. Meridian Street,Puyallup,WA,45,9252,7,Red
"3000 184th St. SW Ste 857, Lynnwood, WA",3000 184th St. SW Ste 857,Lynnwood,WA,83,7648,8,Purple
"16425 Southcenter Parkway, Tukwila, WA",16425 Southcenter Parkway,Tukwila,WA,77,721,8,Orange
"12502 Totem Lake Blvd #100, Kirkland, WA",12502 Totem Lake Blvd #100,Kirkland,WA,16,2124,5,Maroon
"600 E.northern Lights Blvd#119, Anchorage, AK",600 E.northern Lights Blvd#119,Anchorage,AK,23,7800,5,Turquoise
"401 NE Northgate Way, Seattle, WA",401 NE Northgate Way,Seattle,WA,85,5297,3,Khaki
"625 Blacklake Blvd SW Ste 205, Olympia, WA",625 Blacklake Blvd SW Ste 205,Olympia,WA,76,2660,3,Purple
"800 E Dimond Blvd Ste 147, Anchorage, AK",800 E Dimond Blvd Ste 147,Anchorage,AK,22,6915,4,Indigo
"180 Bellevue Square, Bellevue, WA",180 Bellevue Square,Bellevue,WA,96,7532,9,Red
"344 Southcenter Mall Fl 1, Tukwila, WA",344 Southcenter Mall Fl 1,Tukwila,WA,4,7201,6,Fuscia
"8071 Guide Meridian Road, Lynden, WA",8071 Guide Meridian Road,Lynden,WA,50,8070,4,Blue
"20309 N Creek Pkwy, Bothell, WA",20309 N Creek Pkwy,Bothell,WA,2,5171,3,Crimson
"2420 South 320 St, Federal Way, WA",2420 South 320 St,Federal Way,WA,20,908,6,Khaki
"10315 Silverdale Way NW, Silverdale, WA",10315 Silverdale Way NW,Silverdale,WA,96,5821,5,Green
"27112 167th Place SE, Covington, WA",27112 167th Place SE,Covington,WA,65,6435,6,Fuscia
"2220 Abbott Rd Ste A, Anchorage, AK",2220 Abbott Rd Ste A,Anchorage,AK,55,153,5,Pink
"600 Pine St, Seattle, WA",600 Pine St,Seattle,WA,68,2697,3,Puce
"4291 Meridian Street Ste E-105, Bellingham, WA",4291 Meridian Street Ste E-105,Bellingham,WA,66,9886,6,Yellow
"7525 166th Ave NE Ste D120, Redmond, WA",7525 166th Ave NE Ste D120,Redmond,WA,68,9743,3,Violet
"1304 N Miller St Ste B, Wenatchee, WA",1304 N Miller St Ste B,Wenatchee,WA,33,3070,4,Crimson
"320 W 5th Avenue, Anchorage, AK",320 W 5th Avenue,Anchorage,AK,88,7482,7,Puce
"4711 Business Park Blvd, Anchorage, AK",4711 Business Park Blvd,Anchorage,AK,9,214,3,Fuscia
"1820 South Burlington Blvd., Burlington, WA",1820 South Burlington Blvd.,Burlington,WA,68,9142,3,Purple
"1118 N. Muldoon Rd. Suite 170, Anchorage, AK",1118 N. Muldoon Rd. Suite 170,Anchorage,AK,23,8357,1,Pink
"1402 SE Everett Mall, Everett, WA",1402 SE Everett Mall,Everett,WA,67,9253,9,Green
"6150 E Lake Sammamish Pkwy, Issaquah, WA",6150 E Lake Sammamish Pkwy,Issaquah,WA,41,5262,2,Yellow
"1501 4th Ave. Suite 116, Seattle, WA",1501 4th Ave. Suite 116,Seattle,WA,71,9049,6,Orange
"4626 25th Ave NE, Seattle, WA",4626 25th Ave NE,Seattle,WA,18,2898,6,Aquamarine
"1865 E Parks Hwy, Wasilla, AK",1865 E Parks Hwy,Wasilla,AK,27,589,4,Yellow
"9400 Glacier Hwy, Juneau, AK",9400 Glacier Hwy,Juneau,AK,84,684,5,Turquoise
"4502 South Steele St, Tacoma, WA",4502 South Steele St,Tacoma,WA,43,8154,7,Mauv
"1620 Industry Dr SW, Auburn, WA",1620 Industry Dr SW,Auburn,WA,20,8635,4,Puce
"269 W Prairie Shopping Cntr, F, Hayden, ID",269 W Prairie Shopping Cntr,Hayden,ID,63,663,5,Khaki
"15319 Indiana Ave, Spokane, WA",15319 Indiana Ave,Spokane,WA,73,7450,6,Turquoise
"1459 N 19th Ave Bldg C Ste A, Bozeman, MT",1459 N 19th Ave Bldg C Ste A,Bozeman,MT,39,9196,6,Goldenrod
"1354 Hutton Ranch Rd Ste 101, Kalispell, MT",1354 Hutton Ranch Rd Ste 101,Kalispell,MT,24,6002,4,Khaki
"1103 Columbia Center Blvd, Kennewick, WA",1103 Columbia Center Blvd,Kennewick,WA,79,9590,9,Purple
"601 S Pioneer, Moses Lake, WA",601 S Pioneer,Moses Lake,WA,64,4063,5,Khaki
"2401 S. 1st Street, Yakima, WA",2401 S. 1st Street,Yakima,WA,19,5762,1,Goldenrod
"4750 North Division, Spokane, WA",4750 North Division,Spokane,WA,72,2151,3,Blue
"135 Hutton Ranch Plaza Ste 101, Kalispell, MT",135 Hutton Ranch Plaza Ste 101,Kalispell,MT,45,9252,7,Red
"6117 N Division St, Spokane, WA",6117 N Division St,Spokane,WA,83,7648,8,Violet
"2000 Coburn Rd, Billings, MT",2000 Coburn Rd,Billings,MT,77,721,8,Yellow
"2564 King Ave W Ste H, Billings, MT",2564 King Ave W Ste H,Billings,MT,16,2124,5,Goldenrod
"3011 2nd Ave N, Billings, MT",3011 2nd Ave N,Billings,MT,23,7800,5,Yellow
"1125 Knutson Ave, Medford, OR",1125 Knutson Ave,Medford,OR,85,5297,3,Red
"7357 SW Bridgeport Dr., Tigard, OR",7357 SW Bridgeport Dr.,Tigard,OR,76,2660,3,Purple
"9728 SE Washington St, Portland, OR",9728 SE Washington St,Portland,OR,22,6915,4,Orange
"1015 Ocean Beach Hwy, Longview, WA",1015 Ocean Beach Hwy,Longview,WA,96,7532,9,Maroon
"4385 Commerce St, Eugene, OR",4385 Commerce St,Eugene,OR,4,7201,6,Turquoise
"16320 SE Mill Plain Blvd, Vancouver, WA",16320 SE Mill Plain Blvd,Vancouver,WA,50,8070,4,Khaki
"250 NE Garden Valley Blvd, Roseburg, OR",250 NE Garden Valley Blvd,Roseburg,OR,2,5171,3,Purple
"533 NW Division St, Gresham, OR",533 NW Division St,Gresham,OR,46,938,5,Indigo
"19801 SW 72nd Ave, Tualatin, OR",19801 SW 72nd Ave,Tualatin,OR,30,4108,1,Red
"159 S. Hwy 101, Warrenton, OR",159 S. Hwy 101,Warrenton,OR,52,3420,4,Fuscia
"734 SW Third Ave, Portland, OR",734 SW Third Ave,Portland,OR,79,6139,2,Blue
"2711 NW Town Center Dr, Beaverton, OR",2711 NW Town Center Dr,Beaverton,OR,77,8042,2,Crimson
"819 SW Oak St, Portland, OR",819 SW Oak St,Portland,OR,86,8060,7,Khaki
"12000 SE 82nd Ave Suite 1152, Happy Valley, OR",12000 SE 82nd Ave Suite 1152,Happy Valley,OR,100,1531,6,Green
"9534 SW Washington Sq Rd H12a, Tigard, OR",9534 SW Washington Sq Rd H12a,Tigard,OR,75,974,2,Fuscia
"200 Hawthorne Ave SE, Salem, OR",200 Hawthorne Ave SE,Salem,OR,76,5052,1,Pink
"1730 Delta Waters Rd, Medford, OR",1730 Delta Waters Rd,Medford,OR,77,8254,2,Puce
"4385 Commerce St, Eugene, OR",4385 Commerce St,Eugene,OR,81,7785,5,Yellow
"1125 - B Valley River Rd, Eugene, OR",1125 - B Valley River Rd,Eugene,OR,79,1335,2,Violet
"63455 N Highway 97 Ste 90, Bend, OR",63455 N Highway 97 Ste 90,Bend,OR,76,7040,2,Crimson
"5225 Zuni St, Denver, CO",5225 Zuni St,Denver,CO,85,7371,5,Puce
"6117 N Division St, Spokane, WA",6117 N Division St,Spokane,WA,16,1919,6,Fuscia
"1125 - B Valley River Rd, Eugene, OR",1125 - B Valley River Rd,Eugene,OR,78,2497,8,Purple
"821 Bellevue Way NE, Bellevue, WA",821 Bellevue Way NE,Bellevue,WA,74,1645,9,Pink
"10510 Hwy 10, Dickinson, ND",10510 Hwy 10,Dickinson,ND,23,7561,2,Green
"2399 Blake St, Denver, CO",2399 Blake St,Denver,CO,52,6827,2,Yellow
"2305 S Presidents Dr, Salt Lake City, UT",2305 S Presidents Dr,Salt Lake City,UT,83,1774,6,Orange
"207 N Brand Blvd, Glendale, CA",207 N Brand Blvd,Glendale,CA,2,4562,2,Aquamarine
"8471 Beverly Blvd, Los Angeles, CA",8471 Beverly Blvd,Los Angeles,CA,36,103,9,Yellow
"3764 Wilshire Blvd, Los Angeles, CA",3764 Wilshire Blvd,Los Angeles,CA,88,4400,8,Turquoise
"6000 Lankershim Blvd., North Hollywood, CA",6000 Lankershim Blvd.,North Hollywood,CA,21,140,6,Mauv
"808 Wilshire Blvd, Santa Monica, CA",808 Wilshire Blvd,Santa Monica,CA,98,378,3,Puce
"3851 Overland Ave, Culver City, CA",3851 Overland Ave,Culver City,CA,87,682,3,Khaki
"24236 Valencia Blvd, Valencia, CA",24236 Valencia Blvd,Valencia,CA,10,4944,1,Turquoise
"9050 Tampa Ave, Northridge, CA",9050 Tampa Ave,Northridge,CA,35,3458,6,Goldenrod
"2333 S. Sepulveda Blvd, Los Angeles, CA",2333 S. Sepulveda Blvd,Los Angeles,CA,49,3396,7,Khaki
"1112 La Brea Ave, West Hollywood, CA",1112 La Brea Ave,West Hollywood,CA,79,4851,6,Purple
"14557 Ventura Blvd, Sherman Oaks, CA",14557 Ventura Blvd,Sherman Oaks,CA,26,94,7,Khaki
"1201 W Ave P, Palmdale, CA",1201 W Ave P,Palmdale,CA,48,4041,8,Goldenrod
"26453 Bouquet Canyon Suite A, Santa Clarita, CA",26453 Bouquet Canyon Suite A,Santa Clarita,CA,54,7118,9,Blue
"350 N. San Fernado Road, Burbank, CA",350 N. San Fernado Road,Burbank,CA,44,6484,7,Red
"14500 Roscoe Blvd, Panorama City, CA",14500 Roscoe Blvd,Panorama City,CA,79,5567,6,Violet
"6203 Topanga Canyon Blvd., Woodland Hills, CA",6203 Topanga Canyon Blvd.,Woodland Hills,CA,17,7973,2,Yellow
"2002 W Avenue J, Lancaster, CA",2002 W Avenue J,Lancaster,CA,78,1166,5,Goldenrod
"420 S Grand Ave, Los Angeles, CA",420 S Grand Ave,Los Angeles,CA,4,615,9,Yellow
"1600 Mchenry, Modesto, CA",1600 Mchenry,Modesto,CA,34,7439,3,Red
"1340 W. Olive Ave, Merced, CA",1340 W. Olive Ave,Merced,CA,71,5853,1,Purple
"3900 Sisk Rd, Modesto, CA",3900 Sisk Rd,Modesto,CA,30,4237,4,Orange
"1410 E Hatch Rd., Modesto, CA",1410 E Hatch Rd.,Modesto,CA,100,8374,1,Maroon
"1291 Commerce Ave, Atwater, CA",1291 Commerce Ave,Atwater,CA,85,858,5,Turquoise
"494 Del Monte Ctr Bldg4 Spc42b, Monterey, CA",494 Del Monte Ctr Bldg4 Spc42b,Monterey,CA,88,286,6,Khaki
"1860 Wardrobe Ave, Merced, CA",1860 Wardrobe Ave,Merced,CA,90,4812,6,Purple
"2858 West Monte Vista Ave, Turlock, CA",2858 West Monte Vista Ave,Turlock,CA,80,4644,7,Indigo
"980 N Western Ave., Ste H, San Pedro, CA",980 N Western Ave.,San Pedro,CA,65,1000,7,Red
"42425 Jackson Street, Ste F, Indio, CA",42425 Jackson Street,Indio,CA,100,6173,4,Fuscia
"78982 Hwy 111, Suite 1a, La Quinta, CA",78982 Hwy 111,La Quinta,CA,82,3303,6,Blue
"12911 E 183rd St, Cerritos, CA",12911 E 183rd St,Cerritos,CA,64,9094,4,Crimson
"12625 Frederick St. Suite V, Moreno Valley, CA",12625 Frederick St. Suite V,Moreno Valley,CA,79,5463,9,Khaki
"12900 Park Plaza Dr, Cerritos, CA",12900 Park Plaza Dr,Cerritos,CA,72,815,6,Green
"2000 Harbison Drive, Vacaville, CA",2000 Harbison Drive,Vacaville,CA,50,1122,9,Fuscia
"679 E Sepulveda Blvd, Carson, CA",679 E Sepulveda Blvd,Carson,CA,63,1080,6,Pink
"2170 Bellflower Blvd, Long Beach, CA",2170 Bellflower Blvd,Long Beach,CA,8,6831,2,Puce
"6833 Pacific Blvd., Huntington Park, CA",6833 Pacific Blvd.,Huntington Park,CA,57,1295,3,Yellow
"11440 South Street, Cerritos, CA",11440 South Street,Cerritos,CA,21,9909,2,Violet
"2390 Monument Blvd, Pleasant Hill, CA",2390 Monument Blvd,Pleasant Hill,CA,70,5682,9,Crimson
"24520 Crenshaw Blvd, Torrance, CA",24520 Crenshaw Blvd,Torrance,CA,18,4659,7,Puce
"1521 Olympic Boulevard, Walnut Creek, CA",1521 Olympic Boulevard,Walnut Creek,CA,73,9573,7,Fuscia
"4917 East 2nd St, Long Beach, CA",4917 East 2nd St,Long Beach,CA,81,9632,7,Purple
"3502 Tyler Street Suite 103, Riverside, CA",3502 Tyler Street Suite 103,Riverside,CA,50,9793,7,Pink
"17500 Bloomfield Ave, Cerritos, CA",17500 Bloomfield Ave,Cerritos,CA,38,4237,2,Green
"1071 Santa Rosa Plza Ste 2001a, Santa Rosa, CA",1071 Santa Rosa Plza Ste 2001a,Santa Rosa,CA,39,4581,4,Yellow
"2299 Pike Ct, Concord, CA",2299 Pike Ct,Concord,CA,20,2024,3,Orange
"1130 C Sepulveda Blvd, Manhattan Beach, CA",1130 C Sepulveda Blvd,Manhattan Beach,CA,69,4669,1,Aquamarine
"5252 Lakewood Blvd, Lakewood, CA",5252 Lakewood Blvd,Lakewood,CA,66,9164,3,Yellow
"3935 Grand Ave, Chino Hills, CA",3935 Grand Ave,Chino Hills,CA,9,1918,3,Turquoise
"1633 S. Alameda, Compton, CA",1633 S. Alameda,Compton,CA,74,5161,2,Mauv
"16279 Paramount Drive, Paramount, CA",16279 Paramount Drive,Paramount,CA,43,3426,3,Puce
"7875 Monticello Ave Space 1012, Rancho Cucamonga, CA",7875 Monticello Ave Space 1012,Rancho Cucamonga,CA,62,6141,4,Khaki
"2200 South Grove Ave., Ontario, CA",2200 South Grove Ave.,Ontario,CA,97,7905,7,Turquoise
"2350 W Florida Ave, Hemet, CA",2350 W Florida Ave,Hemet,CA,64,8177,2,Goldenrod
"1060 E Harriman Place Ste C-6, San Bernandino, CA",1060 E Harriman Place Ste C-6,San Bernandino,CA,22,7124,8,Khaki
"1350 Travis Blvd, Fairfield, CA",1350 Travis Blvd,Fairfield,CA,84,5126,5,Purple
"4135 Garner Rd, Riverside, CA",4135 Garner Rd,Riverside,CA,52,5612,7,Khaki
"2690 Tuscany St., Corona, CA",2690 Tuscany St.,Corona,CA,47,254,6,Goldenrod
"3950 S Main St, Corona, CA",3950 S Main St,Corona,CA,85,5609,1,Blue
"16232 Foothill Blvd., Fontana, CA",16232 Foothill Blvd.,Fontana,CA,97,1291,8,Red
"18201 Hawthorne Blvd, Torrance, CA",18201 Hawthorne Blvd,Torrance,CA,46,4185,9,Violet
"134 Sunset Drive, San Ramon, CA",134 Sunset Drive,San Ramon,CA,53,2762,2,Yellow
"20810 Avalon Blvd., Carson, CA",20810 Avalon Blvd.,Carson,CA,49,281,3,Goldenrod
"72-286 Hwy 111, Palm Desert, CA",72-286 Hwy 111,Palm Desert,CA,51,9890,5,Yellow
"2015 Diamond Blvd Suite 125, Concord, CA",2015 Diamond Blvd Suite 125,Concord,CA,56,2463,8,Red
"2465 E Palm Canyon Dr Ste 1210, Palm Springs, CA",2465 E Palm Canyon Dr Ste 1210,Palm Springs,CA,24,4279,9,Purple
"25145 Madison Ave., Murrieta, CA",25145 Madison Ave.,Murrieta,CA,37,4058,9,Orange
"2125 Occidental Rd, Santa Rosa, CA",2125 Occidental Rd,Santa Rosa,CA,65,5121,8,Maroon
"320 S Mountain Ave, Upland, CA",320 S Mountain Ave,Upland,CA,71,3040,5,Turquoise
"26580 Ynez Road, Temecula, CA",26580 Ynez Road,Temecula,CA,8,4659,4,Khaki
"1971 West Redlands Blvd, Redlands, CA",1971 West Redlands Blvd,Redlands,CA,23,944,4,Purple
"2166 Santa Rosa Ave, Santa Rosa, CA",2166 Santa Rosa Ave,Santa Rosa,CA,4,5409,2,Indigo
"12600 Armargosa Rd, Victorville, CA",12600 Armargosa Rd,Victorville,CA,11,3383,7,Red
"1375 Camino Real, San Bernardino, CA",1375 Camino Real,San Bernardino,CA,81,6169,8,Fuscia
"8420 Firestone Blvd., Downey, CA",8420 Firestone Blvd.,Downey,CA,7,2909,4,Blue
"305 Corte Madera Town Center, Corte Madera, CA",305 Corte Madera Town Center,Corte Madera,CA,73,4109,9,Crimson
"976d Admiral Callaghan Lane, Vallejo, CA",976d Admiral Callaghan Lane,Vallejo,CA,17,2755,3,Khaki
"2465 Sand Creek Rd, Brentwood, CA",2465 Sand Creek Rd,Brentwood,CA,5,9324,5,Green
"4250 Macdonald Ave Suite F, Richmond, CA",4250 Macdonald Ave Suite F,Richmond,CA,75,8104,2,Fuscia
"1731 West Lacey Blvd, Ste 101, Hanford, CA",1731 West Lacey Blvd,Hanford,CA,31,6250,7,Pink
"862 W Henderson Blvd, Porterville, CA",862 W Henderson Blvd,Porterville,CA,68,1573,9,Puce
"2295 Marketplace Drive, Madera, CA",2295 Marketplace Drive,Madera,CA,32,6289,1,Yellow
"6685 N Blackstone Ave, Fresno, CA",6685 N Blackstone Ave,Fresno,CA,48,3996,3,Violet
"6733 N. Riverside Dr Suite 101, Fresno, CA",6733 N. Riverside Dr Suite 101,Fresno,CA,65,7086,7,Crimson
"5555 E Olive Ave, Fresno, CA",5555 E Olive Ave,Fresno,CA,52,5855,3,Puce
"5180 N. Blackstone Ave., Fresno, CA",5180 N. Blackstone Ave.,Fresno,CA,73,1332,9,Fuscia
"2250 S Mooney Blvd, Visalia, CA",2250 S Mooney Blvd,Visalia,CA,73,1423,9,Purple
"1180 Shaw Ave Ste 101, Clovis, CA",1180 Shaw Ave Ste 101,Clovis,CA,55,4383,9,Pink
"2075 E Prosperity Ave., Tulare, CA",2075 E Prosperity Ave.,Tulare,CA,41,3279,8,Green
"3263 E Tulare Ave, Fresno, CA",3263 E Tulare Ave,Fresno,CA,61,9142,1,Yellow
"1445 Van Ness Ave, Fresno, CA",1445 Van Ness Ave,Fresno,CA,53,4442,1,Orange
"1 Powell, San Francisco, CA",1 Powell,San Francisco,CA,2,6226,1,Aquamarine
"2135 Union St., San Francisco, CA",2135 Union St.,San Francisco,CA,16,7954,7,Yellow
"555 Pine St, San Francisco, CA",555 Pine St,San Francisco,CA,28,4490,8,Turquoise
"3555 Geary Blvd, San Francisco, CA",3555 Geary Blvd,San Francisco,CA,24,9986,6,Mauv
"305 Gellert Blvd, Daly City, CA",305 Gellert Blvd,Daly City,CA,71,724,1,Puce
"951 Howard St, San Francisco, CA",951 Howard St,San Francisco,CA,52,3210,4,Khaki
"3251 20th Ave, San Francisco, CA",3251 20th Ave,San Francisco,CA,87,1008,4,Turquoise
"425 Market Street, San Francisco, CA",425 Market Street,San Francisco,CA,60,7384,9,Goldenrod
"39121 Fremont Blvd, Fremont, CA",39121 Fremont Blvd,Fremont,CA,16,8148,2,Khaki
"1452 Stoneridge Mall Rd, Pleasanton, CA",1452 Stoneridge Mall Rd,Pleasanton,CA,98,6754,3,Purple
"30870 Dyer Street, Union City, CA",30870 Dyer Street,Union City,CA,39,9681,6,Khaki
"5779 Las Positas Rd, Livermore, CA",5779 Las Positas Rd,Livermore,CA,69,8205,9,Goldenrod
"1274 East Plumb Lane, Suite A, Reno, NV",1274 East Plumb Lane,Reno,NV,57,3256,3,Blue
"9310 S. Eastern Ave, Las Vegas, NV",9310 S. Eastern Ave,Las Vegas,NV,16,5843,1,Red
"4750 W. Sahara Ave, Las Vegas, NV",4750 W. Sahara Ave,Las Vegas,NV,53,587,6,Violet
"279 Los Altos Pkwy, Sparks, NV",279 Los Altos Pkwy,Sparks,NV,100,9797,6,Yellow
"6436 N. Decator Blvd, Las Vegas, NV",6436 N. Decator Blvd,Las Vegas,NV,75,892,1,Goldenrod
"7531 W Lake Mead Blvd, Las Vegas, NV",7531 W Lake Mead Blvd,Las Vegas,NV,79,6339,8,Yellow
"5705 Centennial Center Blv 110, Las Vegas, NV",5705 Centennial Center Blv 110,Las Vegas,NV,11,6707,9,Red
"325 N. Nellis Blvd. Ste 130, Las Vegas, NV",325 N. Nellis Blvd. Ste 130,Las Vegas,NV,14,5746,1,Purple
"920 S Rampart Blvd, Las Vegas, NV",920 S Rampart Blvd,Las Vegas,NV,60,1029,6,Orange
"2572 Idaho St Ste A-3, Elko, NV",2572 Idaho St Ste A-3,Elko,NV,100,9591,4,Maroon
"1565 E Lincoln Way, Sparks, NV",1565 E Lincoln Way,Sparks,NV,93,9988,8,Turquoise
"75 Damonte Ranch Pkwy, Reno, NV",75 Damonte Ranch Pkwy,Reno,NV,72,9372,6,Khaki
"7425 S. Durango Dr, Las Vegas, NV",7425 S. Durango Dr,Las Vegas,NV,43,573,8,Purple
"609 N Stephanie St., Henderson, NV",609 N Stephanie St.,Henderson,NV,18,1389,1,Indigo
"4380 Blue Diamond Rd, Las Vegas, NV",4380 Blue Diamond Rd,Las Vegas,NV,54,2494,3,Red
"2015 W Craig Rd, North Las Vegas, NV",2015 W Craig Rd,North Las Vegas,NV,15,8114,2,Fuscia
"3750 Morrow Ln, Chico, CA",3750 Morrow Ln,Chico,CA,80,6315,8,Blue
"421 F St, Marysville, CA",421 F St,Marysville,CA,42,2888,7,Crimson
"1947 E 20th St, Chico, CA",1947 E 20th St,Chico,CA,23,5638,9,Khaki
"4434 Mountain Lakes Blvd, Redding, CA",4434 Mountain Lakes Blvd,Redding,CA,84,9920,7,Green
"377 Keahole Strett, Ste. D7, Honolulu, HI",377 Keahole Strett,Honolulu,HI,4,3621,5,Fuscia
"275 W Kaahumanu Ave, Kahului, HI",275 W Kaahumanu Ave,Kahului,HI,11,5302,5,Pink
"1067 Kapiolani Blvd., Honolulu, HI",1067 Kapiolani Blvd.,Honolulu,HI,61,6841,4,Puce
"3333 Lakeshore Blvd, Oakland, CA",3333 Lakeshore Blvd,Oakland,CA,92,4553,6,Yellow
"4010 El Cerrito Plz, El Cerrito, CA",4010 El Cerrito Plz,El Cerrito,CA,86,6873,9,Violet
"1160 Kuala Street, Pearl City, HI",1160 Kuala Street,Pearl City,HI,67,3289,5,Crimson
"74-5457 Makala Blvd Ste 100, Kailua-kona, HI",74-5457 Makala Blvd Ste 100,Kailua-kona,HI,19,4688,8,Puce
"5691 Bay St, Emeryville, CA",5691 Bay St,Emeryville,CA,44,5116,8,Fuscia
"900 Kapahulu Ave, Honolulu, HI",900 Kapahulu Ave,Honolulu,HI,25,6339,5,Purple
"590 Farrington Hwy, Kapolei, HI",590 Farrington Hwy,Kapolei,HI,12,5345,2,Pink
"915431 Kapolei Parkway Ste 320, Kapolei, HI",915431 Kapolei Parkway Ste 320,Kapolei,HI,17,3809,3,Green
"1580 E 14th Street, San Leandro, CA",1580 E 14th Street,San Leandro,CA,38,148,2,Yellow
"2180 Shattuck Avenue, Berkeley, CA",2180 Shattuck Avenue,Berkeley,CA,14,9760,9,Orange
"95-1249 Meheula Pkwy, Mililani, HI",95-1249 Meheula Pkwy,Mililani,HI,67,6204,4,Aquamarine
"333 Kilauea Ave, Hilo, HI",333 Kilauea Ave,Hilo,HI,63,5226,3,Yellow
"3-3277 Kuhio Hwy, Lihue, HI",3-3277 Kuhio Hwy,Lihue,HI,32,9107,4,Turquoise
"1450 Ala Moana Blvd Sp 1240, Honolulu, HI",1450 Ala Moana Blvd Sp 1240,Honolulu,HI,49,2889,6,Mauv
"94-050 Farrington Hwy, Waipahu, HI",94-050 Farrington Hwy,Waipahu,HI,47,5355,2,Puce
"45-480 Kaneohe Bay Dr, Kaneohe, HI",45-480 Kaneohe Bay Dr,Kaneohe,HI,51,9504,3,Khaki
"500 Kahelu Ave, Mililani, HI",500 Kahelu Ave,Mililani,HI,99,9164,5,Turquoise
"4300 Ming Ave, Bakersfield, CA",4300 Ming Ave,Bakersfield,CA,34,1154,4,Goldenrod
"3501 Mall View Rd, Bakersfield, CA",3501 Mall View Rd,Bakersfield,CA,88,5182,4,Khaki
"4180 Truxtun Ave, Bakersfield, CA",4180 Truxtun Ave,Bakersfield,CA,42,70,4,Purple
"3401 Coffee Road, Bakersfield, CA",3401 Coffee Road,Bakersfield,CA,92,226,4,Khaki
"1460 Hulsey Way, Manteca, CA",1460 Hulsey Way,Manteca,CA,32,5585,4,Goldenrod
"6855 W Eight Mile Rd, Stockton, CA",6855 W Eight Mile Rd,Stockton,CA,50,8373,2,Blue
"2439 W Kettleman Ln, Lodi, CA",2439 W Kettleman Ln,Lodi,CA,16,1837,4,Red
"2805 Naglee Rd, Tracy, CA",2805 Naglee Rd,Tracy,CA,22,4890,7,Violet
"5756 Pacific Ave, Stockton, CA",5756 Pacific Ave,Stockton,CA,71,272,8,Yellow
"835 Browning St, Suite 101, Redding, CA",835 Browning St,Redding,CA,32,9882,8,Goldenrod
"10030 Goethe Rd, Sacramento, CA",10030 Goethe Rd,Sacramento,CA,89,5619,5,Yellow
"1136 Galleria Blvd., Roseville, CA",1136 Galleria Blvd.,Roseville,CA,91,4942,7,Red
"2700 Watt Ave, Sacramento, CA",2700 Watt Ave,Sacramento,CA,56,8251,5,Purple
"3591 Truxel Road, Sacramento, CA",3591 Truxel Road,Sacramento,CA,14,7320,7,Orange
"5550 Sunrise Blvd Ste 100, Citrus Heights, CA",5550 Sunrise Blvd Ste 100,Citrus Heights,CA,29,401,8,Maroon
"9170 W Stockton Blvd, Elk Grove, CA",9170 W Stockton Blvd,Elk Grove,CA,36,576,5,Turquoise
"2030 Douglas Blvd., Roseville, CA",2030 Douglas Blvd.,Roseville,CA,9,9336,5,Khaki
"1743 Arden Way, Sacramento, CA",1743 Arden Way,Sacramento,CA,69,5292,9,Purple
"290 Palladio Pkwy Suite 851, Folsom, CA",290 Palladio Pkwy Suite 851,Folsom,CA,9,6842,4,Indigo
"1407 J St, Sacramento, CA",1407 J St,Sacramento,CA,73,7854,8,Red
"2244 Fair Oaks Blvd., Sacramento, CA",2244 Fair Oaks Blvd.,Sacramento,CA,86,2560,5,Fuscia
"1439 Main Street, Suite 1, Watsonville, CA",1439 Main Street,Watsonville,CA,25,8887,5,Blue
"2794 El Camino Real, Santa Clara, CA",2794 El Camino Real,Santa Clara,CA,88,2242,1,Crimson
"185 Ranch Drive, Milpitas, CA",185 Ranch Drive,Milpitas,CA,80,5747,6,Khaki
"2980 E Capitol Expy, San Jose, CA",2980 E Capitol Expy,San Jose,CA,43,3172,7,Green
"2855 Stevens Creek Blvd Ste A7, Santa Clara, CA",2855 Stevens Creek Blvd Ste A7,Santa Clara,CA,76,4419,5,Fuscia
"8647 San Ysidro, Gilroy, CA",8647 San Ysidro,Gilroy,CA,46,8606,7,Pink
"1620 North Main St, Salinas, CA",1620 North Main St,Salinas,CA,29,6916,4,Puce
"1705 Story Rd, San Jose, CA",1705 Story Rd,San Jose,CA,13,2728,5,Yellow
"31 West Hillsdale Blvd, San Mateo, CA",31 West Hillsdale Blvd,San Mateo,CA,82,1374,9,Violet
"1546 Saratoga Ave, San Jose, CA",1546 Saratoga Ave,San Jose,CA,97,4005,4,Crimson
"2805 El Camino Real, Palo Alto, CA",2805 El Camino Real,Palo Alto,CA,51,8392,3,Puce
"904 B Blossom Hill Rd, San Jose, CA",904 B Blossom Hill Rd,San Jose,CA,44,5072,8,Fuscia
"1206 El Camino Real, San Bruno, CA",1206 El Camino Real,San Bruno,CA,32,4295,7,Purple
"19479 Stevens Creek Blvd. Ste, Cupertino, CA",19479 Stevens Creek Blvd. Ste,Cupertino,CA,51,5355,5,Pink
"11998 Los Osos Valley Blvd, San Luis Obispo, CA",11998 Los Osos Valley Blvd,San Luis Obispo,CA,15,5054,8,Green
"1054 Harter Rd., Yuba City, CA",1054 Harter Rd.,Yuba City,CA,74,9911,4,Yellow
"3970-4 Missouri Flat Rd, Placerville, CA",3970-4 Missouri Flat Rd,Placerville,CA,35,9870,8,Orange
"1844 Sycamore Dr, Simi Valley, CA",1844 Sycamore Dr,Simi Valley,CA,42,912,3,Aquamarine
"1956 N Rose Avenue, Oxnard, CA",1956 N Rose Avenue,Oxnard,CA,53,9224,4,Yellow
"1263 Simi Valley Town Cntr Way, Simi Valley, CA",1263 Simi Valley Town Cntr Way,Simi Valley,CA,5,9312,7,Turquoise
"1788-b S. Victoria Ave, Ventura, CA",1788-b S. Victoria Ave,Ventura,CA,2,2951,8,Mauv
"3301 E. Main Street Ste.1505, Ventura, CA",3301 E. Main Street Ste.1505,Ventura,CA,40,1487,3,Puce
"1955 Daily Dr, Camarillo, CA",1955 Daily Dr,Camarillo,CA,95,3390,3,Khaki
"7060 Marketplace, Goleta, CA",7060 Marketplace,Goleta,CA,32,3029,8,Turquoise
"101 S. La Cumbre Road, Santa Barbara, CA",101 S. La Cumbre Road,Santa Barbara,CA,94,5812,3,Goldenrod
"180 N. Moorpark Rd, Thousand Oaks, CA",180 N. Moorpark Rd,Thousand Oaks,CA,83,3682,9,Khaki
"2356 S Bradley Rd, Santa Maria, CA",2356 S Bradley Rd,Santa Maria,CA,45,3900,4,Purple
"300 Kinetic Dr, Oxnard, CA",300 Kinetic Dr,Oxnard,CA,57,1928,8,Khaki
"5827 Rosemead Blvd, Temple City, CA",5827 Rosemead Blvd,Temple City,CA,16,9956,6,Goldenrod
"810 East Valley Blvd., Alhambra, CA",810 East Valley Blvd.,Alhambra,CA,89,4808,9,Blue
"830 West Arrow Hwy, San Dimas, CA",830 West Arrow Hwy,San Dimas,CA,84,3458,4,Red
"5057 Whittier Blvd, Los Angeles, CA",5057 Whittier Blvd,Los Angeles,CA,78,2954,5,Violet
"2000 W. Imperial Hwy, La Habra, CA",2000 W. Imperial Hwy,La Habra,CA,24,6195,9,Yellow
"112 Plaza Dr Ste 426, West Covina, CA",112 Plaza Dr Ste 426,West Covina,CA,70,8700,4,Goldenrod
"17342 Colima Rd, Rowland Heights, CA",17342 Colima Rd,Rowland Heights,CA,65,9314,2,Yellow
"83 E. Coloroado Blvd, Pasadena, CA",83 E. Coloroado Blvd,Pasadena,CA,15,6547,5,Red
"6045 E Slauson Ave, Commerce, CA",6045 E Slauson Ave,Commerce,CA,97,374,7,Purple
"3699 E Foothill Blvd, Pasadena, CA",3699 E Foothill Blvd,Pasadena,CA,15,5735,4,Orange
"3361 Rosecrans, San Diego, CA",3361 Rosecrans,San Diego,CA,99,3534,6,Maroon
"50 Town Center Pkwy, Santee, CA",50 Town Center Pkwy,Santee,CA,88,3601,7,Turquoise
"3030 Plaza Bonita Rd., National City, CA",3030 Plaza Bonita Rd.,National City,CA,54,4214,5,Khaki
"500 E Danenberg Drive Ste 100, El Centro, CA",500 E Danenberg Drive Ste 100,El Centro,CA,3,716,8,Purple
"555 Broadway, Chula Vista, CA",555 Broadway,Chula Vista,CA,89,9854,1,Indigo
"8225 Mira Mesa Blvd, San Diego, CA",8225 Mira Mesa Blvd,San Diego,CA,59,9582,5,Red
"7480 Convoy Ct, San Diego, CA",7480 Convoy Ct,San Diego,CA,62,6038,6,Fuscia
"2011 Camino Del Este North, San Diego, CA",2011 Camino Del Este North,San Diego,CA,37,2035,4,Blue
"878 Eastlake Parkway, Chula Vista, CA",878 Eastlake Parkway,Chula Vista,CA,40,5896,3,Crimson
"2883 Jamacha Rd, El Cajon, CA",2883 Jamacha Rd,El Cajon,CA,61,40,5,Khaki
"252 Broadway, San Diego, CA",252 Broadway,San Diego,CA,7,1867,5,Green
"5690 Balboa Arms Dr, San Diego, CA",5690 Balboa Arms Dr,San Diego,CA,76,1559,7,Fuscia
"2775 El Camino Real, Tustin, CA",2775 El Camino Real,Tustin,CA,25,7664,1,Pink
"1452 Edinger Ave, Tustin, CA",1452 Edinger Ave,Tustin,CA,82,8073,3,Puce
"298 E 17th St, Costa Mesa, CA",298 E 17th St,Costa Mesa,CA,90,3995,2,Yellow
"125 S Main St, Orange, CA",125 S Main St,Orange,CA,31,749,1,Violet
"16496 Beach Blvd, Westminster, CA",16496 Beach Blvd,Westminster,CA,100,4599,4,Crimson
"23842 El Toro Rd, Lake Forest, CA",23842 El Toro Rd,Lake Forest,CA,94,1979,3,Puce
"7501 Edinger Avenue, Huntington Beach, CA",7501 Edinger Avenue,Huntington Beach,CA,81,8554,3,Fuscia
"3711 S Bristol St, Santa Ana, CA",3711 S Bristol St,Santa Ana,CA,93,104,5,Purple
"1345 S Harbor Blvd, Fullerton, CA",1345 S Harbor Blvd,Fullerton,CA,54,2711,2,Pink
"1643 E Imperial Hwy, Brea, CA",1643 E Imperial Hwy,Brea,CA,20,908,6,Green
"13102 Harbor Blvd, Garden Grove, CA",13102 Harbor Blvd,Garden Grove,CA,96,5821,5,Yellow
"6328 Irvine Blvd, Irvine, CA",6328 Irvine Blvd,Irvine,CA,65,6435,6,Orange
"5550 E. Santa Ana Canyon Road, Anaheim, CA",5550 E. Santa Ana Canyon Road,Anaheim,CA,55,153,5,Aquamarine
"225 West Avenida Vista Hermosa, San Clemente, CA",225 West Avenida Vista Hermosa,San Clemente,CA,68,2697,3,Yellow
"10035 Adams Ave., Huntington Beach, CA",10035 Adams Ave.,Huntington Beach,CA,66,9886,6,Turquoise
"301 N Crescent Way, Anaheim, CA",301 N Crescent Way,Anaheim,CA,68,9743,3,Mauv
"18011 Newhope Street, Fountain Valley, CA",18011 Newhope Street,Fountain Valley,CA,33,3070,4,Puce
"417 W. Warner, Santa Ana, CA",417 W. Warner,Santa Ana,CA,88,7482,7,Khaki
"347 Vista Village Drive, Vista, CA",347 Vista Village Drive,Vista,CA,9,214,3,Turquoise
"11954 Carmel Mtn Rnch Rd, San Diego, CA",11954 Carmel Mtn Rnch Rd,San Diego,CA,68,9142,3,Goldenrod
"1268 Auto Pkwy, Escondido, CA",1268 Auto Pkwy,Escondido,CA,23,8357,1,Khaki
"133 S. Las Posas, San Marcos, CA",133 S. Las Posas,San Marcos,CA,67,9253,9,Purple
"2530 Vista Way, Oceanside, CA",2530 Vista Way,Oceanside,CA,41,5262,2,Khaki
"3435 Del Mar Heights Rd Ste D2, San Diego, CA",3435 Del Mar Heights Rd Ste D2,San Diego,CA,71,9049,6,Goldenrod
"301 W Mckinley, Suite 110, Sunnyvale, CA",301 W Mckinley,Sunnyvale,CA,18,2898,6,Blue
"1274 East Plumb Lane, Suite A, Reno, NV",1274 East Plumb Lane,Reno,NV,27,589,4,Red
"46-056 Kamehameha Hwy Spc C-02, Kaneohe, HI",46-056 Kamehameha Hwy Spc C-02,Kaneohe,HI,84,684,5,Violet
"1375 Capital Blvd, Reno, NV",1375 Capital Blvd,Reno,NV,43,8154,7,Yellow
"196 Suburban Rd, San Luis Obispo, CA",196 Suburban Rd,San Luis Obispo,CA,20,8635,4,Goldenrod
"5749 Humboldt Hill Rd, Eureka, CA",5749 Humboldt Hill Rd,Eureka,CA,63,663,5,Yellow
"46-056 Kamehameha Hwy, Kaneohe, HI",46-056 Kamehameha Hwy,Kaneohe,HI,73,7450,6,Red
"920 S Rampart Blvd, Las Vegas, NV",920 S Rampart Blvd,Las Vegas,NV,39,9196,6,Purple
"6750 Via Austi Pkwy, Las Vegas, NV",6750 Via Austi Pkwy,Las Vegas,NV,24,6002,4,Orange
"12911 E 183rd St, Cerritos, CA",12911 E 183rd St,Cerritos,CA,79,9590,9,Maroon
